Url,Pays,Etat,Province,Ville,Nom,Adresse,Postal,Téléphone,Email,Site,GPS
https://fre.cityhallworldwide.com/mairie-en-autriche/rathaus-wolfsberg-i105212/,Autriche,Carinthie,Politischer bezirk wolfsberg,Wolfsberg,rathaus wolfsberg,"rathausplatz, rathauspl. 1, 9400 wolfsberg, austria",9400,Information non disponible,Information non disponible,Information non disponible,"46.84017, 14.84409"
https://fre.cityhallworldwide.com/mairie-en-autriche/gemeinde-sittersdorf-i105349/,Autriche,Carinthie,Politischer bezirk völkermarkt,Sittersdorf,gemeinde sittersdorf,"sittersdorf 100a, 9133 sittersdorf, austria",9133,04237 2020,Information non disponible,http://www.sittersdorf.at/,"46.547, 14.60268"
https://fre.cityhallworldwide.com/mairie-en-autriche/gemeinde-wernberg-i105231/,Autriche,Carinthie,Politischer bezirk villach land,Wernberg,gemeinde wernberg,"bundesstraße 11, 9241 wernberg, austria",9241,Information non disponible,Information non disponible,http://www.wernberg.gv.at/,"46.62369, 13.93816"
https://fre.cityhallworldwide.com/mairie-en-autriche/team-stronach-fur-karnten-i105322/,Autriche,Carinthie,Politischer bezirk spittal an der drau,Spittal an der drau,team stronach für kärnten,"neuer pl. 1, 9800 spittal an der drau, austria",9800,04762 90915,Information non disponible,http://www.teamstronach.at/,"46.79879, 13.49593"
https://fre.cityhallworldwide.com/mairie-en-autriche/gemeindeamt-kappel-am-krappfeld-i105601/,Autriche,Carinthie,Politischer bezirk sankt veit an der glan,Kappel am krappfeld,gemeindeamt kappel am krappfeld,"alois knafl-straße, 9321 kappel am krappfeld, austria",9321,04262 26290,Information non disponible,Information non disponible,"46.83925, 14.48368"
https://fre.cityhallworldwide.com/mairie-en-autriche/gemeinde-schiefling-am-see-i105386/,Autriche,Carinthie,Politischer bezirk klagenfurt land,Schiefling am see,gemeinde schiefling am see,"auen-bergweg 175, 9220 velden am wörthersee, austria",9220,04274 2275,Information non disponible,http://www.oevp-schiefling.at/vereine.html,"46.61666, 14.09291"
https://fre.cityhallworldwide.com/mairie-en-autriche/marktgemeinde-kirchbach-i105593/,Autriche,Carinthie,Politischer bezirk hermagor,Kirchbach,marktgemeinde kirchbach,"kirchbach 155, 9632 kirchbach, austria",9632,Information non disponible,Information non disponible,Information non disponible,"46.64076, 13.18804"
https://fre.cityhallworldwide.com/mairie-en-autriche/magistrat-villach-i105272/,Autriche,Carinthie,Villach stadt,Villach,magistrat villach,"rathauspl. 1, 9500 villach, austria",9500,04242 2050,Information non disponible,http://www.villach.at/,"46.61277, 13.84659"
https://fre.cityhallworldwide.com/mairie-en-autriche/gemeindeamt-steinbrunn-i105324/,Autriche,Burgenland,Politischer bezirk eisenstadt,Steinbrunn,gemeindeamt steinbrunn,"obere hauptstraße 1, 7035 steinbrunn, austria",7035,02688 72212,Information non disponible,http://www.steinbrunn.at/,"47.83709, 16.4137"
https://fre.cityhallworldwide.com/mairie-en-autriche/gemeinde-markt-piesting-i105533/,Autriche,Basse-Autriche,Politischer bezirk wiener neustadt,Markt piesting,gemeinde markt piesting,"marktpl. 1, 2753 markt piesting, austria",2753,02633 42241,Information non disponible,http://www.piesting.at/,"47.87309, 16.12881"
https://fre.cityhallworldwide.com/mairie-en-autriche/amt-der-stadt-feldkirch-i105394/,Autriche,Vorarlberg,Politischer bezirk feldkirch,Feldkirch,amt der stadt feldkirch,"schmiedgasse 1, 6800 feldkirch, austria",6800,05522 304,Information non disponible,http://www.feldkirch.at/,"47.23756, 9.597949"
https://fre.cityhallworldwide.com/mairie-en-autriche/rathaus-i105191/,Autriche,Vienne,Politischer bezirk wien (stadt),Vienne (Ville),rathaus,"friedrich-schmidt-platz 1, 1010 wien, austria",1010,01 52550,Information non disponible,https://www.wien.gv.at/verwaltung/rathaus/index.html,"48.21087, 16.35725"
https://fre.cityhallworldwide.com/mairie-en-autriche/rathaus-innsbruck-i105283/,Autriche,Tyrol,Tyrol (Province),Innsbruck,rathaus innsbruck,"maria-theresien-straße 18, 6020 innsbruck, austria",6020,0512 53600,Information non disponible,https://www.innsbruck.gv.at,"47.26566, 11.39361"
https://fre.cityhallworldwide.com/mairie-en-autriche/hauptplatz-i105655/,Autriche,Styrie,Styrie (Province),Graz,hauptplatz,"hauptpl. 1, 8010 graz, austria",8010,0316 80750,Information non disponible,http://www.graztourismus.at/cms/beitrag/10001889/2866010/,"47.07079, 15.43839"
https://fre.cityhallworldwide.com/mairie-en-autriche/old-city-hall-altes-rathaus-i105232/,Autriche,Salzbourg,Salzbourg (Province),Salzbourg (Ville),old city hall (altes rathaus),"kranzlmarkt 1, 5020 salzburg, austria",5020,Information non disponible,Information non disponible,Information non disponible,"47.80021, 13.04462"
https://fre.cityhallworldwide.com/mairie-en-autriche/gemeindeamt-holzhausen-i105235/,Autriche,Haute-Autriche,Wels-land,Holzhausen,gemeindeamt holzhausen,"landstraße 2, 4615 holzhausen, austria",4615,07243 57155,Information non disponible,http://www.gemeinde-holzhausen.at/,"48.22297, 14.09672"
https://fre.cityhallworldwide.com/mairie-en-autriche/marktgemeindereamt-bad-wimsbach-neydharting-i105265/,Autriche,Haute-Autriche,Wels-land,Bad wimsbach-neydharting,marktgemeindereamt bad wimsbach-neydharting,"markt 1, 4654 wimsbach, austria",4654,07245 250550,Information non disponible,https://www.bad-wimsbach.at/,"48.06354, 13.90192"
https://fre.cityhallworldwide.com/mairie-en-autriche/gemeindeamt-eggendorf-i105302/,Autriche,Haute-Autriche,Wels-land,Marchtrenk,gemeindeamt eggendorf,"obere dorfstraße 4, 4616 eggendorf im traunkreis, austria",4616,07228 7265,Information non disponible,http://www.eggendorf.at/,"48.16353, 14.12562"
https://fre.cityhallworldwide.com/mairie-en-autriche/marktgemeindeamt-kematen-a-innbach-i105487/,Autriche,Haute-Autriche,Wels-land,Offenhausen,marktgemeindeamt kematen a innbach,"innbachtalstraße 45, 4633 kematen am innbach, austria",4633,07247 6655,Information non disponible,http://kematen-innbach.at/,"48.17663, 13.86322"
https://fre.cityhallworldwide.com/mairie-en-autriche/stadtgemeinde-salzburg-i129019/,Autriche,Salzbourg,Salzbourg (Province),Salzbourg (Ville),stadtgemeinde salzburg,"mirabellplatz 4, 5020 salzburg, austria",5020,Information non disponible,Information non disponible,Information non disponible,"47.80587, 13.04268"
https://fre.cityhallworldwide.com/mairie-en-autriche/gemeindeamt-neustift-im-stubaital-i105513/,Autriche,Tyrol,Tyrol (Province),Neustift,gemeindeamt neustift im stubaital,"dorf 1, 6167 neustift im stubaital, austria",6167,05226 22100,Information non disponible,http://www.neustift.tirol.gv.at/,"47.11082, 11.30738"
https://fre.cityhallworldwide.com/mairie-en-autriche/stadt-feldkirch-i127608/,Autriche,Vorarlberg,Politischer bezirk feldkirch,Feldkirch,stadt feldkirch,"schmiedgasse 1-3, 6800 feldkirch, austria",6800,05522 3040,Information non disponible,http://www.feldkirch.at/,"47.2376, 9.597965"
https://fre.cityhallworldwide.com/mairie-en-autriche/brand-i105744/,Autriche,Vorarlberg,Politischer bezirk bludenz,Brand,brand,"brand 230, 6708 brand bei bludenz, austria",6708,05559 308,Information non disponible,Information non disponible,"47.10642, 9.719443"
https://fre.cityhallworldwide.com/mairie-en-autriche/gemeindeamt-gofis-i105450/,Autriche,Vorarlberg,Politischer bezirk feldkirch,Göfis,gemeindeamt göfis,"kirchstraße 2, 6811, austria",6811,Information non disponible,Information non disponible,Information non disponible,"47.23572, 9.631371"
https://fre.cityhallworldwide.com/mairie-en-autriche/gemeindeamt-weiler-i105243/,Autriche,Vorarlberg,Politischer bezirk feldkirch,Weiler,gemeindeamt weiler,"walgaustraße 1, 6833 weiler, austria",6833,Information non disponible,Information non disponible,Information non disponible,"47.30344, 9.653269"
https://fre.cityhallworldwide.com/mairie-en-autriche/gemeindeamt-brand-i105707/,Autriche,Vorarlberg,Politischer bezirk bludenz,Brand,gemeindeamt brand,"muhledorfle 40, 6708 brand bei bludenz, austria",6708,Information non disponible,Information non disponible,Information non disponible,"47.10983, 9.743307"
https://fre.cityhallworldwide.com/mairie-en-autriche/klosterle-am-arlberg-i105421/,Autriche,Vorarlberg,Politischer bezirk bludenz,Klösterle,klösterle am arlberg,"klösterle 59b, 6754 klösterle, austria",6754,05582 204,Information non disponible,http://www.klostertal.org/gemeinden/kloesterle-am-arlberg/,"47.1313, 10.09167"
https://fre.cityhallworldwide.com/mairie-en-autriche/gemeindeamt-dalaas-i105352/,Autriche,Vorarlberg,Politischer bezirk bludenz,Klösterle,gemeindeamt dalaas,"bahnhofweg 9, 6752 wald am arlberg, austria",6752,Information non disponible,Information non disponible,Information non disponible,"47.13333, 10.04985"
https://fre.cityhallworldwide.com/mairie-en-autriche/marktgemeindeamt-bezau-i105436/,Autriche,Vorarlberg,Politischer bezirk bregenz,Bezau,marktgemeindeamt bezau,"platz 375, 6870 bezau, austria",6870,Information non disponible,Information non disponible,Information non disponible,"47.38517, 9.901156"
https://fre.cityhallworldwide.com/mairie-en-autriche/gemeindeamt-blons-i105338/,Autriche,Vorarlberg,Politischer bezirk bludenz,Blons,gemeindeamt blons,"blons 95, 6723 blons, austria",6723,05553 8112100,Information non disponible,Information non disponible,"47.22255, 9.833283"
https://fre.cityhallworldwide.com/mairie-en-autriche/sankt-egyden-am-steinfeld-urschendorf-i105515/,Autriche,Basse-Autriche,Politischer bezirk neunkirchen,Willendorf am steinfelde,sankt egyden am steinfeld-urschendorf,"puchberger str. 51, 2731 urschendorf, austria",2731,Information non disponible,Information non disponible,Information non disponible,"47.78371, 16.0935"
https://fre.cityhallworldwide.com/mairie-en-autriche/sollenau-i127583/,Autriche,Basse-Autriche,Politischer bezirk wiener neustadt,Sollenau,sollenau,"hauptpl. 1, 2601 sollenau, austria",2601,02628 47285,Information non disponible,http://www.sollenau.noe.gv.at/,"47.89725, 16.25061"
https://fre.cityhallworldwide.com/mairie-en-autriche/gemeindeamt-sollenau-i105346/,Autriche,Basse-Autriche,Politischer bezirk wiener neustadt,Sollenau,gemeindeamt sollenau,"hauptpl. 1, 2601 sollenau, austria",2601,Information non disponible,Information non disponible,Information non disponible,"47.89717, 16.25073"
https://fre.cityhallworldwide.com/mairie-en-autriche/gemeindeamt-pitten-i105475/,Autriche,Basse-Autriche,Politischer bezirk neunkirchen,Pitten,gemeindeamt pitten,"hauptpl. 1, 2823, austria",2823,02627 82212,Information non disponible,http://www.pitten.gv.at/buergerservice_gemeindeamt/kontakt_und_amtszeiten,"47.7161, 16.18649"
https://fre.cityhallworldwide.com/mairie-en-autriche/gemeindereamt-der-marktgemeinde-wollersdorf-sanktinabruckl-i105204/,Autriche,Basse-Autriche,Politischer bezirk wiener neustadt,Markt piesting,gemeindereamt der marktgemeinde wöllersdorf-sanktinabrückl,"marktzentrum 1, 2752 wöllersdorf, austria",2752,Information non disponible,Information non disponible,Information non disponible,"47.86544, 16.16951"
https://fre.cityhallworldwide.com/mairie-en-autriche/marktgemeindereamt-bad-erlach-i105251/,Autriche,Basse-Autriche,Politischer bezirk wiener neustadt,Erlach,marktgemeindereamt bad erlach,"fabriksgasse 1, 2822 bad erlach, austria",2822,Information non disponible,Information non disponible,Information non disponible,"47.72791, 16.21496"
https://fre.cityhallworldwide.com/mairie-en-autriche/gemeindeamt-weikersdorf-am-steinfelde-i105244/,Autriche,Basse-Autriche,Politischer bezirk wiener neustadt,Weikersdorf am steinfelde,gemeindeamt weikersdorf am steinfelde,"hauptpl. 115, 2722 weikersdorf am steinfelde, austria",2722,02638 22226,Information non disponible,http://www.weikersdorf.at/,"47.80564, 16.14307"
https://fre.cityhallworldwide.com/mairie-en-autriche/gemeindeamt-bad-sauerbrunn-i105598/,Autriche,Burgenland,Politischer bezirk mattersburg,Neudörfl,gemeindeamt bad sauerbrunn,"wr. neustädterstraße 2, 7202 bad sauerbrunn, austria",7202,02625 322030,Information non disponible,http://www.bad-sauerbrunn.at/,"47.77531, 16.32516"
https://fre.cityhallworldwide.com/mairie-en-autriche/gemeindeamt-marktgemeinde-lichtenworth-i105194/,Autriche,Basse-Autriche,Politischer bezirk wiener neustadt,Lichtenwörth,gemeindeamt marktgemeinde lichtenwörth,"hauptstraße 1, 2493 lichtenwörth, austria",2493,Information non disponible,Information non disponible,http://www.lichtenwoerth.at/,"47.83532, 16.29197"
https://fre.cityhallworldwide.com/mairie-en-autriche/polgarmesteri-hivatal-harka-i105517/,Autriche,Burgenland,Politischer bezirk oberpullendorf,Deutschkreutz,polgármesteri hivatal harka,"harka, nyéki utca 34., 9422 hungary",9422,(99) 506 795,Information non disponible,http://harka.hu/index.php?option=com_content&task=view&id=30&itemid=45,"47.63329, 16.60076"
https://fre.cityhallworldwide.com/mairie-en-autriche/gemeinde-krensdorf-i105580/,Autriche,Burgenland,Politischer bezirk mattersburg,Krensdorf,gemeinde krensdorf,"hauptpl. 1, 7031 krensdorf, austria",7031,02626 71261,Information non disponible,http://www.krensdorf.at/,"47.78442, 16.4154"
https://fre.cityhallworldwide.com/mairie-en-autriche/winden-am-see-gemeindeamt-i105217/,Autriche,Burgenland,Politischer bezirk neusiedl am see,Winden am see,"winden am see, gemeindeamt","hauptstraße 8, 7092 winden am see, austria",7092,02160 8275,Information non disponible,http://winden-am-see-gemeindeamt.business.site/,"47.9516, 16.75282"
https://fre.cityhallworldwide.com/mairie-en-autriche/marktgemeinde-hof-am-leithaberge-i105542/,Autriche,Basse-Autriche,Politischer bezirk bruck an der leitha,Hof am leithaberge,marktgemeinde hof am leithaberge,"hauptpl. 8, 2451 hof am leithaberge, austria",2451,02168 62393,Information non disponible,http://www.hof-leithaberge.gv.at/,"47.94376, 16.57878"
https://fre.cityhallworldwide.com/mairie-en-autriche/gemeinde-loretto-i105320/,Autriche,Burgenland,Politischer bezirk eisenstadt,Loretto,gemeinde loretto,"hauptpl. 9, 2443 loretto, austria",2443,Information non disponible,Information non disponible,Information non disponible,"47.91585, 16.51644"
https://fre.cityhallworldwide.com/mairie-en-autriche/gemeindeamt-zemendorf-stottera-i105203/,Autriche,Burgenland,Politischer bezirk mattersburg,Pöttelsdorf,gemeindeamt zemendorf-stöttera,"hauptstraße 49, 7023 zemendorf, austria",7023,02626 5242,Information non disponible,Information non disponible,"47.76124, 16.45073"
https://fre.cityhallworldwide.com/mairie-en-autriche/gemeindeamt-mullendorf-i105617/,Autriche,Burgenland,Politischer bezirk eisenstadt,Müllendorf,gemeindeamt müllendorf,"kapellenpl. 1, 7052 müllendorf, austria",7052,Information non disponible,Information non disponible,Information non disponible,"47.83792, 16.46184"
https://fre.cityhallworldwide.com/mairie-en-autriche/gemeindeamt-grohoflein-i105205/,Autriche,Burgenland,Politischer bezirk eisenstadt,Müllendorf,gemeindeamt großhöflein,"hauptstraße 37, 7051 großhöflein, austria",7051,02682 62733,Information non disponible,http://www.grosshoeflein.at/,"47.83342, 16.48158"
https://fre.cityhallworldwide.com/mairie-en-autriche/stadtgemeinde-eisenstadt-i105291/,Autriche,Burgenland,Burgenland (Province),Eisenstadt,stadtgemeinde eisenstadt,"bad kissingen-platz 1, 7000 eisenstadt, austria",7000,02682 4591,Information non disponible,Information non disponible,"47.84669, 16.53468"
https://fre.cityhallworldwide.com/mairie-en-autriche/auenstelle-gundersheim---marktgemeinde-kirchbach-i105703/,Autriche,Carinthie,Politischer bezirk hermagor,Dellach,außenstelle gundersheim - marktgemeinde kirchbach,"gundersheim 68, 9634 gundersheim, austria",9634,Information non disponible,Information non disponible,Information non disponible,"46.65087, 13.11554"
https://fre.cityhallworldwide.com/mairie-en-autriche/marktgemeinde-grafenstein-i105473/,Autriche,Carinthie,Politischer bezirk klagenfurt land,Grafenstein,marktgemeinde grafenstein,"hauptstraße 49, 9131 grafenstein, austria",9131,04225 22200,Information non disponible,http://www.grafenstein.gv.at/,"46.61717, 14.46573"
https://fre.cityhallworldwide.com/mairie-en-autriche/gemeinde-maria-worth-i105546/,Autriche,Carinthie,Politischer bezirk klagenfurt land,Keutschach am see,gemeinde maria wörth,"wörthersee-süduferstraße 115, 9081 reifnitz, austria",9081,04273 20500,Information non disponible,https://www.maria-woerth.info/,"46.60641, 14.18257"
https://fre.cityhallworldwide.com/mairie-en-autriche/hallegg-i105693/,Autriche,Carinthie,Politischer bezirk klagenfurt land,Moosburg,hallegg,"9061 hallegg, austria",9061,Information non disponible,Information non disponible,Information non disponible,"46.64827, 14.24053"
https://fre.cityhallworldwide.com/mairie-en-autriche/community-maria-worth-i127599/,Autriche,Carinthie,Politischer bezirk klagenfurt land,Keutschach am see,community maria wörth,"wörthersee-süduferstraße 115, 9081 reifnitz, austria",9081,04273 20500,Information non disponible,https://www.maria-woerth.info/,"46.60641, 14.18257"
https://fre.cityhallworldwide.com/mairie-en-autriche/marktgemeinde-gurk-i105649/,Autriche,Carinthie,Politischer bezirk sankt veit an der glan,Gurk,marktgemeinde gurk,"doktor-schnerich-straße 12, 9342 gurk, austria",9342,04266 8125,Information non disponible,http://www.gurk.at/,"46.87442, 14.28959"
https://fre.cityhallworldwide.com/mairie-en-autriche/stadtgemeinde-friesach-i105669/,Autriche,Carinthie,Politischer bezirk sankt veit an der glan,Friesach,stadtgemeinde friesach,"fürstenhofpl. 1, 9360 friesach, austria",9360,Information non disponible,Information non disponible,Information non disponible,"46.95109, 14.40654"
https://fre.cityhallworldwide.com/mairie-en-autriche/stadtgemeinde-althofen-i105732/,Autriche,Carinthie,Politischer bezirk sankt veit an der glan,Althofen,stadtgemeinde althofen,"hauptpl. 8, 9330 althofen, austria",9330,04262 4802,Information non disponible,http://www.althofen.gv.at/,"46.87165, 14.47015"
https://fre.cityhallworldwide.com/mairie-en-autriche/marktgemeinde-liebenfels-i105745/,Autriche,Carinthie,Politischer bezirk sankt veit an der glan,Liebenfels,marktgemeinde liebenfels,"hauptpl. 9, 9556 liebenfels, austria",9556,Information non disponible,Information non disponible,http://www.liebenfels.at/,"46.73799, 14.28923"
https://fre.cityhallworldwide.com/mairie-en-autriche/rathaus-friesach-i127607/,Autriche,Carinthie,Politischer bezirk sankt veit an der glan,Friesach,rathaus friesach,"fürstenhofpl. 1, 9360 friesach, austria",9360,04268 2213,Information non disponible,http://www.friesach.at/,"46.95218, 14.40541"
https://fre.cityhallworldwide.com/mairie-en-autriche/marktgemeinde-sachsenburg-i105423/,Autriche,Carinthie,Politischer bezirk spittal an der drau,Sachsenburg,marktgemeinde sachsenburg,"marktpl. 12, 9751 sachsenburg, austria",9751,04769 2925,Information non disponible,http://www.sachsenburg.at/,"46.82796, 13.35118"
https://fre.cityhallworldwide.com/mairie-en-autriche/radenthein-i105455/,Autriche,Carinthie,Politischer bezirk spittal an der drau,Radenthein,radenthein,"hauptstraße 65, 9545 radenthein, austria",9545,04246 22881,Information non disponible,http://www.radenthein.gv.at/,"46.79971, 13.70071"
https://fre.cityhallworldwide.com/mairie-en-autriche/marktgemeinde-obervellach-i105501/,Autriche,Carinthie,Politischer bezirk spittal an der drau,Obervellach,marktgemeinde obervellach,"obervellach 21, 9821 obervellach, austria",9821,04782 22110,Information non disponible,http://www.obervellach.gv.at/,"46.93204, 13.20216"
https://fre.cityhallworldwide.com/mairie-en-autriche/marktgemeinde-oberdrauburg-i105508/,Autriche,Carinthie,Politischer bezirk spittal an der drau,Oberdrauburg,marktgemeinde oberdrauburg,"marktpl. 1, 9781 oberdrauburg, austria",9781,04710 22480,Information non disponible,http://www.oberdrauburg.at/,"46.74815, 12.97023"
https://fre.cityhallworldwide.com/mairie-en-autriche/gemeindeamt-berg-im-drautal-i105654/,Autriche,Carinthie,Politischer bezirk spittal an der drau,Berg im drautal,gemeindeamt berg im drautal,"berg, 9771 berg im drautal, austria",9771,Information non disponible,Information non disponible,Information non disponible,"46.70987, 13.1413"
https://fre.cityhallworldwide.com/mairie-en-autriche/marktgemeinde-millstatt-i127576/,Autriche,Carinthie,Politischer bezirk spittal an der drau,Millstatt,marktgemeinde millstatt,"marktpl. 8, 9872 millstatt, austria",9872,04766 2021,Information non disponible,Information non disponible,"46.80529, 13.57115"
https://fre.cityhallworldwide.com/mairie-en-autriche/rathaus-radenthein-i127589/,Autriche,Carinthie,Politischer bezirk spittal an der drau,Radenthein,rathaus radenthein,"hauptstraße 65, 9545 radenthein, austria",9545,04246 22881,Information non disponible,http://www.radenthein.gv.at/,"46.79971, 13.70071"
https://fre.cityhallworldwide.com/mairie-en-autriche/marktgemeindeamt-notsch-im-gailtal-i105621/,Autriche,Carinthie,Politischer bezirk villach land,Feistritz an der gail,marktgemeindeamt nötsch im gailtal,"nötsch, 9611 nötsch im gailtal, austria",9611,Information non disponible,Information non disponible,Information non disponible,"46.5868, 13.63777"
https://fre.cityhallworldwide.com/mairie-en-autriche/gemeinde-feld-am-see-i105670/,Autriche,Carinthie,Politischer bezirk villach land,Feld am see,gemeinde feld am see,"rathausstraße 25, 9544 feld am see, austria",9544,04246 22800,Information non disponible,http://www.feld-am-see.gv.at/,"46.77537, 13.74801"
https://fre.cityhallworldwide.com/mairie-en-autriche/gemeindeamt-arriach-i105721/,Autriche,Carinthie,Politischer bezirk villach land,Arriach,gemeindeamt arriach,"arriach 60, 9543 arriach, austria",9543,04247 8514,Information non disponible,http://www.arriach.gv.at/,"46.72979, 13.85057"
https://fre.cityhallworldwide.com/mairie-en-autriche/gemeinde-sankt-kanzian-am-klopeiner-see-i127605/,Autriche,Carinthie,Politischer bezirk völkermarkt,Eberndorf,gemeinde sankt kanzian am klopeiner see,"klopeiner str. 5, 9122 st. kanzian am klopeiner see, austria",9122,04239 22240,Information non disponible,http://www.st.kanzian.at/,"46.61432, 14.5758"
https://fre.cityhallworldwide.com/mairie-en-autriche/velden-am-worther-see-i105429/,Autriche,Carinthie,Carinthie (Province),Velden am wörthersee,velden am wörther see,"seecorso 2, 9220 velden am wörthersee, austria",9220,04274 2102,Information non disponible,Information non disponible,"46.613, 14.04159"
https://fre.cityhallworldwide.com/mairie-en-autriche/bad-sankt-leonhard-im-lavanttal-i105442/,Autriche,Carinthie,Carinthie (Province),Bad sankt leonhard im lavanttal,bad sankt leonhard im lavanttal,"hauptpl. 46, 9462 bad st. leonhard im lavanttal, austria",9462,04350 2218,Information non disponible,http://www.bad-st-leonhard-i-lav.at/,"46.96344, 14.79093"
https://fre.cityhallworldwide.com/mairie-en-autriche/stadtgartenamt-i105537/,Autriche,Carinthie,Carinthie (Province),Ebenthal,stadtgartenamt,"pulverturmstraße 76, 9020 klagenfurt am wörthersee, austria",9020,0463 5375110,Information non disponible,http://www.klagenfurt.at/,"46.62457, 14.35369"
https://fre.cityhallworldwide.com/mairie-en-autriche/gemeindereamt-bad-kleinkirchheim-i105585/,Autriche,Carinthie,Carinthie (Province),Kleinkirchheim,gemeindereamt bad kleinkirchheim,"kirchheimer weg 1, 9546 kleinkirchheim, austria",9546,04240 81820,Information non disponible,http://www.bad-kleinkirchheim.gv.at/,"46.81412, 13.79687"
https://fre.cityhallworldwide.com/mairie-en-autriche/gemeindeamt-reichenau-i105661/,Autriche,Carinthie,Carinthie (Province),Kleinkirchheim,gemeindeamt reichenau,"ebene reichenau 80, 9565 ebene reichenau, austria",9565,04275 2180,Information non disponible,http://www.reichenau.gv.at/,"46.85415, 13.89364"
https://fre.cityhallworldwide.com/mairie-en-autriche/gemeindeamt-frauenstein-i105746/,Autriche,Carinthie,Carinthie (Province),Sankt veit an der glan,gemeindeamt frauenstein,"schulstraße 1, 9311 kraig, austria",9311,04212 27510,Information non disponible,Information non disponible,"46.81137, 14.3676"
https://fre.cityhallworldwide.com/mairie-en-autriche/kapellenstrae-i105603/,Autriche,Haute-Autriche,Politischer bezirk steyr-land,Pfarrkirchen bei bad hall,kapellenstraße,"kapellenstraße, 4540 feyregg, austria",4540,Information non disponible,Information non disponible,Information non disponible,"48.0315, 14.18755"
https://fre.cityhallworldwide.com/mairie-en-autriche/pfarrkirchen-bei-bad-hall-i105481/,Autriche,Haute-Autriche,Politischer bezirk steyr-land,Pfarrkirchen bei bad hall,pfarrkirchen bei bad hall,"pfarrkirchen bei bad hall, austria",austria,Information non disponible,Information non disponible,Information non disponible,"48.02993, 14.19943"
https://fre.cityhallworldwide.com/mairie-en-autriche/gemeindeamt-ottnang-am-hausruck-i105210/,Autriche,Haute-Autriche,Politischer bezirk vöcklabruck,Manning,gemeindeamt ottnang am hausruck,"niederottnang 26, 4901, austria",4901,Information non disponible,Information non disponible,Information non disponible,"48.09639, 13.66183"
https://fre.cityhallworldwide.com/mairie-en-autriche/marktgemeindeamt-wilhering-i105254/,Autriche,Haute-Autriche,Politischer bezirk urfahr umgebung,Ottensheim,marktgemeindeamt wilhering,"linzerstr. 14, 4073 ufer, austria",4073,Information non disponible,Information non disponible,http://www.wilhering.at/,"48.32829, 14.17998"
https://fre.cityhallworldwide.com/mairie-en-autriche/marktgemeindeamt-weyer-i105230/,Autriche,Haute-Autriche,Politischer bezirk steyr-land,Weyer,marktgemeindeamt weyer,"marktpl. 8, 3335 weyer, austria",3335,07355 7665,Information non disponible,Information non disponible,"47.85748, 14.66451"
https://fre.cityhallworldwide.com/mairie-en-autriche/gemeindeamt-rainbach-im-innkreis-i105419/,Autriche,Haute-Autriche,Politischer bezirk schärding,Sankt florian am inn,gemeindeamt rainbach im innkreis,"rainbach im innkreis 51, 4791 rainbach im innkreis, austria",4791,Information non disponible,Information non disponible,Information non disponible,"48.45582, 13.5354"
https://fre.cityhallworldwide.com/mairie-en-autriche/gemeindeamt-pfarrkirchen-i105719/,Autriche,Haute-Autriche,Politischer bezirk rohrbach,Pfarrkirchen im mühlkreis,gemeindeamt pfarrkirchen,"pfarrkirchen im mühlkreis 13, 4141 pfarrkirchen im mühlkreis, austria",4141,07285 415,Information non disponible,http://www.pfarrkirchen.at/,"48.50381, 13.82588"
https://fre.cityhallworldwide.com/mairie-en-autriche/rathausgasse-i129023/,Autriche,Haute-Autriche,Politischer bezirk ried im innkreis,Ried im innkreis,rathausgasse,"rathausgasse, 4910 ried im innkreis, austria",4910,Information non disponible,Information non disponible,Information non disponible,"48.2103, 13.48819"
https://fre.cityhallworldwide.com/mairie-en-autriche/gemeindeamt-pabneukirchen-i105579/,Autriche,Haute-Autriche,Politischer bezirk perg,Bad kreuzen,gemeindeamt pabneukirchen,"markt 16, 4363 pabneukirchen, austria",4363,07265 5255,Information non disponible,http://www.pabneukirchen.at/,"48.32108, 14.81748"
https://fre.cityhallworldwide.com/mairie-en-autriche/stadtturm-enns-i105397/,Autriche,Haute-Autriche,Politischer bezirk linz land,Enns,stadtturm enns,"enns, austria",4470,Information non disponible,Information non disponible,Information non disponible,"48.21403, 14.47937"
https://fre.cityhallworldwide.com/mairie-en-autriche/gemeindeamt-vorderstoder-i105748/,Autriche,Haute-Autriche,Politischer bezirk kirchdorf an der krems,Rossleithen,gemeindeamt vorderstoder,"vorderstoder 66, 4574 vorderstoder, austria",4574,Information non disponible,Information non disponible,Information non disponible,"47.71265, 14.22484"
https://fre.cityhallworldwide.com/mairie-en-autriche/gemeindeamt-tollet-i105653/,Autriche,Haute-Autriche,Politischer bezirk grieskirchen,Grieskirchen,gemeindeamt tollet,"tollet 1, 4710 tollet, austria",4710,07248 62401,Information non disponible,http://www.tollet.at/,"48.2447, 13.79824"
https://fre.cityhallworldwide.com/mairie-en-autriche/rathaus-hallstatt-i105190/,Autriche,Haute-Autriche,Politischer bezirk gmunden,Bad goisern,rathaus hallstatt,"seestraße 158, 4830 hallstatt, austria",4830,06134 8255,Information non disponible,http://www.hallstatt.at/,"47.56182, 13.64949"
https://fre.cityhallworldwide.com/mairie-en-autriche/gemeindereamt-der-stadt-gro-gerungs-i105724/,Autriche,Basse-Autriche,Politischer bezirk zwettl,Groß-gerungs,gemeindereamt der stadt groß gerungs,"hauptpl. 18, 3920 groß gerungs, austria",3920,02812 86110,Information non disponible,http://www.gerungs.at/,"48.57438, 14.95807"
https://fre.cityhallworldwide.com/mairie-en-autriche/gemeindeamt-polling-im-innkreis-i105434/,Autriche,Haute-Autriche,Politischer bezirk braunau am inn,Altheim,gemeindeamt polling im innkreis,"waghamer str. 3, 4951 polling im innkreis, austria",4951,07723 6505,Information non disponible,http://www.polling-innkreis.ooe.gv.at/,"48.2297, 13.28299"
https://fre.cityhallworldwide.com/mairie-en-autriche/old-town-hall-city-of-linz-i105325/,Autriche,Haute-Autriche,Haute-autriche (Province),Linz,old town hall / city of linz,"hauptpl. 1, 4041 linz, austria",4041,0732 7070,Information non disponible,http://www.linz.at/,"48.30608, 14.28693"
https://fre.cityhallworldwide.com/mairie-en-autriche/stadtgemeindeamt-zell-am-see-i105198/,Autriche,Salzbourg,Politischer bezirk zell am see,Zell am see,stadtgemeindeamt zell am see,"brucker bundesstraße 2, 5700 zell am see, austria",5700,06542 76614,Information non disponible,Information non disponible,"47.32328, 12.79653"
https://fre.cityhallworldwide.com/mairie-en-autriche/marktgemeindeamt-neukirchen-am-grovenediger-i105255/,Autriche,Salzbourg,Politischer bezirk zell am see,Neukirchen am großvenediger,marktgemeindeamt neukirchen am großvenediger,"marktstraße 171, 5741 neukirchen am großvenediger, austria",5741,Information non disponible,Information non disponible,Information non disponible,"47.25376, 12.27958"
https://fre.cityhallworldwide.com/mairie-en-autriche/gemeinde-saalbach-hinterglemm-i105273/,Autriche,Salzbourg,Politischer bezirk zell am see,Viehhofen,gemeinde saalbach-hinterglemm,"dorfplatz 36, 5753, austria",5753,06541 66110,Information non disponible,http://www.saalbach.or.at/,"47.37186, 12.69215"
https://fre.cityhallworldwide.com/mairie-en-autriche/gemeindeamt-rauris-i105308/,Autriche,Salzbourg,Politischer bezirk zell am see,Rauris,gemeindeamt rauris,"marktstraße 30, 5661 rauris, austria",5661,Information non disponible,Information non disponible,Information non disponible,"47.22972, 12.99431"
https://fre.cityhallworldwide.com/mairie-en-autriche/stadtgemeinde-saalfelden-am-steinernen-meer-i105424/,Autriche,Salzbourg,Politischer bezirk zell am see,Saalfelden am steinernen meer,stadtgemeinde saalfelden am steinernen meer,"lofererstraße 40, 5760 saalfelden am steinernen meer, austria",5760,06582 7970,Information non disponible,http://www.saalfelden.at/,"47.42677, 12.84849"
https://fre.cityhallworldwide.com/mairie-en-autriche/gemeinde-maria-alm-am-steinernen-meer-i105539/,Autriche,Salzbourg,Politischer bezirk zell am see,Maria alm am steinernen meer,gemeinde maria alm am steinernen meer,"am gemeindepl. 3, 5761 maria alm, austria",5761,Information non disponible,Information non disponible,http://www.maria-alm.at/,"47.40672, 12.90491"
https://fre.cityhallworldwide.com/mairie-en-autriche/gemeindeamt-fusch-an-der-groglocknerstrae-i105600/,Autriche,Salzbourg,Politischer bezirk zell am see,Bruck an der großglocknerstraße,gemeindeamt fusch an der großglocknerstraße,"zeller fusch 125, 5672 zeller-fusch, austria",5672,Information non disponible,Information non disponible,http://www.fusch.at/,"47.22634, 12.82452"
https://fre.cityhallworldwide.com/mairie-en-autriche/schorfling-i105363/,Autriche,Haute-Autriche,Haute-autriche (Province),Seewalchen,schörfling,"marktpl. 32, 4861 schörfling am attersee, austria",4861,07662 32550,Information non disponible,Information non disponible,"47.94653, 13.60347"
https://fre.cityhallworldwide.com/mairie-en-autriche/stadt-linz-i105551/,Autriche,Haute-Autriche,Haute-autriche (Province),Linz,stadt linz,"hauptpl., 4020 linz, austria",4020,0732 7070,Information non disponible,http://www.linz.at,"48.30595, 14.28697"
https://fre.cityhallworldwide.com/mairie-en-autriche/gemeinde-puchenau-i105557/,Autriche,Haute-Autriche,Haute-autriche (Province),Linz,gemeinde puchenau,"kirchenstraße 1, 4048 puchenau, austria",4048,0732 2210550,Information non disponible,Information non disponible,"48.31163, 14.2409"
https://fre.cityhallworldwide.com/mairie-en-autriche/neues-rathaus-magistrat-linz-i105589/,Autriche,Haute-Autriche,Haute-autriche (Province),Linz,neues rathaus / magistrat linz,"hauptstraße 1-5, 4041 linz, austria",4041,0732 7070,Information non disponible,http://www.linz.at/,"48.30976, 14.28287"
https://fre.cityhallworldwide.com/mairie-en-autriche/gemeindeamt-wallsee-i105316/,Autriche,Basse-Autriche,Politischer bezirk amstetten,Strengberg,gemeindeamt wallsee,"marktpl. 2, 3313 wallsee, austria",3313,Information non disponible,Information non disponible,Information non disponible,"48.16711, 14.7157"
https://fre.cityhallworldwide.com/mairie-en-autriche/marktgemeinde-waldhausen-im-strudengau-i105256/,Autriche,Basse-Autriche,Politischer bezirk melk,Nöchling,marktgemeinde waldhausen im strudengau,"markt 14, 4391 waldhausen im strudengau, austria",4391,07260 4255,Information non disponible,http://www.waldhausen.at/,"48.27411, 14.94737"
https://fre.cityhallworldwide.com/mairie-en-autriche/gemeinde-mitterkirchen-im-machland-i105484/,Autriche,Basse-Autriche,Politischer bezirk amstetten,Strengberg,gemeinde mitterkirchen im machland,"mitterkirchen 50, 4343 mitterkirchen im machland, austria",4343,07269 82550,Information non disponible,http://www.mitterkirchen.at/,"48.18528, 14.71152"
https://fre.cityhallworldwide.com/mairie-en-autriche/gemeinde-koglhof-i105315/,Autriche,Haute-Autriche,Politischer bezirk gmunden,Bad ischl,gemeinde koglhof,"aschau, 5351, austria",5351,Information non disponible,Information non disponible,Information non disponible,"47.71271, 13.55676"
https://fre.cityhallworldwide.com/mairie-en-autriche/gemeindeamt-scharnstein-i105391/,Autriche,Haute-Autriche,Politischer bezirk gmunden,Scharnstein,gemeindeamt scharnstein,"hauptstraße 13, 4644 scharnstein, austria",4644,07615 7096,Information non disponible,Information non disponible,"47.90459, 13.96142"
https://fre.cityhallworldwide.com/mairie-en-autriche/stadtamt-gmunden-i105571/,Autriche,Haute-Autriche,Politischer bezirk gmunden,Gmunden,stadtamt gmunden,"rathauspl. 1, 4810 gmunden, austria",4810,07612 7940,Information non disponible,http://www.gmunden.at/,"47.91804, 13.79918"
https://fre.cityhallworldwide.com/mairie-en-autriche/gemeindeamt-traunkirchen-i105696/,Autriche,Haute-Autriche,Politischer bezirk gmunden,Ebensee,gemeindeamt traunkirchen,"ortspl. 1, 4801 traunkirchen, austria",4801,07617 22550,Information non disponible,http://www.traunkirchen.at/,"47.84492, 13.79035"
https://fre.cityhallworldwide.com/mairie-en-autriche/marktgemeindereamt-bad-goisern-i105714/,Autriche,Haute-Autriche,Politischer bezirk gmunden,Bad goisern,marktgemeindereamt bad goisern,"untere marktstraße 1, 4822, austria",4822,Information non disponible,Information non disponible,Information non disponible,"47.64083, 13.61656"
https://fre.cityhallworldwide.com/mairie-en-autriche/stadtamt-enns-i105683/,Autriche,Haute-Autriche,Politischer bezirk linz land,Enns,stadtamt enns,"hauptpl. 11, 4470 enns, austria",4470,07223 821810,Information non disponible,http://www.enns.at/,"48.21453, 14.47977"
https://fre.cityhallworldwide.com/mairie-en-autriche/stadtgemeinde-bad-leonfelden-i105387/,Autriche,Haute-Autriche,Politischer bezirk urfahr umgebung,Bad leonfelden,stadtgemeinde bad leonfelden,"hauptpl. 1, 4190 bad leonfelden, austria",4190,07213 6565,Information non disponible,http://www.bad-leonfelden.ooe.gv.at/,"48.52269, 14.29293"
https://fre.cityhallworldwide.com/mairie-en-autriche/gemeindeamt-sankt-johann-am-wimberg-i105502/,Autriche,Haute-Autriche,Politischer bezirk urfahr umgebung,Herzogsdorf,gemeindeamt sankt johann am wimberg,"st. johann am wimberg 10, 4172 st. johann am wimberg, austria",4172,07217 7155,Information non disponible,http://www.stjohannamwimberg.at/,"48.48774, 14.12951"
https://fre.cityhallworldwide.com/mairie-en-autriche/gemeinde-sankt-georgen-an-der-gusen-i105531/,Autriche,Haute-Autriche,Politischer bezirk urfahr umgebung,Steyregg,gemeinde sankt georgen an der gusen,"in der au 19, 4222 st. georgen an der gusen, austria",4222,07237 2278,Information non disponible,http://www.st-georgen-gusen.at/,"48.27771, 14.44749"
https://fre.cityhallworldwide.com/mairie-en-autriche/gemeinde-herzogsdorf-i105628/,Autriche,Haute-Autriche,Politischer bezirk urfahr umgebung,Herzogsdorf,gemeinde herzogsdorf,"kirchenpl. 10, 4175 herzogsdorf, austria",4175,07231 22550,Information non disponible,http://www.herzogsdorf.ooe.gv.at/,"48.43026, 14.11231"
https://fre.cityhallworldwide.com/mairie-en-autriche/gemeindeamt-hirschbach-im-muhlkreis-i105671/,Autriche,Haute-Autriche,Politischer bezirk urfahr umgebung,Ottenschlag im mühlkreis,gemeindeamt hirschbach im mühlkreis,"museumsweg 5, 4242 unterhirschgraben, austria",4242,07948 87010,Information non disponible,http://www.hirschbach.ooe.gv.at/,"48.48734, 14.41317"
https://fre.cityhallworldwide.com/mairie-en-autriche/marktgemeindeamt-herzogsdorf-i127601/,Autriche,Haute-Autriche,Politischer bezirk urfahr umgebung,Herzogsdorf,marktgemeindeamt herzogsdorf,"kirchenpl. 10, 4175 herzogsdorf, austria",4175,07231 2255,Information non disponible,http://www.herzogsdorf.ooe.gv.at/,"48.43027, 14.11238"
https://fre.cityhallworldwide.com/mairie-en-autriche/municipal-office-i105278/,Autriche,Haute-Autriche,Politischer bezirk vöcklabruck,Zell am pettenfirst,municipal office,"puchkirchen 3, 4849, austria",4849,Information non disponible,Information non disponible,Information non disponible,"48.04422, 13.57232"
https://fre.cityhallworldwide.com/mairie-en-autriche/gemeindeamt-der-marktgemeinde-lenzing-i105298/,Autriche,Haute-Autriche,Politischer bezirk vöcklabruck,Lenzing,gemeindeamt der marktgemeinde lenzing,"johann-böhm-straße 4, 4860 lenzing, austria",4860,Information non disponible,Information non disponible,Information non disponible,"47.97293, 13.60438"
https://fre.cityhallworldwide.com/mairie-en-autriche/gemeinde-steinbach-am-attersee-i105331/,Autriche,Haute-Autriche,Politischer bezirk vöcklabruck,Steinbach am attersee,gemeinde steinbach am attersee,"weissenbach am attersee 4, 4854 gmauret, austria",4854,Information non disponible,Information non disponible,Information non disponible,"47.81038, 13.54777"
https://fre.cityhallworldwide.com/mairie-en-autriche/stadt-bauhof-schwanenstadt-i105375/,Autriche,Haute-Autriche,Politischer bezirk vöcklabruck,Schwanenstadt,städt. bauhof schwanenstadt,"stadtpl. 54, 4690, austria",4690,07673 75576,Information non disponible,Information non disponible,"48.0582, 13.78189"
https://fre.cityhallworldwide.com/mairie-en-autriche/schlatt-i105384/,Autriche,Haute-Autriche,Politischer bezirk vöcklabruck,Schlatt,schlatt,"schlatt 15, 4691 schlatt, austria",4691,07673 2355,Information non disponible,http://www.schlatt.at/,"48.07096, 13.78753"
https://fre.cityhallworldwide.com/mairie-en-autriche/gemeindeamt-der-marktgemeinde-sankt-georgen-im-attergau-i105415/,Autriche,Haute-Autriche,Politischer bezirk vöcklabruck,Sankt georgen im attergau,gemeindeamt der marktgemeinde sankt georgen im attergau,"attergaustraße 21, 4880 st. georgen im attergau, austria",4880,07667 6255,Information non disponible,http://www.st-georgen-attergau.ooe.gv.at/,"47.93332, 13.49077"
https://fre.cityhallworldwide.com/mairie-en-autriche/marktgemeinde-gaspoltshofen-i105425/,Autriche,Haute-Autriche,Politischer bezirk vöcklabruck,Niederthalheim,marktgemeinde gaspoltshofen,"hauptstraße 53, 4673 gaspoltshofen, austria",4673,07735 6954,Information non disponible,http://www.gaspoltshofen.info/,"48.14003, 13.7356"
https://fre.cityhallworldwide.com/mairie-en-autriche/marktgemeindeamt-ampflwang-im-hausruckwald-i105674/,Autriche,Haute-Autriche,Politischer bezirk vöcklabruck,Zell am pettenfirst,marktgemeindeamt ampflwang im hausruckwald,"hausruckstraße 12, 4843 ampflwang im hausruckwald, austria",4843,07675 40100,Information non disponible,http://www.ampflwang.at/,"48.09365, 13.56678"
https://fre.cityhallworldwide.com/mairie-en-autriche/gemeindeamt-weyregg-i127612/,Autriche,Haute-Autriche,Politischer bezirk vöcklabruck,Attersee,gemeindeamt weyregg,"weyregger str. 69, 4852 weyregg am attersee, austria",4852,07664 2262,Information non disponible,http://www.weyregg.at/,"47.90092, 13.56983"
https://fre.cityhallworldwide.com/mairie-en-autriche/margarethenplatz-i105404/,Autriche,Haute-Autriche,Politischer bezirk steyr-land,Bad hall,margarethenplatz,"margarethenpl., 4540 bad hall, austria",4540,Information non disponible,Information non disponible,Information non disponible,"48.03582, 14.20431"
https://fre.cityhallworldwide.com/mairie-en-autriche/bad-hall-i105326/,Autriche,Haute-Autriche,Politischer bezirk steyr-land,Bad hall,bad hall,"4540 bad hall, austria",4540,Information non disponible,Information non disponible,Information non disponible,"48.03807, 14.20886"
https://fre.cityhallworldwide.com/mairie-en-autriche/rathaus-neu-i105647/,Autriche,Basse-Autriche,Politischer bezirk amstetten,Haag,rathaus neu,"hauptpl. 6, 3350 haag, austria",3350,Information non disponible,Information non disponible,Information non disponible,"48.11194, 14.56569"
https://fre.cityhallworldwide.com/mairie-en-autriche/gemeindeamt-weistrach-i105239/,Autriche,Basse-Autriche,Politischer bezirk amstetten,Weistrach,gemeindeamt weistrach,"weistrach 8, 3351 weistrach, austria",3351,Information non disponible,Information non disponible,Information non disponible,"48.05554, 14.58389"
https://fre.cityhallworldwide.com/mairie-en-autriche/waldneukirchen-i105252/,Autriche,Haute-Autriche,Politischer bezirk steyr-land,Waldneukirchen,waldneukirchen,"waldneukirchen, 4595, austria",4595,Information non disponible,Information non disponible,Information non disponible,"47.99914, 14.25961"
https://fre.cityhallworldwide.com/mairie-en-autriche/gemeindeamt-losenstein-i105441/,Autriche,Haute-Autriche,Politischer bezirk steyr-land,Losenstein,gemeindeamt losenstein,"eisenstr. 45, 4460, austria",4460,07255 6000,Information non disponible,http://www.losenstein.ooe.gv.at/,"47.92612, 14.43251"
https://fre.cityhallworldwide.com/mairie-en-autriche/bestattungsanstalt-d-marktgemeinde-sierning-i105354/,Autriche,Haute-Autriche,Politischer bezirk steyr-land,Sierning,bestattungsanstalt d marktgemeinde sierning,"kirchenpl. 1/zimmer 4, 4522 sierning, austria",4522,07259 225542,Information non disponible,http://www.sierning.at/system/web/abteilung.aspx?menuonr=218359721&detailonr=3798,"48.04491, 14.30922"
https://fre.cityhallworldwide.com/mairie-en-autriche/gemeinde-pasching-i105292/,Autriche,Haute-Autriche,Politischer bezirk linz land,Pasching,gemeinde pasching,"leondinger str. 10, 4061 pasching, austria",4061,07221 88515,Information non disponible,http://www.pasching.at/,"48.2588, 14.21006"
https://fre.cityhallworldwide.com/mairie-en-autriche/krottendorf-i105577/,Autriche,Haute-Autriche,Politischer bezirk steyr-land,Bad hall,krottendorf,"krottendorf, 4532, austria",4532,Information non disponible,Information non disponible,Information non disponible,"48.07517, 14.21741"
https://fre.cityhallworldwide.com/mairie-en-autriche/au-i121280/,Autriche,Haute-Autriche,Politischer bezirk kirchdorf an der krems,Kremsmünster,au,"au, austria",6883,Information non disponible,Information non disponible,Information non disponible,"48.06812, 14.16894"
https://fre.cityhallworldwide.com/mairie-en-autriche/sonntagberg-i105344/,Autriche,Haute-Autriche,Politischer bezirk kirchdorf an der krems,Kremsmünster,sonntagberg,"sonntagberg, 4550 kremsmünster, austria",4550,Information non disponible,Information non disponible,Information non disponible,"48.05649, 14.12784"
https://fre.cityhallworldwide.com/mairie-en-autriche/marktgemeinde-bad-schallerbach-i105713/,Autriche,Haute-Autriche,Politischer bezirk grieskirchen,Bad schallerbach,marktgemeinde bad schallerbach,"rathauspl. 1, 4701 bad schallerbach, austria",4701,07249 485550,Information non disponible,http://www.bad-schallerbach.at/,"48.23169, 13.91969"
https://fre.cityhallworldwide.com/mairie-en-autriche/gemeinde-tweng-i105280/,Autriche,Salzbourg,Politischer bezirk tamsweg,Tweng,gemeinde tweng,"tweng 201, 5563 tweng, austria",5563,06471 217,Information non disponible,http://www.tweng.at/,"47.18935, 13.60166"
https://fre.cityhallworldwide.com/mairie-en-autriche/gemeindeamt-wagrain-i105189/,Autriche,Salzbourg,Politischer bezirk sankt johann im pongau,Wagrain,gemeindeamt wagrain,"markt 14, 5602 wagrain markt, austria",5602,Information non disponible,Information non disponible,Information non disponible,"47.33286, 13.29638"
https://fre.cityhallworldwide.com/mairie-en-autriche/hallwang-i105250/,Autriche,Salzbourg,Politischer bezirk salzburg umgebung,Hallwang,hallwang,"hallwang, austria",austria,Information non disponible,Information non disponible,Information non disponible,"47.85213, 13.08144"
https://fre.cityhallworldwide.com/mairie-en-autriche/gemeindeamt-scheffau-am-tennengebirge-i105390/,Autriche,Salzbourg,Politischer bezirk hallein,Scheffau am tennengebirge,gemeindeamt scheffau am tennengebirge,"scheffau am tennengebirge 50, 5440 scheffau am tennengebirge, austria",5440,06244 8442,Information non disponible,http://www.scheffau.salzburg.at/,"47.59007, 13.21159"
https://fre.cityhallworldwide.com/mairie-en-autriche/weiz-i105236/,Autriche,Styrie,Politischer bezirk weiz,Weiz,weiz,"hauptpl. 7, 8160 weiz, austria",8160,03172 2319100,Information non disponible,http://www.weiz.at/,"47.21743, 15.6225"
https://fre.cityhallworldwide.com/mairie-en-autriche/stadtgemeinde-voitsberg-i105269/,Autriche,Styrie,Politischer bezirk voitsberg,Voitsberg,stadtgemeinde voitsberg,"hauptpl. 1, 8570 voitsberg, austria",8570,03142 22170,Information non disponible,http://www.voitsberg.at/,"47.04927, 15.15006"
https://fre.cityhallworldwide.com/mairie-en-autriche/marktgemeindeamt-tieschen-i105299/,Autriche,Styrie,Politischer bezirk radkersburg,Tieschen,marktgemeindeamt tieschen,"tieschen 55, 8355 tieschen, austria",8355,03475 2301,Information non disponible,http://www.tieschen.gv.at/,"46.78692, 15.94586"
https://fre.cityhallworldwide.com/mairie-en-autriche/stadtamt-murzzuschlag-i105566/,Autriche,Styrie,Politischer bezirk mürzzuschlag,Mürzzuschlag,stadtamt mürzzuschlag,"wr. str. 9, 8680 mürzzuschlag, austria",8680,Information non disponible,Information non disponible,Information non disponible,"47.60593, 15.67278"
https://fre.cityhallworldwide.com/mairie-en-autriche/gemeindeamt-der-gemeinde-teufenbach-katsch-i105195/,Autriche,Styrie,Politischer bezirk murau,Teufenbach,gemeindeamt der gemeinde teufenbach-katsch,"teufenbach 14, 8833 teufenbach, austria",8833,03582 2408,Information non disponible,http://www.teufenbach-katsch.gv.at/,"47.13042, 14.35916"
https://fre.cityhallworldwide.com/mairie-en-autriche/gemeindeamt-grobming-i105465/,Autriche,Styrie,Politischer bezirk liezen,Gröbming,gemeindeamt gröbming,"hauptpl. 200, 8962 gröbming, austria",8962,Information non disponible,Information non disponible,Information non disponible,"47.44335, 13.9022"
https://fre.cityhallworldwide.com/mairie-en-autriche/gemeindeamt-sankt-peter-freienstein-i105286/,Autriche,Styrie,Politischer bezirk leoben,Sankt peter-freienstein,gemeindeamt sankt peter-freienstein,"gemeindegasse 1, 8792 st. peter-freienstein, austria",8792,03842 229220,Information non disponible,Information non disponible,"47.39853, 15.03251"
https://fre.cityhallworldwide.com/mairie-en-autriche/spielberg-bei-knittelfeld-pausendorf-i105196/,Autriche,Styrie,Politischer bezirk knittelfeld,Spielberg bei knittelfeld,spielberg bei knittelfeld-pausendorf,"marktpassage 1, 8724, austria",8724,03512 75230,Information non disponible,http://www.spielberg.at/,"47.20785, 14.79702"
https://fre.cityhallworldwide.com/mairie-en-autriche/gemeindeamt-sankt-johann-am-tauern-i105413/,Autriche,Styrie,Politischer bezirk judenburg,Sankt johann am tauern,gemeindeamt sankt johann am tauern,"sonnseite 138, 8765 st. johann am tauern sonnseite, austria",8765,03575 201,Information non disponible,Information non disponible,"47.35703, 14.46956"
https://fre.cityhallworldwide.com/mairie-en-autriche/stadtgemeinde-friedberg-i105406/,Autriche,Styrie,Politischer bezirk hartberg,Friedberg,stadtgemeinde friedberg,"hauptpl. 20, 8240 friedberg, austria",8240,03339 251100,Information non disponible,http://www.friedberg.at/,"47.44122, 16.05758"
https://fre.cityhallworldwide.com/mairie-en-autriche/st-bartholoma-i105323/,Autriche,Styrie,Politischer bezirk graz umgebung,Sankt bartholomä,st. bartholomä,"st. bartholomä 77, 8113 st. bartholomä, austria",8113,03123 2227,Information non disponible,http://www.st-bartholomae.gv.at/,"47.06874, 15.25701"
https://fre.cityhallworldwide.com/mairie-en-autriche/stadtgemeinde-furstenfeld-i105702/,Autriche,Styrie,Politischer bezirk fürstenfeld,Fürstenfeld,stadtgemeinde fürstenfeld,"augustinerpl. 1, 8280 fürstenfeld, austria",8280,03382 524010,Information non disponible,http://www.fuerstenfeld.at/,"47.05153, 16.07426"
https://fre.cityhallworldwide.com/mairie-en-autriche/gemeindeamt-poppendorf-i105290/,Autriche,Styrie,Politischer bezirk feldbach,Poppendorf,gemeindeamt poppendorf,"poppendorf 100, 8342 poppendorf, austria",8342,03151 8548,Information non disponible,Information non disponible,"46.86471, 15.85586"
https://fre.cityhallworldwide.com/mairie-en-autriche/gemeinde-krusdorf-i105319/,Autriche,Styrie,Politischer bezirk feldbach,Krusdorf,gemeinde krusdorf,"krusdorf 100, 8345 krusdorf, austria",8345,03473 7846,Information non disponible,Information non disponible,"46.83902, 15.86343"
https://fre.cityhallworldwide.com/mairie-en-autriche/gemeindeamt-kornberg-i105433/,Autriche,Styrie,Politischer bezirk feldbach,Riegersburg,gemeindeamt kornberg,"bergl 61, 8333 bergl, austria",8333,Information non disponible,Information non disponible,Information non disponible,"46.99202, 15.92261"
https://fre.cityhallworldwide.com/mairie-en-autriche/gemeindeamt-hatzendorf-i105482/,Autriche,Styrie,Politischer bezirk feldbach,Hatzendorf,gemeindeamt hatzendorf,"hatzendorf 150, 8361 hatzendorf, austria",8361,0664 1135204,Information non disponible,http://www.hatzendorf.info/,"46.97818, 16.00314"
https://fre.cityhallworldwide.com/mairie-en-autriche/marktgemeinde-paldau-i105491/,Autriche,Styrie,Politischer bezirk feldbach,Paldau,marktgemeinde paldau,"paldau 41, 8341 paldau, austria",8341,03150 5110,Information non disponible,Information non disponible,"46.94088, 15.79733"
https://fre.cityhallworldwide.com/mairie-en-autriche/gemeindeamt-baumgarten-bei-gnas-i105582/,Autriche,Styrie,Politischer bezirk feldbach,Baumgarten bei gnas,gemeindeamt baumgarten bei gnas,"wörth 11, 8342 wörth, austria",8342,03151 51510,Information non disponible,Information non disponible,"46.90464, 15.76585"
https://fre.cityhallworldwide.com/mairie-en-autriche/gemeindeamt-fladnitz-im-raabtal-i105675/,Autriche,Styrie,Politischer bezirk feldbach,Fladnitz im raabtal,gemeindeamt fladnitz im raabtal,"fladnitz im raabtal 201, 8322 fladnitz im raabtal, austria",8322,03115 2295,Information non disponible,Information non disponible,"46.99229, 15.78333"
https://fre.cityhallworldwide.com/mairie-en-autriche/gemeinde-haselsdorf-tobelbad-i105362/,Autriche,Styrie,Politischer bezirk graz umgebung,Lieboch,gemeinde haselsdorf-tobelbad,"karl-hohl-straße 67, 8144 badegg, austria",8144,03136 61905,Information non disponible,http://www.haselsdorf-tobelbad.gv.at/,"46.98955, 15.35317"
https://fre.cityhallworldwide.com/mairie-en-autriche/gemeindere-sankt-oswald-bei-plankenwarth-i105400/,Autriche,Styrie,Politischer bezirk graz umgebung,Sankt oswald bei plankenwarth,gemeindere sankt oswald bei plankenwarth,"sankt oswald, 8113 st. oswald bei plankenwarth, austria",8113,Information non disponible,Information non disponible,Information non disponible,"47.07494, 15.28164"
https://fre.cityhallworldwide.com/mairie-en-autriche/gemeindeamt-langegg-i105405/,Autriche,Styrie,Politischer bezirk graz umgebung,Langegg bei graz,gemeindeamt langegg,"obergoggitsch 2a, 8323 langegg bei graz, austria",8323,Information non disponible,Information non disponible,Information non disponible,"47.05019, 15.65347"
https://fre.cityhallworldwide.com/mairie-en-autriche/gemeinde-gratwein-i105656/,Autriche,Styrie,Politischer bezirk graz umgebung,Gratwein,gemeinde gratwein,"hauptpl. 5, 8112 gemeinde gratwein, austria",8112,Information non disponible,Information non disponible,Information non disponible,"47.12949, 15.31828"
https://fre.cityhallworldwide.com/mairie-en-autriche/feuerwehrhalle-i105687/,Autriche,Styrie,Politischer bezirk graz umgebung,Eisbach,feuerwehrhalle,"8103, austria",8103,Information non disponible,Information non disponible,Information non disponible,"47.136, 15.28411"
https://fre.cityhallworldwide.com/mairie-en-autriche/gemeindeamt-buch-geiseldorf-i105412/,Autriche,Styrie,Politischer bezirk hartberg,Sebersdorf,gemeindeamt buch-geiseldorf,"geiseldorf, 8274 geiseldorf, austria",8274,Information non disponible,Information non disponible,Information non disponible,"47.22797, 15.99128"
https://fre.cityhallworldwide.com/mairie-en-autriche/gemeindeamt-neustift-an-der-lafnitz-i105431/,Autriche,Styrie,Politischer bezirk hartberg,Lafnitz,gemeindeamt neustift an der lafnitz,"neustift an der lafnitz 3, 7423 neustift an der lafnitz, austria",7423,03338 3050,Information non disponible,http://www.neustift-lafnitz.at,"47.36837, 16.01969"
https://fre.cityhallworldwide.com/mairie-en-autriche/marktgemeinde-pinggau-i105476/,Autriche,Styrie,Politischer bezirk hartberg,Pinggau,marktgemeinde pinggau,"hauptpl. 1, 8243 pinggau, austria",8243,03339 2515213,Information non disponible,Information non disponible,"47.44416, 16.06507"
https://fre.cityhallworldwide.com/mairie-en-autriche/gemeinde-neustift-an-der-lafnitz-i105570/,Autriche,Styrie,Politischer bezirk hartberg,Lafnitz,gemeinde neustift an der lafnitz,"neustift an der lafnitz 3, 7423 neustift an der lafnitz, austria",7423,03338 30500,Information non disponible,http://www.neustift-lafnitz.at/index.php?option=com_content&view=category&layout=blog&id=37&itemid=78,"47.36829, 16.01961"
https://fre.cityhallworldwide.com/mairie-en-autriche/marktgemeinde-kaindorf-bei-hartberg-i105604/,Autriche,Styrie,Politischer bezirk hartberg,Kaindorf,marktgemeinde kaindorf bei hartberg,"kaindorf 29, 8224 kaindorf bei hartberg, austria",8224,Information non disponible,Information non disponible,Information non disponible,"47.22505, 15.909"
https://fre.cityhallworldwide.com/mairie-en-autriche/gemeindeamt-hirnsdorf-i105605/,Autriche,Styrie,Politischer bezirk hartberg,Kaibing,gemeindeamt hirnsdorf,"hirnsdorf 125, 8221 hirnsdorf, austria",8221,03113 8866,Information non disponible,Information non disponible,"47.19387, 15.82717"
https://fre.cityhallworldwide.com/mairie-en-autriche/gemeindeamt-tiefenbach-bei-kaindorf-i105701/,Autriche,Styrie,Politischer bezirk hartberg,Kaindorf,gemeindeamt tiefenbach bei kaindorf,"kaindorf, 8224, austria",8224,03334 2285,Information non disponible,Information non disponible,"47.23073, 15.91479"
https://fre.cityhallworldwide.com/mairie-en-autriche/kulmlandhalle-gemeindeamt-kulm-bei-weiz-keltendorf-i127587/,Autriche,Styrie,Politischer bezirk hartberg,Siegersdorf bei herberstein,kulmlandhalle gemeindeamt kulm bei weiz keltendorf,"rohrbach am kulm 80, 8212 rohrbach am kulm, austria",8212,03113 2212,Information non disponible,http://www.pischelsdorf.com/,"47.1936, 15.77557"
https://fre.cityhallworldwide.com/mairie-en-autriche/rabenwald-i127590/,Autriche,Styrie,Politischer bezirk hartberg,Rabenwald,rabenwald,"rabenwald 180, 8225 rabenwald, austria",8225,03335 2081,Information non disponible,Information non disponible,"47.2935, 15.80837"
https://fre.cityhallworldwide.com/mairie-en-autriche/marktgemeinde-pols-i105506/,Autriche,Styrie,Politischer bezirk judenburg,Pöls,marktgemeinde pöls,"offenburger str. 7, 8761 pöls, austria",8761,Information non disponible,Information non disponible,Information non disponible,"47.22028, 14.57998"
https://fre.cityhallworldwide.com/mairie-en-autriche/gemeindeamt-amering-i105509/,Autriche,Styrie,Politischer bezirk judenburg,Obdach,gemeindeamt amering,"sonnenrain 11, 8742 amering, austria",8742,03578 2317,Information non disponible,Information non disponible,"47.07148, 14.69847"
https://fre.cityhallworldwide.com/mairie-en-autriche/gemeindeamt-mauterndorf-i105667/,Autriche,Styrie,Politischer bezirk judenburg,Oberkurzheim,gemeindeamt mauterndorf,"mauterndorf 52, 8761, austria",8761,Information non disponible,Information non disponible,Information non disponible,"47.22507, 14.55429"
https://fre.cityhallworldwide.com/mairie-en-autriche/gemeinde-st-georgen-ob-judenburg-i127585/,Autriche,Styrie,Politischer bezirk judenburg,Sankt georgen ob judenburg,gemeinde st. georgen ob judenburg,"st. georgen ob judenburg 12, 8756 st. georgen ob judenburg, austria",8756,03583 2376,Information non disponible,http://st-georgen-judenburg.at/,"47.20638, 14.49988"
https://fre.cityhallworldwide.com/mairie-en-autriche/eni-i127586/,Autriche,Styrie,Politischer bezirk knittelfeld,Sankt lorenzen bei knittelfeld,eni,"schnellstraße 1, 8733 st. marein bei knittelfeld, austria",8733,03515 43310,Information non disponible,https://www.eni.com/de_at/home.html,"47.25419, 14.88038"
https://fre.cityhallworldwide.com/mairie-en-autriche/marktgemeinde-kraubath-an-der-mur-i105398/,Autriche,Styrie,Politischer bezirk leoben,Kraubath an der mur,marktgemeinde kraubath an der mur,"kirchpl. .1, 8714 kraubath an der mur, austria",8714,03832 2222,Information non disponible,http://www.kraubath.at/,"47.30698, 14.9353"
https://fre.cityhallworldwide.com/mairie-en-autriche/marktgemeinde-sankt-michael-in-der-obersteiermark-i105401/,Autriche,Styrie,Politischer bezirk leoben,Sankt michael in obersteiermark,marktgemeinde sankt michael in der obersteiermark,"hauptstraße 25, 8770 liesingtal, austria",8770,03843 22440,Information non disponible,Information non disponible,"47.34084, 15.01447"
https://fre.cityhallworldwide.com/mairie-en-autriche/gemeindeamt-hieflau-i105607/,Autriche,Styrie,Politischer bezirk leoben,Hieflau,gemeindeamt hieflau,"hauptstraße 15, 8920 hieflau, austria",8920,03634 5050,Information non disponible,Information non disponible,"47.606, 14.74469"
https://fre.cityhallworldwide.com/mairie-en-autriche/gemeindeamt-lassing-i105498/,Autriche,Styrie,Politischer bezirk liezen,Lassing,gemeindeamt lassing,"lassing 5, 8903 lassing-kirchdorf, austria",8903,03612 302960,Information non disponible,http://www.lassing.at/,"47.52623, 14.26346"
https://fre.cityhallworldwide.com/mairie-en-autriche/gemeindeamt-grosolk-i105523/,Autriche,Styrie,Politischer bezirk liezen,Großsölk,gemeindeamt großsölk,"stein an der enns 100, 8961 großsölk, austria",8961,Information non disponible,Information non disponible,Information non disponible,"47.43667, 13.94033"
https://fre.cityhallworldwide.com/mairie-en-autriche/hall-bei-admont-i105553/,Autriche,Styrie,Politischer bezirk liezen,Admont,hall bei admont,"8911 hall bei admont, austria",8911,Information non disponible,Information non disponible,Information non disponible,"47.5871, 14.46447"
https://fre.cityhallworldwide.com/mairie-en-autriche/irdning-i105614/,Autriche,Styrie,Politischer bezirk liezen,Irdning,irdning,"irdning grimminggasse 200, 8952 irdning, austria",8952,Information non disponible,Information non disponible,Information non disponible,"47.50528, 14.10254"
https://fre.cityhallworldwide.com/mairie-en-autriche/gemeinde-aich-i105637/,Autriche,Styrie,Politischer bezirk liezen,Gössenberg,gemeinde aich,"aich 8, 8966 aich-assach, austria",8966,03686 4305,Information non disponible,http://www.aich.at/,"47.41792, 13.8193"
https://fre.cityhallworldwide.com/mairie-en-autriche/frauenberg-i105672/,Autriche,Styrie,Politischer bezirk liezen,Ardning,frauenberg,"frauenberg, austria",austria,Information non disponible,Information non disponible,Information non disponible,"47.58793, 14.39283"
https://fre.cityhallworldwide.com/mairie-en-autriche/stadertgemeinde-bad-aussee-i105716/,Autriche,Styrie,Politischer bezirk liezen,Bad aussee,stadertgemeinde bad aussee,"hauptstraße 48, 8990 bad aussee, austria",8990,Information non disponible,Information non disponible,Information non disponible,"47.61072, 13.78468"
https://fre.cityhallworldwide.com/mairie-en-autriche/ardning-i105723/,Autriche,Styrie,Politischer bezirk liezen,Ardning,ardning,"ardning, 8904, austria",8904,Information non disponible,Information non disponible,Information non disponible,"47.59769, 14.36259"
https://fre.cityhallworldwide.com/mairie-en-autriche/marktgemeinde-altenmarkt-bei-sankt-gallen-i105733/,Autriche,Styrie,Politischer bezirk liezen,Altenmarkt bei sankt gallen,marktgemeinde altenmarkt bei sankt gallen,"altenmarkt, 8934 altenmarkt bei st. gallen, austria",8934,Information non disponible,Information non disponible,Information non disponible,"47.73954, 14.6569"
https://fre.cityhallworldwide.com/mairie-en-autriche/gemeinde-predlitz-turrach-i105310/,Autriche,Styrie,Politischer bezirk murau,Stadl an der mur,gemeinde predlitz-turrach,"predlitz 11, 8863 predlitz, austria",8863,Information non disponible,Information non disponible,Information non disponible,"47.07185, 13.90909"
https://fre.cityhallworldwide.com/mairie-en-autriche/gemeinde-sankt-lorenzen-bei-scheifling-i105388/,Autriche,Styrie,Politischer bezirk murau,Sankt lorenzen bei scheifling,gemeinde sankt lorenzen bei scheifling,"st. lorenzen bei scheifling 45, 8811 st. lorenzen bei scheifling, austria",8811,03582 2492,Information non disponible,Information non disponible,"47.14571, 14.40655"
https://fre.cityhallworldwide.com/mairie-en-autriche/gemeinde-oberwolz-i105399/,Autriche,Styrie,Politischer bezirk murau,Oberwölz stadt,gemeinde oberwölz,"ortseinfahrt-hauptplatz str., 8832, austria",8832,Information non disponible,Information non disponible,Information non disponible,"47.20372, 14.28115"
https://fre.cityhallworldwide.com/mairie-en-autriche/marktgemeindeamt-sankt-lambrecht-i105408/,Autriche,Styrie,Politischer bezirk murau,Sankt lambrecht,marktgemeindeamt sankt lambrecht,"hauptstraße 12, 8813 st. lambrecht, austria",8813,03585 23440,Information non disponible,http://www.stlambrecht.at/,"47.06964, 14.29932"
https://fre.cityhallworldwide.com/mairie-en-autriche/gemeindeamt-ranten-i105449/,Autriche,Styrie,Politischer bezirk murau,Ranten,gemeindeamt ranten,"troiner weg 110, 8853 ranten, austria",8853,03535 82460,Information non disponible,http://www.ranten.gv.at/,"47.15768, 14.08236"
https://fre.cityhallworldwide.com/mairie-en-autriche/gemeinde-kulm-am-zirbitz-i105486/,Autriche,Styrie,Politischer bezirk murau,Kulm am zirbitz,gemeinde kulm am zirbitz,"sankt georgen bei neumarkt, 8820 st. georgen bei neumarkt, austria",8820,Information non disponible,Information non disponible,Information non disponible,"47.07417, 14.49679"
https://fre.cityhallworldwide.com/mairie-en-autriche/kindberg-i105594/,Autriche,Styrie,Politischer bezirk mürzzuschlag,Kindberg,kindberg,"hauptstraße 44, 8650 kindberg, austria",8650,03865 2202,Information non disponible,http://www.kindberg.at/,"47.50512, 15.44846"
https://fre.cityhallworldwide.com/mairie-en-autriche/stadtgemeinde-radkersburg-i105453/,Autriche,Styrie,Politischer bezirk radkersburg,Bad radkersburg,stadtgemeinde radkersburg,"hauptplatz 1, 8490 bad radkersburg, austria",8490,03476 2509,Information non disponible,http://www.stadtbadradkersburg.at,"46.68774, 15.98641"
https://fre.cityhallworldwide.com/mairie-en-autriche/stadtgemeinde-koflach-i105478/,Autriche,Styrie,Politischer bezirk voitsberg,Köflach,stadtgemeinde köflach,"rathauspl. 1, 8580 köflach, austria",8580,03144 2519,Information non disponible,http://www.koeflach.at/,"47.06457, 15.08271"
https://fre.cityhallworldwide.com/mairie-en-autriche/gemeindeamt-edelschrott-i105492/,Autriche,Styrie,Politischer bezirk voitsberg,Edelschrott,gemeindeamt edelschrott,"packerstraße 17, 8583 edelschrott, austria",8583,Information non disponible,Information non disponible,Information non disponible,"47.02144, 15.05037"
https://fre.cityhallworldwide.com/mairie-en-autriche/gemeindeamt-krottendorf-gaisfeld-i105552/,Autriche,Styrie,Politischer bezirk voitsberg,Ligist,gemeindeamt krottendorf-gaisfeld,"krottendorf 161, 8564 krottendorf, austria",8564,03143 2222,Information non disponible,http://www.krottendorf-gaisfeld.at/,"47.00943, 15.21542"
https://fre.cityhallworldwide.com/mairie-en-autriche/gemeindeamt-sankt-kathrein-am-hauenstein-i105409/,Autriche,Styrie,Politischer bezirk weiz,Sankt kathrein am hauenstein,gemeindeamt sankt kathrein am hauenstein,"sankt kathrein 132, 8672 st. kathrein am hauenstein, austria",8672,03173 4030,Information non disponible,http://www.st-kathrein-hauenstein.at/,"47.48898, 15.69179"
https://fre.cityhallworldwide.com/mairie-en-autriche/gemeindeamt-rettenegg-i105438/,Autriche,Styrie,Politischer bezirk weiz,Rettenegg,gemeindeamt rettenegg,"rettenegg 166, 8674 rettenegg, austria",8674,03173 80200,Information non disponible,http://www.rettenegg.at/,"47.52682, 15.78128"
https://fre.cityhallworldwide.com/mairie-en-autriche/gemeindeamt-floing-i105456/,Autriche,Styrie,Politischer bezirk weiz,Floing,gemeindeamt floing,"lebing 5, 8183 floing, austria",8183,03177 2234,Information non disponible,http://www.floing.at/,"47.24903, 15.73358"
https://fre.cityhallworldwide.com/mairie-en-autriche/gemeindeamt-nitscha-i105510/,Autriche,Styrie,Politischer bezirk weiz,Nitscha,gemeindeamt nitscha,"hohenbergweg i 2, 8200 nitscha, austria",8200,03112 2080,Information non disponible,Information non disponible,"47.11556, 15.74198"
https://fre.cityhallworldwide.com/mairie-en-autriche/gemeindeamt-naas-i105518/,Autriche,Styrie,Politischer bezirk weiz,Naas,gemeindeamt naas,"in der weiz 37, 8160 affental, austria",8160,03172 2441,Information non disponible,http://www.naas.at/,"47.24952, 15.5956"
https://fre.cityhallworldwide.com/mairie-en-autriche/koglhof-i105583/,Autriche,Styrie,Politischer bezirk weiz,Koglhof,koglhof,"koglhof 45, 8191 aschau, austria",8191,03174 4513,Information non disponible,http://www.sommerrodelbahn-koglhof.at/,"47.32117, 15.69074"
https://fre.cityhallworldwide.com/mairie-en-autriche/gemeindeamt-puch-bei-hallein-i105464/,Autriche,Salzbourg,Politischer bezirk hallein,Puch bei hallein,gemeindeamt puch bei hallein,"halleiner landesstraße 26, 5412 puch bei hallein, austria",5412,06245 806940,Information non disponible,http://www.puchbeihallein.gv.at/,"47.71674, 13.0902"
https://fre.cityhallworldwide.com/mairie-en-autriche/gemeindeamt-kuchl-i105575/,Autriche,Salzbourg,Politischer bezirk hallein,Kuchl,gemeindeamt kuchl,"markt 25, 5431 kuchl, austria",5431,06244 6202,Information non disponible,http://www.kuchl.net/,"47.62691, 13.14568"
https://fre.cityhallworldwide.com/mairie-en-autriche/stadtgemeinde-hallein-i105643/,Autriche,Salzbourg,Politischer bezirk hallein,Hallein,stadtgemeinde hallein,"schöndorferpl. 14, 5400 hallein, austria",5400,06245 8988,Information non disponible,http://hallein.gv.at/,"47.68167, 13.0925"
https://fre.cityhallworldwide.com/mairie-en-autriche/marktgemeinde-golling-an-der-salzach-i105660/,Autriche,Salzbourg,Politischer bezirk hallein,Golling an der salzach,marktgemeinde golling an der salzach,"markt 252, 5440 golling an der salzach, austria",5440,Information non disponible,Information non disponible,Information non disponible,"47.59652, 13.16692"
https://fre.cityhallworldwide.com/mairie-en-autriche/adnet-i105736/,Autriche,Salzbourg,Politischer bezirk hallein,Adnet,adnet,"adnet 18, 5421 adnet, austria",5421,06245 840410,Information non disponible,http://www.adnet.at/,"47.69663, 13.13185"
https://fre.cityhallworldwide.com/mairie-en-autriche/marktgemeinde-abtenau-i105737/,Autriche,Salzbourg,Politischer bezirk hallein,Abtenau,marktgemeinde abtenau,"markt 165, 5441 abtenau, austria",5441,Information non disponible,Information non disponible,Information non disponible,"47.56402, 13.3441"
https://fre.cityhallworldwide.com/mairie-en-autriche/hallein-i127591/,Autriche,Salzbourg,Politischer bezirk hallein,Hallein,hallein,"hallein, austria",austria,Information non disponible,Information non disponible,Information non disponible,"47.68248, 13.10037"
https://fre.cityhallworldwide.com/mairie-en-autriche/gemeindeamt-fuschl-am-see-i105303/,Autriche,Salzbourg,Politischer bezirk salzburg umgebung,Fuschl am see,gemeindeamt fuschl am see,"dorfplatz 1, 5330 fuschl am see, austria",5330,06226 82290,Information non disponible,http://www.fuschlamsee.at/,"47.7962, 13.3031"
https://fre.cityhallworldwide.com/mairie-en-autriche/stadtgemeinde-seekirchen-am-wallersee-i105364/,Autriche,Salzbourg,Politischer bezirk salzburg umgebung,Seekirchen am wallersee,stadtgemeinde seekirchen am wallersee,"stiftsgasse 1, 5201 seekirchen am wallersee, austria",5201,Information non disponible,Information non disponible,Information non disponible,"47.89421, 13.12677"
https://fre.cityhallworldwide.com/mairie-en-autriche/gemeindeamt-seeham-i105365/,Autriche,Salzbourg,Politischer bezirk salzburg umgebung,Seeham,gemeindeamt seeham,"dorf 2, 5164 seeham, austria",5164,06217 55250,Information non disponible,http://www.seeham.at/,"47.96831, 13.07855"
https://fre.cityhallworldwide.com/mairie-en-autriche/marktgemeindeamt-obertrum-am-see-i105383/,Autriche,Salzbourg,Politischer bezirk salzburg umgebung,Obertrum am see,marktgemeindeamt obertrum am see,"obertrum am see 1, 5162 obertrum am see, austria",5162,06219 63050,Information non disponible,http://www.obertrum.salzburg.at/system/web/default.aspx,"47.93809, 13.07226"
https://fre.cityhallworldwide.com/mairie-en-autriche/gemeindeamt-koppl-i105474/,Autriche,Salzbourg,Politischer bezirk salzburg umgebung,Koppl,gemeindeamt koppl,"dorfstraße 7, 5321 habach, austria",5321,Information non disponible,Information non disponible,Information non disponible,"47.8089, 13.15698"
https://fre.cityhallworldwide.com/mairie-en-autriche/gemeindeamt-hintersee-i105578/,Autriche,Salzbourg,Politischer bezirk salzburg umgebung,Hintersee,gemeindeamt hintersee,"lämmerbach 55, 5324 hintersee, austria",5324,06224 2140,Information non disponible,http://www.hintersee.salzburg.at/,"47.71324, 13.2898"
https://fre.cityhallworldwide.com/mairie-en-autriche/eugendorf-i105642/,Autriche,Salzbourg,Politischer bezirk salzburg umgebung,Eugendorf,eugendorf,"dorf 3, 5301 eugendorf, austria",5301,06225 8209,Information non disponible,http://www.eugendorf.at/,"47.86662, 13.12225"
https://fre.cityhallworldwide.com/mairie-en-autriche/moosdorf-i105700/,Autriche,Salzbourg,Politischer bezirk salzburg umgebung,Dorfbeuern,moosdorf,"moosdorf 150, 5141, austria",5141,07748 26660,Information non disponible,http://www.moosdorf.ooe.gv.at/,"48.04298, 12.99768"
https://fre.cityhallworldwide.com/mairie-en-autriche/marktgemeinde-schwarzach-im-pongau-i105374/,Autriche,Salzbourg,Politischer bezirk sankt johann im pongau,Schwarzach im pongau,marktgemeinde schwarzach im pongau,"marktplatz 1, 5620 schwarzach im pongau, austria",5620,06415 6191,Information non disponible,http://www.gde-schwarzach.salzburg.at/,"47.32096, 13.15117"
https://fre.cityhallworldwide.com/mairie-en-autriche/saint-veit-im-pongau---astenlift-i105395/,Autriche,Salzbourg,Politischer bezirk sankt johann im pongau,Sankt veit im pongau,saint veit im pongau - astenlift,"markt 12, 5621 st. veit im pongau, austria",5621,06415 7520,Information non disponible,Information non disponible,"47.32925, 13.1539"
https://fre.cityhallworldwide.com/mairie-en-autriche/gemeindeamt-bad-gastein-i105666/,Autriche,Salzbourg,Politischer bezirk sankt johann im pongau,Bad gastein,gemeindeamt bad gastein,"k. h. waggerl-straße 29, 5640 bad gastein, austria",5640,06434 3744,Information non disponible,http://www.bad-gastein.at/,"47.10858, 13.13668"
https://fre.cityhallworldwide.com/mairie-en-autriche/gemeindeamt-flachau-i105676/,Autriche,Salzbourg,Politischer bezirk sankt johann im pongau,Altenmarkt im pongau,gemeindeamt flachau,"gemeindestraße 73, 5542 reitdorf, austria",5542,06457 2250,Information non disponible,http://www.flachau.salzburg.at/,"47.372, 13.38929"
https://fre.cityhallworldwide.com/mairie-en-autriche/municipal-office-eben-im-pongau-i105697/,Autriche,Salzbourg,Politischer bezirk sankt johann im pongau,Eben im pongau,municipal office eben im pongau,"dorfpl. 60, 5531 eben im pongau, austria",5531,06458 8114,Information non disponible,http://www.gemeinde-eben.at/,"47.40728, 13.39571"
https://fre.cityhallworldwide.com/mairie-en-autriche/gemeindereamt-der-marktgemeinde-bad-hofgastein-i105699/,Autriche,Salzbourg,Politischer bezirk sankt johann im pongau,Bad hofgastein,gemeindereamt der marktgemeinde bad hofgastein,"kurpromenade 2, 5630 bad hofgastein, austria",5630,Information non disponible,Information non disponible,Information non disponible,"47.17001, 13.10699"
https://fre.cityhallworldwide.com/mairie-en-autriche/stadtamt-radstadt-i127588/,Autriche,Salzbourg,Politischer bezirk sankt johann im pongau,Radstadt,stadtamt radstadt,"stadtpl. 17, 5550 radstadt, austria",5550,06452 42920,Information non disponible,http://www.radstadt.at/,"47.38454, 13.46242"
https://fre.cityhallworldwide.com/mairie-en-autriche/marktgemeindeamt-turnau-i105281/,Autriche,Styrie,Politischer bezirk bruck an der mur,Turnau,marktgemeindeamt turnau,"turnau 18, 8625 turnau, austria",8625,03863 21110,Information non disponible,Information non disponible,"47.5583, 15.33715"
https://fre.cityhallworldwide.com/mairie-en-autriche/auenstelle-groradl-der-marktgemeinde-eibiswald-i105228/,Autriche,Styrie,Politischer berzirk deutschlandsberg,Pitschgau,außenstelle großradl der marktgemeinde eibiswald,"feisternitz 150, 8552 feisternitz, austria",8552,03466 45400,Information non disponible,http://www.eibiswald.gv.at/,"46.68768, 15.2673"
https://fre.cityhallworldwide.com/mairie-en-autriche/breitenfeld-am-tannenriegel-i105211/,Autriche,Styrie,Leibnitz,Breitenfeld am tannenriegel,breitenfeld am tannenriegel,"breitenfeld am tannenriegel 10, 8421 breitenfeld am tannenriegel, austria",8421,Information non disponible,Information non disponible,http://www.breitenfeld-tannenriegel.at/,"46.85156, 15.62759"
https://fre.cityhallworldwide.com/mairie-en-autriche/ried-im-zillertal-i105193/,Autriche,Tyrol,Politischer bezirk schwaz,Ried im zillertal,ried im zillertal,"1147139 im, ried, 6272 ried im zillertal, austria",6272,05283 2149,Information non disponible,http://www.ried-zillertal.tirol.gv.at/,"47.30152, 11.86909"
https://fre.cityhallworldwide.com/mairie-en-autriche/lindenberg-stadtplatz-2-i105271/,Autriche,Tyrol,Politischer bezirk reutte,Vils,lindenberg stadtplatz 2,"stadtpl. 2, 6682 vils, austria",6682,Information non disponible,Information non disponible,Information non disponible,"47.5493, 10.63079"
https://fre.cityhallworldwide.com/mairie-en-autriche/gemeindeamt-tristach-i105287/,Autriche,Tyrol,Politischer bezirk lienz,Tristach,gemeindeamt tristach,"dorfstraße 37, 9900 tristach, austria",9900,Information non disponible,Information non disponible,Information non disponible,"46.81747, 12.78745"
https://fre.cityhallworldwide.com/mairie-en-autriche/gemeindeamt-schwoich-i105367/,Autriche,Tyrol,Politischer bezirk kufstein,Schwoich,gemeindeamt schwoich,"dorf 1, 6334 schwoich, austria",6334,05372 58113,Information non disponible,http://www.schwoich.tirol.gv.at/,"47.54366, 12.14062"
https://fre.cityhallworldwide.com/mairie-en-autriche/gnadenwald-i105741/,Autriche,Tyrol,Politischer bezirk innsbruck,Gnadenwald,gnadenwald,"gnadenwald, 6069, austria",6069,Information non disponible,Information non disponible,Information non disponible,"47.32867, 11.57836"
https://fre.cityhallworldwide.com/mairie-en-autriche/gemeindeamt-wenns-i105234/,Autriche,Tyrol,Politischer bezirk imst,Wenns,gemeindeamt wenns,"unterdorf 9, 6473 wenns, austria",6473,05414 87214,Information non disponible,http://www.wenns.tirol.gv.at/,"47.16866, 10.7312"
https://fre.cityhallworldwide.com/mairie-en-autriche/gemeindeamt-stanz-bei-landeck-i105202/,Autriche,Tyrol,Landeck,Stanz bei landeck,gemeindeamt stanz bei landeck,"stanz bei landeck 11, 6500 stanz bei landeck, austria",6500,05442 64237,Information non disponible,http://www.stanz.tirol.gv.at/,"47.14838, 10.55404"
https://fre.cityhallworldwide.com/mairie-en-autriche/gemeindeamt-schwendt-i105258/,Autriche,Tyrol,Bezirk kitzbuehel,Schwendt,gemeindeamt schwendt,"dorf 2, 6385 schwendt, austria",6385,Information non disponible,Information non disponible,Information non disponible,"47.63169, 12.39205"
https://fre.cityhallworldwide.com/mairie-en-autriche/gemeindeamt-kirchdorf-in-tirol-i105259/,Autriche,Tyrol,Bezirk kitzbuehel,Kirchdorf in tirol,gemeindeamt kirchdorf in tirol,"dorfstraße 4, 6383 kirchdorf in tirol, austria",6383,Information non disponible,Information non disponible,Information non disponible,"47.57447, 12.47781"
https://fre.cityhallworldwide.com/mairie-en-autriche/gemeindeamt-sulzberg-i127581/,Autriche,Vorarlberg,Politischer bezirk bregenz,Sulzberg,gemeindeamt sulzberg,"dorf 1a, 6934 sulzberg, austria",6934,Information non disponible,Information non disponible,Information non disponible,"47.52222, 9.91431"
https://fre.cityhallworldwide.com/mairie-en-autriche/gemeindereamt-der-marktgemeinde-lauterach-i105207/,Autriche,Vorarlberg,Politischer bezirk bregenz,Lauterach,gemeindereamt der marktgemeinde lauterach,"montfortpl. 2, 6923 lauterach, austria",6923,Information non disponible,Information non disponible,Information non disponible,"47.47737, 9.731852"
https://fre.cityhallworldwide.com/mairie-en-autriche/gemeinde-kirchberg-in-tirol-i105590/,Autriche,Tyrol,Bezirk kitzbuehel,Kirchberg in tirol,gemeinde kirchberg in tirol,"hauptstraße 8, 6365 kirchberg in tirol, austria",6365,05357 22130,Information non disponible,http://www.kirchberg.tirol.gv.at/,"47.44817, 12.31538"
https://fre.cityhallworldwide.com/mairie-en-autriche/stadtsaal-waidhofenybbs-i105261/,Autriche,Basse-Autriche,Waidhofen an der ybbs,Waidhofen an der ybbs (Ville),stadtsaal waidhofen/ybbs,"plenkerstraße 8a, 3340 waidhofen an der ybbs, austria",3340,07442 511104,Information non disponible,Information non disponible,"47.95692, 14.77816"
https://fre.cityhallworldwide.com/mairie-en-autriche/gemeinde-schwarzenau-i105216/,Autriche,Basse-Autriche,Politischer bezirk zwettl,Schwarzenau,gemeinde schwarzenau,"waidhofnerstraße 2, 3900 schwarzenau, austria",3900,02849 2247,Information non disponible,http://www.schwarzenau.at/,"48.74369, 15.25946"
https://fre.cityhallworldwide.com/mairie-en-autriche/gemeindeamt-schweiggers-i105368/,Autriche,Basse-Autriche,Politischer bezirk zwettl,Schweiggers,gemeindeamt schweiggers,"hauptpl. 25, 3931 schweiggers, austria",3931,Information non disponible,Information non disponible,Information non disponible,"48.66742, 15.06332"
https://fre.cityhallworldwide.com/mairie-en-autriche/gemeindeamt-sallingberg-i105422/,Autriche,Basse-Autriche,Politischer bezirk zwettl,Sallingberg,gemeindeamt sallingberg,"lerchenweg 31, 3525 sallingberg, austria",3525,02877 7306,Information non disponible,Information non disponible,"48.46672, 15.23153"
https://fre.cityhallworldwide.com/mairie-en-autriche/gemeindeamt-rappottenstein-i105448/,Autriche,Basse-Autriche,Politischer bezirk zwettl,Rappottenstein,gemeindeamt rappottenstein,"rappottenstein 24, 3911 rappottenstein, austria",3911,Information non disponible,Information non disponible,Information non disponible,"48.52127, 15.08002"
https://fre.cityhallworldwide.com/mairie-en-autriche/gemeindeamt-ottenschlag-i105494/,Autriche,Basse-Autriche,Politischer bezirk zwettl,Ottenschlag,gemeindeamt ottenschlag,"oberer markt 22, 3631 ottenschlag, austria",3631,Information non disponible,Information non disponible,Information non disponible,"48.42289, 15.22173"
https://fre.cityhallworldwide.com/mairie-en-autriche/gemeindeamt-gutenbrunn-i105530/,Autriche,Basse-Autriche,Politischer bezirk zwettl,Gutenbrunn,gemeindeamt gutenbrunn,"gutenbrunn 25, 3665 gutenbrunn, austria",3665,Information non disponible,Information non disponible,http://www.gutenbrunn.gv.at/gemeindeamt.htm,"48.36673, 15.11919"
https://fre.cityhallworldwide.com/mairie-en-autriche/gemeindeamt-grafenschlag-i105658/,Autriche,Basse-Autriche,Politischer bezirk zwettl,Grafenschlag,gemeindeamt grafenschlag,"grafenschlag 47, 3912 grafenschlag, austria",3912,Information non disponible,Information non disponible,Information non disponible,"48.50044, 15.1663"
https://fre.cityhallworldwide.com/mairie-en-autriche/gemeindereamt-der-marktgemeinde-echsenbach-i105694/,Autriche,Basse-Autriche,Politischer bezirk zwettl,Echsenbach,gemeindereamt der marktgemeinde echsenbach,"bachzeile 4, 3903 echsenbach, austria",3903,Information non disponible,Information non disponible,Information non disponible,"48.7169, 15.21758"
https://fre.cityhallworldwide.com/mairie-en-autriche/gemeinde-gopfritz-an-der-wild-i105705/,Autriche,Basse-Autriche,Politischer bezirk zwettl,Göpfritz an der wild,gemeinde göpfritz an der wild,"hauptstraße 72, 3800 göpfritz an der wild, austria",3800,02825 8331,Information non disponible,http://www.goepfritz-wild.gv.at/,"48.72476, 15.40081"
https://fre.cityhallworldwide.com/mairie-en-autriche/gemeindeamt-jochberg-i105608/,Autriche,Tyrol,Bezirk kitzbuehel,Jochberg,gemeindeamt jochberg,"dorf 22, 6373 jochberg, austria",6373,05355 520211,Information non disponible,Information non disponible,"47.38035, 12.41887"
https://fre.cityhallworldwide.com/mairie-en-autriche/marktgemeinde-fieberbrunn-i105625/,Autriche,Tyrol,Bezirk kitzbuehel,Fieberbrunn,marktgemeinde fieberbrunn,"dorfpl. 1, 6391 fieberbrunn, austria",6391,Information non disponible,Information non disponible,Information non disponible,"47.47681, 12.5444"
https://fre.cityhallworldwide.com/mairie-en-autriche/gemeindeamt-fendels-i105358/,Autriche,Tyrol,Landeck,Fendels,gemeindeamt fendels,"fendels 40, 6528 fendels, austria",6528,05472 6366,Information non disponible,http://www.fendels.tirol.gv.at/,"47.05393, 10.67669"
https://fre.cityhallworldwide.com/mairie-en-autriche/gemeindeverwaltung-samnaun-compatsch-i105479/,Autriche,Tyrol,Landeck,Ischgl,gemeindeverwaltung samnaun-compatsch,"kirchweg 25, 7562 samnaun-compatsch, switzerland",7562,081 861 83 00,Information non disponible,http://www.gemeindesamnaun.ch/,"46.96, 10.40322"
https://fre.cityhallworldwide.com/mairie-en-autriche/kaunerberg-i105596/,Autriche,Tyrol,Landeck,Kauns,kaunerberg,"poschackerl 46, 6527 kaunerberg, austria",6527,05472 6713,Information non disponible,http://www.kaunerberg.tirol.gv.at/,"47.08265, 10.70609"
https://fre.cityhallworldwide.com/mairie-en-autriche/gemeindeamt-sautens-i105279/,Autriche,Tyrol,Politischer bezirk imst,Sautens,gemeindeamt sautens,"dorfstraße 55, 6432 sautens, austria",6432,05252 21194,Information non disponible,Information non disponible,"47.20783, 10.86277"
https://fre.cityhallworldwide.com/mairie-en-autriche/gemeindeamt-tarrenz-i105309/,Autriche,Tyrol,Politischer bezirk imst,Tarrenz,gemeindeamt tarrenz,"hauptstraße 14, 6464 tarrenz, austria",6464,05412 63352,Information non disponible,http://www.tarrenz.at/,"47.26387, 10.76443"
https://fre.cityhallworldwide.com/mairie-en-autriche/gemeindeamt-karrosten-i105430/,Autriche,Tyrol,Politischer bezirk imst,Karrösten,gemeindeamt karrösten,"dorfgasse 2, 6462 karrösten, austria",6462,05412 661870,Information non disponible,http://www.karroesten.tirol.gv.at/,"47.22548, 10.76627"
https://fre.cityhallworldwide.com/mairie-en-autriche/gemeindeamt-mils-bei-imst-i105522/,Autriche,Tyrol,Politischer bezirk imst,Mils bei imst,gemeindeamt mils bei imst,"reitle 4, 6493 mils bei imst, austria",6493,05418 5297,Information non disponible,http://www.mils-bei-imst.tirol.gv.at/,"47.20477, 10.67309"
https://fre.cityhallworldwide.com/mairie-en-autriche/gemeinde-jerzens-i105609/,Autriche,Tyrol,Politischer bezirk imst,Jerzens,gemeinde jerzens,"jerzens 220, 6474 jerzens, austria",6474,05414 87336,Information non disponible,http://www.jerzens.tirol.gv.at/,"47.15036, 10.74581"
https://fre.cityhallworldwide.com/mairie-en-autriche/magdalenastrae-i117649/,Autriche,Tyrol,Politischer bezirk innsbruck,Hall in tirol,magdalenastraße,"magdalenastraße, 6060 hall in tirol, austria", ,Information non disponible,Information non disponible,Information non disponible,"47.28567, 11.50711"
https://fre.cityhallworldwide.com/mairie-en-autriche/mangstrae-i117651/,Autriche,Tyrol,Politischer bezirk innsbruck,Hall in tirol,mangstraße,"mangstraße, 6060 hall in tirol, austria",6060,Information non disponible,Information non disponible,Information non disponible,"47.28572, 11.50414"
https://fre.cityhallworldwide.com/mairie-en-autriche/austrae-i120315/,Autriche,Tyrol,Politischer bezirk innsbruck,Rum,austraße,"austraße, 6063 rum, austria",6063,Information non disponible,Information non disponible,Information non disponible,"47.27688, 11.44916"
https://fre.cityhallworldwide.com/mairie-en-autriche/rathaus-telfs-i127580/,Autriche,Tyrol,Politischer bezirk innsbruck,Telfs,rathaus telfs,"untermarktstraße 7, 6410 telfs, austria",6410,05262 6961,Information non disponible,http://www.telfs.at/rathaus.html,"47.30691, 11.07253"
https://fre.cityhallworldwide.com/mairie-en-autriche/monte-piano-strae-i127592/,Autriche,Tyrol,Politischer bezirk innsbruck,Rum,monte-piano-straße,"monte-piano-straße, 6020 innsbruck, austria",6020,Information non disponible,Information non disponible,Information non disponible,"47.27544, 11.43951"
https://fre.cityhallworldwide.com/mairie-en-autriche/eichbergweg-i127609/,Autriche,Tyrol,Politischer bezirk innsbruck,Fritzens,eichbergweg,"eichbergweg, 6122 fritzens, austria",6122,Information non disponible,Information non disponible,Information non disponible,"47.30965, 11.60515"
https://fre.cityhallworldwide.com/mairie-en-autriche/aichat-i129028/,Autriche,Tyrol,Politischer bezirk innsbruck,Absam,aichat,"aichat, 6068 mils, austria",6068,Information non disponible,Information non disponible,Information non disponible,"47.30301, 11.52643"
https://fre.cityhallworldwide.com/mairie-en-autriche/finkenberg-i129147/,Autriche,Tyrol,Politischer bezirk innsbruck,Rum,finkenberg,"finkenberg, rum, austria",austria,Information non disponible,Information non disponible,Information non disponible,"47.28945, 11.45609"
https://fre.cityhallworldwide.com/mairie-en-autriche/planitz-i129268/,Autriche,Tyrol,Politischer bezirk innsbruck,Absam,planitz,"planitz, 6068 mils, austria",6068,Information non disponible,Information non disponible,Information non disponible,"47.30706, 11.52525"
https://fre.cityhallworldwide.com/mairie-en-autriche/stadtgemeinde-rattenberg-i105439/,Autriche,Tyrol,Politischer bezirk kufstein,Rattenberg,stadtgemeinde rattenberg,"pfarrgasse 92, 6240 rattenberg, austria",6240,05337 62408,Information non disponible,http://www.rattenberg.at/,"47.43933, 11.89393"
https://fre.cityhallworldwide.com/mairie-en-autriche/gemeindeamt-radfeld-i105454/,Autriche,Tyrol,Politischer bezirk kufstein,Radfeld,gemeindeamt radfeld,"dorfstraße 57, 6241 radfeld, austria",6241,05337 63950,Information non disponible,https://www.radfeld.tirol.gv.at/,"47.44632, 11.91068"
https://fre.cityhallworldwide.com/mairie-en-autriche/going-am-wilden-kaiser-i105503/,Autriche,Tyrol,Politischer bezirk kufstein,Ellmau,going am wilden kaiser,"kirchpl. 1a, 6353 going am wilden kaiser, austria",6353,05358 2427,Information non disponible,http://www.going.tirol.gv.at/,"47.51406, 12.32891"
https://fre.cityhallworldwide.com/mairie-en-autriche/gemeindeamt-breitenbach-am-inn-i105574/,Autriche,Tyrol,Politischer bezirk kufstein,Breitenbach am inn,gemeindeamt breitenbach am inn,"dorf 94, 6252 breitenbach am inn, austria",6252,05338 7274,Information non disponible,http://www.breitenbach.at/,"47.47879, 11.97392"
https://fre.cityhallworldwide.com/mairie-en-autriche/gemeindereamt-bad-haring-i105728/,Autriche,Tyrol,Politischer bezirk kufstein,Bad häring,gemeindereamt bad häring,"dorf 90, 6323 bad häring, austria",6323,Information non disponible,Information non disponible,Information non disponible,"47.51012, 12.11938"
https://fre.cityhallworldwide.com/mairie-en-autriche/gemeindeamt-alpbach-i105743/,Autriche,Tyrol,Politischer bezirk kufstein,Alpbach,gemeindeamt alpbach,"alpbach 168, 6236 alpbach, austria",6236,05336 5224,Information non disponible,http://www.alpbach.tirol.gv.at/,"47.39881, 11.94429"
https://fre.cityhallworldwide.com/mairie-en-autriche/gemeindeamt-auervillgraten-i105318/,Autriche,Tyrol,Politischer bezirk lienz,Außervillgraten,gemeindeamt außervillgraten,"außervillgraten 136b, 9931, austria",9931,04843 5522,Information non disponible,http://www.ausservillgraten.gv.at/,"46.78684, 12.42989"
https://fre.cityhallworldwide.com/mairie-en-autriche/marktgemeinde-sillian-i105351/,Autriche,Tyrol,Politischer bezirk lienz,Sillian,marktgemeinde sillian,"sillian 86, 9920 sillian, austria",9920,Information non disponible,Information non disponible,Information non disponible,"46.74735, 12.41941"
https://fre.cityhallworldwide.com/mairie-en-autriche/polizeiinspektion-sankt-jakob-im-defereggental-i105414/,Autriche,Tyrol,Politischer bezirk lienz,Innervillgraten,polizeiinspektion sankt jakob im defereggental,"unterrotte 75, 9963 unterrotte, austria",9963,04873 5207,Information non disponible,http://www.stjakob.at/,"46.91584, 12.33151"
https://fre.cityhallworldwide.com/mairie-en-autriche/gemeindeamt-gaimberg-i105505/,Autriche,Tyrol,Politischer bezirk lienz,Thurn,gemeindeamt gaimberg,"dorfstraße 32, 9905 obergaimberg, austria",9905,Information non disponible,Information non disponible,Information non disponible,"46.84293, 12.77042"
https://fre.cityhallworldwide.com/mairie-en-autriche/gemeindeamt-leisach-i105560/,Autriche,Tyrol,Politischer bezirk lienz,Leisach,gemeindeamt leisach,"leisach 20, 9909, austria",9909,04852 62660,Information non disponible,http://leisach.gv.at/,"46.80944, 12.74901"
https://fre.cityhallworldwide.com/mairie-en-autriche/marktgemeinde-nudorf-debant-i105563/,Autriche,Tyrol,Politischer bezirk lienz,Dölsach,marktgemeinde nußdorf-debant,"hermann gmeiner-straße 4, 9990 debant, austria",9990,Information non disponible,Information non disponible,http://www.nussdorf-debant.at/,"46.83075, 12.81385"
https://fre.cityhallworldwide.com/mairie-en-autriche/kals-am-groglockner-i105633/,Autriche,Tyrol,Politischer bezirk lienz,Matrei in osttirol,kals am großglockner,"ködnitz 6, 9981, austria",9981,04876 82100,Information non disponible,http://www.kals.at/,"47.00117, 12.64463"
https://fre.cityhallworldwide.com/mairie-en-autriche/gemeindeamt-sankt-johann-im-walde-i105735/,Autriche,Tyrol,Politischer bezirk lienz,Schlaiten,gemeindeamt sankt johann im walde,"st. johann im walde 48, 9952 st. johann im walde, austria",9952,04872 20100,Information non disponible,http://sanktjohannimwalde.at/,"46.90257, 12.62723"
https://fre.cityhallworldwide.com/mairie-en-autriche/gemeindeamt-i127596/,Autriche,Tyrol,Politischer bezirk lienz,Dölsach,gemeindeamt,"hermann gmeiner-straße 4, 9990 nußdorf-debant, austria",9990,04852 6222281,Information non disponible,http://www.nussdorf-debant.at/,"46.83092, 12.81446"
https://fre.cityhallworldwide.com/mairie-en-autriche/gemeindeamt-holzgau-i105334/,Autriche,Tyrol,Politischer bezirk reutte,Holzgau,gemeindeamt holzgau,"holzgau 45, 6654 holzgau, austria",6654,05633 5283,Information non disponible,Information non disponible,"47.25913, 10.34358"
https://fre.cityhallworldwide.com/mairie-en-autriche/elmen-i105336/,Autriche,Tyrol,Politischer bezirk reutte,Elmen,elmen,"elmen 2, 6644 elmen, austria",6644,05635 297,Information non disponible,Information non disponible,"47.33811, 10.54101"
https://fre.cityhallworldwide.com/mairie-en-autriche/gemeinde-wangle-i105435/,Autriche,Tyrol,Politischer bezirk reutte,Wängle,gemeinde wängle,"oberdorf 4, 6610 wängle, austria",6610,05672 62381,Information non disponible,http://www.waengle.at/,"47.48714, 10.68834"
https://fre.cityhallworldwide.com/mairie-en-autriche/gemeindeamt-lechaschau-i105480/,Autriche,Tyrol,Politischer bezirk reutte,Lechaschau,gemeindeamt lechaschau,"dorfstraße 10, 6600 lechaschau, austria",6600,Information non disponible,Information non disponible,Information non disponible,"47.48945, 10.70634"
https://fre.cityhallworldwide.com/mairie-en-autriche/gemeindeamt-biberwier-i105555/,Autriche,Tyrol,Politischer bezirk reutte,Biberwier,gemeindeamt biberwier,"fernpaßstraße 27, 6633 biberwier, austria",6633,Information non disponible,Information non disponible,Information non disponible,"47.38277, 10.89146"
https://fre.cityhallworldwide.com/mairie-en-autriche/gemeindeamt-jungholz-i105606/,Autriche,Tyrol,Politischer bezirk reutte,Jungholz,gemeindeamt jungholz,"jungholz 55, 6691 jungholz, austria",6691,05676 8121,Information non disponible,http://www.jungholz.tirol.gv.at/,"47.57216, 10.4466"
https://fre.cityhallworldwide.com/mairie-en-autriche/gemeindeamt-breitenwang-i105630/,Autriche,Tyrol,Politischer bezirk reutte,Breitenwang,gemeindeamt breitenwang,"dorfstraße 5, 6600 breitenwang, austria",6600,05672 625160,Information non disponible,Information non disponible,"47.48771, 10.72955"
https://fre.cityhallworldwide.com/mairie-en-autriche/gemeindeamt-elbigenalp-i105657/,Autriche,Tyrol,Politischer bezirk reutte,Elbigenalp,gemeindeamt elbigenalp,"dorf 55, 6652, austria",6652,Information non disponible,Information non disponible,Information non disponible,"47.29071, 10.43667"
https://fre.cityhallworldwide.com/mairie-en-autriche/gemeindeamt-ehenbichl-i105690/,Autriche,Tyrol,Politischer bezirk reutte,Ehenbichl,gemeindeamt ehenbichl,"schulweg 10, 6600 ehenbichl, austria",6600,05672 62083,Information non disponible,http://www.ehenbichl.tirol.gv.at/,"47.47242, 10.7006"
https://fre.cityhallworldwide.com/mairie-en-autriche/marktgemeindeamt-zell-a-ziller-i105197/,Autriche,Tyrol,Politischer bezirk schwaz,Zell am ziller,marktgemeindeamt zell a ziller,"unterdorf 2, 6280 zell am ziller, austria",6280,05282 22220,Information non disponible,Information non disponible,"47.2336, 11.88028"
https://fre.cityhallworldwide.com/mairie-en-autriche/gemeinde-wiesing-i105224/,Autriche,Tyrol,Politischer bezirk schwaz,Wiesing,gemeinde wiesing,"dorf 19, 6210 wiesing, austria",6210,05244 62623,Information non disponible,http://www.wiesing.tirol.gv.at/,"47.4043, 11.7978"
https://fre.cityhallworldwide.com/mairie-en-autriche/gemeindeamt-weerberg-i105247/,Autriche,Tyrol,Politischer bezirk schwaz,Terfens,gemeindeamt weerberg,"mitterberg 111, 6133 weerberg, austria",6133,05224 20779,Information non disponible,http://www.weerberg.at/,"47.29855, 11.66615"
https://fre.cityhallworldwide.com/mairie-en-autriche/gemeindeamt-terfens-i105267/,Autriche,Tyrol,Politischer bezirk schwaz,Terfens,gemeindeamt terfens,"dorfpl. 1, 6123 terfens, austria",6123,05224 68315,Information non disponible,http://www.terfens.at/,"47.32236, 11.64299"
https://fre.cityhallworldwide.com/mairie-en-autriche/gemeindeamt-stummerberg-i105313/,Autriche,Tyrol,Politischer bezirk schwaz,Stumm,gemeindeamt stummerberg,"dorfstraße 15, 6274 aschau im zillertal, austria",6274,Information non disponible,Information non disponible,Information non disponible,"47.26818, 11.89627"
https://fre.cityhallworldwide.com/mairie-en-autriche/gemeinde-finkenberg-und-mayrhofen---ortvorstehung-ginzling-i105526/,Autriche,Tyrol,Politischer bezirk schwaz,Mayrhofen,gemeinde finkenberg und mayrhofen - ortvorstehung ginzling,"ginzling, 6295 mayrhofen, austria",6295,Information non disponible,Information non disponible,Information non disponible,"47.10905, 11.80966"
https://fre.cityhallworldwide.com/mairie-en-autriche/gemeindeamt-buch-in-tirol-i105610/,Autriche,Tyrol,Politischer bezirk schwaz,Gallzein,gemeindeamt buch in tirol,"st. margarethen 108, 6220 buch, austria",6220,05244 62496,Information non disponible,http://www.buch.tirol.gv.at/,"47.37769, 11.76838"
https://fre.cityhallworldwide.com/mairie-en-autriche/gemeindeamt-gerlos-i105742/,Autriche,Tyrol,Politischer bezirk schwaz,Gerlos,gemeindeamt gerlos,"gerlos 141, 6281 gerlos, austria",6281,Information non disponible,Information non disponible,Information non disponible,"47.22572, 12.03439"
https://fre.cityhallworldwide.com/mairie-en-autriche/municipal-office-buch-in-tirol-i127584/,Autriche,Tyrol,Politischer bezirk schwaz,Gallzein,municipal office buch in tirol,"st. margarethen 108, 6220 buch, austria",6220,05244 62496,Information non disponible,http://www.buch.tirol.gv.at/,"47.37769, 11.76838"
https://fre.cityhallworldwide.com/mairie-en-autriche/gemeindeamt-gabersdorf-i105263/,Autriche,Styrie,Leibnitz,Gabersdorf,gemeindeamt gabersdorf,"gabersdorf 93, 8424 gabersdorf, austria",8424,03452 82420,Information non disponible,http://www.svgabersdorf.at/,"46.78234, 15.59046"
https://fre.cityhallworldwide.com/mairie-en-autriche/marktgemeinde-ehrenhausen-i105342/,Autriche,Styrie,Leibnitz,Ehrenhausen,marktgemeinde ehrenhausen,"marktpl. 2, 8461 ehrenhausen, austria",8461,03453 2507,Information non disponible,http://www.ehrenhausen-gv.at/,"46.72575, 15.58563"
https://fre.cityhallworldwide.com/mairie-en-autriche/gemeindeamt-leutschach-an-der-weinstrae-i105554/,Autriche,Styrie,Leibnitz,Leutschach,gemeindeamt leutschach an der weinstraße,"arnfelser str. 1, 8463 leutschach, austria",8463,03454 7060,Information non disponible,http://www.leutschach-weinstrasse.gv.at/,"46.66724, 15.46798"
https://fre.cityhallworldwide.com/mairie-en-autriche/municipal-office-leutschach-on-the-wine-route-i127595/,Autriche,Styrie,Leibnitz,Leutschach,municipal office leutschach on the wine route,"arnfelser str. 1, 8463 leutschach, austria",8463,03454 7060,Information non disponible,http://www.leutschach-weinstrasse.gv.at/,"46.66724, 15.46798"
https://fre.cityhallworldwide.com/mairie-en-autriche/marktgemeinde-gro-sankt-florian-i105276/,Autriche,Styrie,Politischer berzirk deutschlandsberg,Groß sankt florian,marktgemeinde groß sankt florian,"marktpl. 3, 8522 groß st. florian, austria",8522,03464 22040,Information non disponible,http://www.gross-st-florian.at/,"46.82365, 15.31643"
https://fre.cityhallworldwide.com/mairie-en-autriche/marktgemeinde-stainz-rathaus-i105337/,Autriche,Styrie,Politischer berzirk deutschlandsberg,Stainz,marktgemeinde stainz rathaus,"hauptpl. 1, 8510, austria",8510,03463 2203,Information non disponible,http://www.stainz.at/,"46.89396, 15.26388"
https://fre.cityhallworldwide.com/mairie-en-autriche/gemeindeamt-garanas-i105376/,Autriche,Styrie,Politischer berzirk deutschlandsberg,Garanas,gemeindeamt garanas,"oberfresen 25, 8541 oberfresen, austria",8541,Information non disponible,Information non disponible,Information non disponible,"46.74936, 15.15874"
https://fre.cityhallworldwide.com/mairie-en-autriche/gemeindeamt-sankt-josef-i105411/,Autriche,Styrie,Politischer berzirk deutschlandsberg,Sankt josef (weststeiermark),gemeindeamt sankt josef,"st. josef 73, 8503 st. josef, austria",8503,Information non disponible,Information non disponible,Information non disponible,"46.91067, 15.33697"
https://fre.cityhallworldwide.com/mairie-en-autriche/marktgemeindeamt-lannach-i105565/,Autriche,Styrie,Politischer berzirk deutschlandsberg,Lannach,marktgemeindeamt lannach,"hauptstraße 28, 8502 lannach, austria",8502,Information non disponible,Information non disponible,Information non disponible,"46.94222, 15.33126"
https://fre.cityhallworldwide.com/mairie-en-autriche/marktgemeinde-eibiswald-i105689/,Autriche,Styrie,Politischer berzirk deutschlandsberg,Eibiswald,marktgemeinde eibiswald,"eibiswald 17, 8552 eibiswald, austria",8552,03466 45400,Information non disponible,http://www.eibiswald.gv.at/,"46.68615, 15.24347"
https://fre.cityhallworldwide.com/mairie-en-autriche/polizeiinspektion-sankt-katharain-an-der-laming-i105410/,Autriche,Styrie,Politischer bezirk bruck an der mur,Sankt katharein an der laming,polizeiinspektion sankt katharain an der laming,"st. katharein an der laming 32, 8611 st. katharein an der laming, austria",8611,03869 2242,Information non disponible,Information non disponible,"47.46999, 15.16378"
https://fre.cityhallworldwide.com/mairie-en-autriche/stadtgemeinde-bruck-an-der-mur---fundamt-i105483/,Autriche,Styrie,Politischer bezirk bruck an der mur,Bruck an der mur,stadtgemeinde bruck an der mur - fundamt,"koloman-wallisch-platz 1, 8600 bruck an der mur, austria",8600,03862 8900,Information non disponible,http://www.bruckmur.at/,"47.41057, 15.26863"
https://fre.cityhallworldwide.com/mairie-en-autriche/ehemaliges-gemeindeamt-parschlug-i105490/,Autriche,Styrie,Politischer bezirk bruck an der mur,Parschlug,ehemaliges gemeindeamt parschlug,"haritzmeierstraße 1, 8605 parschlug, austria",8605,Information non disponible,Information non disponible,Information non disponible,"47.48103, 15.28682"
https://fre.cityhallworldwide.com/mairie-en-autriche/fpo-kapfenberg-i105602/,Autriche,Styrie,Politischer bezirk bruck an der mur,Kapfenberg,fpö kapfenberg,"wiener straße 35a, büroräume ece, 2. stock, 8605 kapfenberg, austria",8605,0650 4100400,Information non disponible,Information non disponible,"47.44418, 15.2915"
https://fre.cityhallworldwide.com/mairie-en-autriche/gemeindereamt-der-marktgemeinde-waldegg-i105257/,Autriche,Basse-Autriche,Politischer bezirk wiener neustadt,Waldegg,gemeindereamt der marktgemeinde waldegg,"waldegg 246, 2754 waldegg an der piesting, austria",2754,Information non disponible,Information non disponible,Information non disponible,"47.86996, 16.0621"
https://fre.cityhallworldwide.com/mairie-en-autriche/gemeindeamt-tullnerbach-i105209/,Autriche,Basse-Autriche,Politischer bezirk wien umgebung,Pressbaum,gemeindeamt tullnerbach,"hauptstraße 47, 3013 tullnerbach, austria",3013,02233 52288,Information non disponible,http://www.tullnerbach.gv.at,"48.18429, 16.09341"
https://fre.cityhallworldwide.com/mairie-en-autriche/waldkirchen-an-der-thaya-i105253/,Autriche,Basse-Autriche,Politischer bezirk waidhofen an der thaya,Waldkirchen an der thaya,waldkirchen an der thaya,"waldkirchen an der thaya 65, 3844 waldkirchen an der thaya, austria",3844,Information non disponible,Information non disponible,http://www.waldkirchen-thaya.at/,"48.93958, 15.35171"
https://fre.cityhallworldwide.com/mairie-en-autriche/gemeindeamt-der-marktgemeinde-sieghartskirchen-i105355/,Autriche,Basse-Autriche,Politischer bezirk tulln,Sieghartskirchen,gemeindeamt der marktgemeinde sieghartskirchen,"wiener str. 12, 3443 sieghartskirchen, austria",3443,02274 5005,Information non disponible,http://www.sieghartskirchen.com/,"48.25586, 16.01612"
https://fre.cityhallworldwide.com/mairie-en-autriche/gemeinde-wieselburg-land-i105214/,Autriche,Basse-Autriche,Politischer bezirk scheibbs,Wieselburg,gemeinde wieselburg-land,"weinzierl-wechlingerstraße 9, 3250 weinzierl, austria",3250,07416 522690,Information non disponible,http://www.wieselburg-land.at/,"48.12639, 15.12649"
https://fre.cityhallworldwide.com/mairie-en-autriche/gemeindeamt-ober-grafendorf-i105507/,Autriche,Basse-Autriche,Politischer bezirk sankt pölten,Ober-grafendorf,gemeindeamt ober-grafendorf,"hauptpl. 2, 3200 ober-grafendorf, austria",3200,02747 2313,Information non disponible,http://www.ober-grafendorf.at/,"48.15082, 15.5442"
https://fre.cityhallworldwide.com/mairie-en-autriche/gemeindeamt-grunbach-am-schneeberg-i105381/,Autriche,Basse-Autriche,Politischer bezirk neunkirchen,Grünbach am schneeberg,gemeindeamt grünbach am schneeberg,"wiener neustädter str. 1, 2733 grünbach am schneeberg, austria",2733,Information non disponible,Information non disponible,http://www.gruenbach-schneeberg.gv.at/,"47.79633, 15.98895"
https://fre.cityhallworldwide.com/mairie-en-autriche/marktgemeinde-perchtoldsdorf-i105485/,Autriche,Basse-Autriche,Politischer bezirk mödling,Perchtoldsdorf,marktgemeinde perchtoldsdorf,"marktpl. 11, 2380 perchtoldsdorf, austria",2380,Information non disponible,Information non disponible,Information non disponible,"48.11911, 16.2655"
https://fre.cityhallworldwide.com/mairie-en-autriche/stadtgemeinde-poysdorf-erholungszentrum-i105469/,Autriche,Basse-Autriche,Politischer bezirk mistelbach an der zaya,Poysdorf,stadtgemeinde poysdorf erholungszentrum,"laaer str. 106, 2170 poysdorf, austria",2170,02552 2200,Information non disponible,http://www.poysdorf.at/,"48.66521, 16.61332"
https://fre.cityhallworldwide.com/mairie-en-autriche/gemeindeamt-raxendorf-i105445/,Autriche,Basse-Autriche,Politischer bezirk melk,Raxendorf,gemeindeamt raxendorf,"raxendorf 10, 3654 raxendorf, austria",3654,Information non disponible,Information non disponible,Information non disponible,"48.34106, 15.27742"
https://fre.cityhallworldwide.com/mairie-en-autriche/gemeinde-traisen-i105296/,Autriche,Basse-Autriche,Politischer bezirk lilienfeld,Traisen,gemeinde traisen,"mariazellerstraße 78, 3160 traisen, austria",3160,02762 620000,Information non disponible,http://www.traisen.com/,"48.04139, 15.60928"
https://fre.cityhallworldwide.com/mairie-en-autriche/marktgemeinde-rossatz-arnsdorf-i105241/,Autriche,Basse-Autriche,Politischer bezirk krems an der donau (lower austria),Dürnstein,marktgemeinde rossatz-arnsdorf,"rossatz 29, 3602 rossatz, austria",3602,02714 6217,Information non disponible,http://www.rossatz-arnsdorf.at/,"48.39717, 15.5053"
https://fre.cityhallworldwide.com/mairie-en-autriche/sierndorf-i105321/,Autriche,Basse-Autriche,Politischer bezirk korneuburg,Sierndorf,sierndorf,"prager str. 13, 2011 sierndorf, austria",2011,02267 2225,Information non disponible,https://www.sierndorf.at/,"48.43036, 16.16652"
https://fre.cityhallworldwide.com/mairie-en-autriche/marktgemeinde-langau-i105238/,Autriche,Basse-Autriche,Politischer bezirk horn,Langau,marktgemeinde langau,"langau 103, 2091 langau bei geras, austria",2091,Information non disponible,Information non disponible,http://www.langau.at/,"48.83119, 15.71566"
https://fre.cityhallworldwide.com/mairie-en-autriche/marktgemeinde-sitzendorf-an-der-schmida-i105348/,Autriche,Basse-Autriche,Politischer bezirk hollabrunn,Sitzendorf an der schmida,marktgemeinde sitzendorf an der schmida,"hauptpl. 20, 3714 sitzendorf an der schmida, austria",3714,02959 2203,Information non disponible,http://www.sitzendorf.at/,"48.59867, 15.9419"
https://fre.cityhallworldwide.com/mairie-en-autriche/rathaus-weitra-i105237/,Autriche,Basse-Autriche,Politischer bezirk gmünd,Weitra,rathaus weitra,"rathauspl. 1, 3970 weitra, austria",3970,Information non disponible,Information non disponible,Information non disponible,"48.70074, 14.8936"
https://fre.cityhallworldwide.com/mairie-en-autriche/stadtgemeinde-deutsch-wagram-i105535/,Autriche,Basse-Autriche,Politischer bezirk gänserndorf,Deutsch-wagram,stadtgemeinde deutsch-wagram,"friedhofstraße 9, 2232 deutsch-wagram, austria",2232,Information non disponible,Information non disponible,Information non disponible,"48.29803, 16.56568"
https://fre.cityhallworldwide.com/mairie-en-autriche/stadtgemeinde-marchegg-i105540/,Autriche,Basse-Autriche,Politischer bezirk gänserndorf,Marchegg,stadtgemeinde marchegg,"hauptpl. 30, 2293 marchegg, austria",2293,02285 71000,Information non disponible,Information non disponible,"48.27967, 16.90815"
https://fre.cityhallworldwide.com/mairie-en-autriche/gemeindeamt-lassee-i105564/,Autriche,Basse-Autriche,Politischer bezirk gänserndorf,Lassee,gemeindeamt lassee,"obere hauptstraße 4, 2291 lassee, austria",2291,Information non disponible,Information non disponible,Information non disponible,"48.2249, 16.82135"
https://fre.cityhallworldwide.com/mairie-en-autriche/marktgemeinde-jedenspeigen-i105611/,Autriche,Basse-Autriche,Politischer bezirk gänserndorf,Jedenspeigen,marktgemeinde jedenspeigen,"bahnstraße 2, 2264 jedenspeigen, austria",2264,Information non disponible,Information non disponible,Information non disponible,"48.49809, 16.87276"
https://fre.cityhallworldwide.com/mairie-en-autriche/gemeinde-matzen-raggendorf-i105622/,Autriche,Basse-Autriche,Politischer bezirk gänserndorf,Groß-schweinbarth,gemeinde matzen-raggendorf,"hauptpl. 1, 2243 matzen, austria",2243,02289 227320,Information non disponible,http://www.matzen-raggendorf.gv.at/,"48.40255, 16.69352"
https://fre.cityhallworldwide.com/mairie-en-autriche/gemeindeamt-umd-freiwillige-feuerwehr-glinzendorf-i105662/,Autriche,Basse-Autriche,Politischer bezirk gänserndorf,Glinzendorf,gemeindeamt umd freiwillige feuerwehr glinzendorf,"glinzendorf 40, 2282 glinzendorf, austria",2282,Information non disponible,Information non disponible,Information non disponible,"48.24729, 16.64012"
https://fre.cityhallworldwide.com/mairie-en-autriche/gemeinde-engelhartstetten-i105684/,Autriche,Basse-Autriche,Politischer bezirk gänserndorf,Engelhartstetten,gemeinde engelhartstetten,"obere hauptstraße 2, 2292 engelhartstetten, austria",2292,02214 2292,Information non disponible,http://www.engelhartstetten.at/,"48.18226, 16.88087"
https://fre.cityhallworldwide.com/mairie-en-autriche/gemeindereamt-der-marktgemeinde-schonkirchen-reyersdorf-i105717/,Autriche,Basse-Autriche,Politischer bezirk gänserndorf,Gänserndorf,gemeindereamt der marktgemeinde schönkirchen-reyersdorf,"gänserndorferstraße 1a, 2241 schönkirchen-reyersdorf, austria",2241,02282 2506,Information non disponible,http://www.schoenkirchen-reyersdorf.at/,"48.36496, 16.69891"
https://fre.cityhallworldwide.com/mairie-en-autriche/gemeinde-angern-an-der-march-i105726/,Autriche,Basse-Autriche,Politischer bezirk gänserndorf,Angern an der march,gemeinde angern an der march,"bahnstraße 5, 2261 angern an der march, austria",2261,02283 2241,Information non disponible,http://www.angern.at/,"48.38101, 16.82861"
https://fre.cityhallworldwide.com/mairie-en-autriche/marktgemeinde-i127582/,Autriche,Basse-Autriche,Politischer bezirk gänserndorf,Strasshof an der nordbahn,marktgemeinde,"bahnhofstraße 22, 2231 strasshof an der nordbahn, austria",2231,02287 2208,Information non disponible,http://www.strasshofandernordbahn.gv.at/,"48.31889, 16.64281"
https://fre.cityhallworldwide.com/mairie-en-autriche/stadthalle-schrems-i105378/,Autriche,Basse-Autriche,Politischer bezirk gmünd,Schrems,stadthalle schrems,"dr.-karl-renner-straße 1, 3943 schrems, austria",3943,02853 77441,Information non disponible,Information non disponible,"48.79145, 15.07193"
https://fre.cityhallworldwide.com/mairie-en-autriche/gemeindeamt-litschau-i105550/,Autriche,Basse-Autriche,Politischer bezirk gmünd,Litschau,gemeindeamt litschau,"stadtpl. 25, 3874 litschau, austria",3874,Information non disponible,Information non disponible,Information non disponible,"48.94395, 15.04558"
https://fre.cityhallworldwide.com/mairie-en-autriche/gemeinde-hirschbach-i105592/,Autriche,Basse-Autriche,Politischer bezirk gmünd,Hirschbach,gemeinde hirschbach,"bahnstraße 48, 3942 hirschbach, austria",3942,Information non disponible,Information non disponible,http://www.hirschbach.gv.at/,"48.74418, 15.12625"
https://fre.cityhallworldwide.com/mairie-en-autriche/gemeindereamt-der-marktgemeinde-hoheneich-i105623/,Autriche,Basse-Autriche,Politischer bezirk gmünd,Hoheneich,gemeindereamt der marktgemeinde hoheneich,"marktpl. 91, 3945 hoheneich, austria",3945,Information non disponible,Information non disponible,Information non disponible,"48.77187, 15.02573"
https://fre.cityhallworldwide.com/mairie-en-autriche/stadtgemeinde-schrattenthal-i105379/,Autriche,Basse-Autriche,Politischer bezirk hollabrunn,Retz,stadtgemeinde schrattenthal,"obermarkersdorf 182, 2073 schrattenthal, austria",2073,02942 8204,Information non disponible,http://www.schrattenthal.at/,"48.73661, 15.89856"
https://fre.cityhallworldwide.com/mairie-en-autriche/town-hall-i105437/,Autriche,Basse-Autriche,Politischer bezirk hollabrunn,Retz,town hall,"hauptpl., 2070 retz, austria",2070,02942 2223,Information non disponible,http://www.retz.at/system/web/sonderseite.aspx?menuonr=223519064&detailonr=223519064,"48.75707, 15.95056"
https://fre.cityhallworldwide.com/mairie-en-autriche/gemeindeamt-maissau-i105446/,Autriche,Basse-Autriche,Politischer bezirk hollabrunn,Maissau,gemeindeamt maissau,"franz-gilly-gasse 7, 3712 maissau, austria",3712,Information non disponible,Information non disponible,http://www.maissau.at/,"48.57084, 15.82834"
https://fre.cityhallworldwide.com/mairie-en-autriche/gemeindeamt-seefeld-kadolz-i105544/,Autriche,Basse-Autriche,Politischer bezirk hollabrunn,Hadres,gemeindeamt seefeld-kadolz,"seefeld 39, 2062 seefeld, austria",2062,02943 22010,Information non disponible,Information non disponible,"48.71562, 16.17464"
https://fre.cityhallworldwide.com/mairie-en-autriche/marktgemeinde-haugsdorf-i105639/,Autriche,Basse-Autriche,Politischer bezirk hollabrunn,Haugsdorf,marktgemeinde haugsdorf,"laaer str. 12, 2054 haugsdorf, austria",2054,02944 22180,Information non disponible,http://www.haugsdorf.at/,"48.70644, 16.07795"
https://fre.cityhallworldwide.com/mairie-en-autriche/gemeinde-alberndorf-i105646/,Autriche,Basse-Autriche,Politischer bezirk hollabrunn,Hadres,gemeinde alberndorf,"alberndorf im pulkautal, 2054 alberndorf im pulkautal, austria",2054,Information non disponible,Information non disponible,Information non disponible,"48.69949, 16.10663"
https://fre.cityhallworldwide.com/mairie-en-autriche/marktgemeinde-guntersdorf-i105651/,Autriche,Basse-Autriche,Politischer bezirk hollabrunn,Guntersdorf,marktgemeinde guntersdorf,"guntersdorf, 2042 guntersdorf, austria",2042,Information non disponible,Information non disponible,Information non disponible,"48.6335, 15.98321"
https://fre.cityhallworldwide.com/mairie-en-autriche/gemeindeamt-sigmundsherberg-i105353/,Autriche,Basse-Autriche,Politischer bezirk horn,Sigmundsherberg,gemeindeamt sigmundsherberg,"hauptstraße 50, 3751 sigmundsherberg, austria",3751,Information non disponible,Information non disponible,Information non disponible,"48.68747, 15.74347"
https://fre.cityhallworldwide.com/mairie-en-autriche/gemeindeamt-japons-i105612/,Autriche,Basse-Autriche,Politischer bezirk horn,Japons,gemeindeamt japons,"japons 64, 3763 japons, austria",3763,Information non disponible,Information non disponible,Information non disponible,"48.7933, 15.56956"
https://fre.cityhallworldwide.com/mairie-en-autriche/rathaus-der-stadtgemeinde-horn-i105618/,Autriche,Basse-Autriche,Politischer bezirk horn,Horn,rathaus der stadtgemeinde horn,"rathauspl. 4, 3580 horn, niederösterreich, austria",3580,02982 2656,Information non disponible,http://www.horn.gv.at/,"48.66556, 15.65626"
https://fre.cityhallworldwide.com/mairie-en-autriche/stadtgemeinde-geras-i105665/,Autriche,Basse-Autriche,Politischer bezirk horn,Geras,stadtgemeinde geras,"hauptstraße 16, 2093 geras, austria",2093,02912 7050,Information non disponible,http://www.geras.gv.at/,"48.7971, 15.67488"
https://fre.cityhallworldwide.com/mairie-en-autriche/gemeindeamt-straning-i105692/,Autriche,Basse-Autriche,Politischer bezirk horn,Eggenburg,gemeindeamt straning,"straning 42, 3722 straning, austria",3722,Information non disponible,Information non disponible,http://www.straning-grafenberg.at/,"48.61049, 15.86437"
https://fre.cityhallworldwide.com/mairie-en-autriche/gemeindeamt-rosenburg-i105734/,Autriche,Basse-Autriche,Politischer bezirk horn,Altenburg,gemeindeamt rosenburg,"rosenburg 25, 3573 rosenburg, austria",3573,02982 2917,Information non disponible,http://www.rosenburg-mold.at/,"48.6288, 15.63763"
https://fre.cityhallworldwide.com/mairie-en-autriche/gemeindeamt-stetten-i105328/,Autriche,Basse-Autriche,Politischer bezirk korneuburg,Stetten,gemeindeamt stetten,"schulgasse 2, 2100 stetten, austria",2100,Information non disponible,Information non disponible,Information non disponible,"48.36782, 16.38286"
https://fre.cityhallworldwide.com/mairie-en-autriche/gemeindereamt-der-marktgemeinde-stetteldorf-am-wagram-i105329/,Autriche,Basse-Autriche,Politischer bezirk korneuburg,Stetteldorf am wagram,gemeindereamt der marktgemeinde stetteldorf am wagram,"kremser str. 26, 3463 stetteldorf am wagram, austria",3463,Information non disponible,Information non disponible,Information non disponible,"48.40885, 16.01547"
https://fre.cityhallworldwide.com/mairie-en-autriche/gemeindereamt-der-marktgemeinde-sierndorf-i105634/,Autriche,Basse-Autriche,Politischer bezirk korneuburg,Sierndorf,gemeindereamt der marktgemeinde sierndorf,"prager str. 13, 2011 sierndorf, austria",2011,Information non disponible,Information non disponible,Information non disponible,"48.43036, 16.16652"
https://fre.cityhallworldwide.com/mairie-en-autriche/gemeindeamt-harmannsdorf-i105640/,Autriche,Basse-Autriche,Politischer bezirk korneuburg,Harmannsdorf,gemeindeamt harmannsdorf,"kirchengasse 5, 2111, austria",2111,Information non disponible,Information non disponible,Information non disponible,"48.39186, 16.37135"
https://fre.cityhallworldwide.com/mairie-en-autriche/marktgemeinde-hagenbrunn-i105645/,Autriche,Basse-Autriche,Politischer bezirk korneuburg,Hagenbrunn,marktgemeinde hagenbrunn,"salzstraße 10, 2102 hagenbrunn, austria",2102,Information non disponible,Information non disponible,Information non disponible,"48.33369, 16.40839"
https://fre.cityhallworldwide.com/mairie-en-autriche/gemeindeamt-der-marktgemeinde-ernstbrunn-i105679/,Autriche,Basse-Autriche,Politischer bezirk korneuburg,Ernstbrunn,gemeindeamt der marktgemeinde ernstbrunn,"hauptpl. 1, 2115 ernstbrunn, austria",2115,02576 2301,Information non disponible,http://www.ernstbrunn.gv.at/,"48.52757, 16.36068"
https://fre.cityhallworldwide.com/mairie-en-autriche/gemeinde-enzersfeld-i105681/,Autriche,Basse-Autriche,Politischer bezirk korneuburg,Enzersfeld,gemeinde enzersfeld,"hauptstraße 36, 2202 enzersfeld im weinviertel, austria",2202,Information non disponible,Information non disponible,Information non disponible,"48.36015, 16.429"
https://fre.cityhallworldwide.com/mairie-en-autriche/xxl-brunner-stadl-i127597/,Autriche,Basse-Autriche,Politischer bezirk korneuburg,Langenzersdorf,xxl brünner stadl,"brünner str. 44, 1210 wien, austria",1210,01 9474407,Information non disponible,http://www.derstadl.at/,"48.26325, 16.40154"
https://fre.cityhallworldwide.com/mairie-en-autriche/gemeindeamt-lengenfeld-i105317/,Autriche,Basse-Autriche,Politischer bezirk krems an der donau (lower austria),Lengenfeld,gemeindeamt lengenfeld,"langenloiser str. 13, 3552 lengenfeld, austria",3552,02719 23650,Information non disponible,Information non disponible,"48.4715, 15.59521"
https://fre.cityhallworldwide.com/mairie-en-autriche/gemeindeamt-senftenberg-i105359/,Autriche,Basse-Autriche,Politischer bezirk krems an der donau (lower austria),Senftenberg,gemeindeamt senftenberg,"neuer markt 1, 3541 senftenberg, austria",3541,Information non disponible,Information non disponible,Information non disponible,"48.45023, 15.5544"
https://fre.cityhallworldwide.com/mairie-en-autriche/marktgemeinde-rastenfeld-i105447/,Autriche,Basse-Autriche,Politischer bezirk krems an der donau (lower austria),Rastenfeld,marktgemeinde rastenfeld,"rastenfeld 30, 3532 rastenfeld, austria",3532,Information non disponible,Information non disponible,Information non disponible,"48.57418, 15.32997"
https://fre.cityhallworldwide.com/mairie-en-autriche/gemeindeamt-paudorf-i105488/,Autriche,Basse-Autriche,Politischer bezirk krems an der donau (lower austria),Paudorf,gemeindeamt paudorf,"kremserstraße 185, 3508 paudorf, austria",3508,Information non disponible,Information non disponible,Information non disponible,"48.35101, 15.62047"
https://fre.cityhallworldwide.com/mairie-en-autriche/gemeindeamt-hadersdorf-kammern-i105568/,Autriche,Basse-Autriche,Politischer bezirk krems an der donau (lower austria),Gedersdorf,gemeindeamt hadersdorf-kammern,"landsknechtpl. 1, 3493 hadersdorf am kamp, austria",3493,02735 23090,Information non disponible,http://www.hadersdorf-kammern.at/,"48.45789, 15.71994"
https://fre.cityhallworldwide.com/mairie-en-autriche/jaidhof-i105613/,Autriche,Basse-Autriche,Politischer bezirk krems an der donau (lower austria),Jaidhof,jaidhof,"jaidhof 11, 3542 jaidhof, austria",3542,Information non disponible,Information non disponible,http://www.jaidhof.at/,"48.52989, 15.48505"
https://fre.cityhallworldwide.com/mairie-en-autriche/marktgemeinde-grafenegg-i105659/,Autriche,Basse-Autriche,Politischer bezirk krems an der donau (lower austria),Grafenegg,marktgemeinde grafenegg,"rathausstraße 2, 3492, austria",3492,02735 2445,Information non disponible,http://www.grafenegg.gv.at/,"48.44391, 15.74216"
https://fre.cityhallworldwide.com/mairie-en-autriche/gemeindeamt-kaumberg-i105597/,Autriche,Basse-Autriche,Politischer bezirk lilienfeld,Kaumberg,gemeindeamt kaumberg,"markt 3, 2572 kaumberg, austria",2572,Information non disponible,Information non disponible,Information non disponible,"48.02403, 15.89766"
https://fre.cityhallworldwide.com/mairie-en-autriche/gemeindeamt-hohenberg-i105624/,Autriche,Basse-Autriche,Politischer bezirk lilienfeld,Hohenberg,gemeindeamt hohenberg,"markt 1, 3192 hohenberg, austria",3192,Information non disponible,Information non disponible,Information non disponible,"47.9082, 15.61966"
https://fre.cityhallworldwide.com/mairie-en-autriche/stadtgemeinde-hainfeld-i105644/,Autriche,Basse-Autriche,Politischer bezirk lilienfeld,Hainfeld,stadtgemeinde hainfeld,"hauptstraße 5, 3170 hainfeld, austria",3170,Information non disponible,Information non disponible,Information non disponible,"48.03481, 15.77322"
https://fre.cityhallworldwide.com/mairie-en-autriche/stadtgemeinde-melk-rathaus-i105524/,Autriche,Basse-Autriche,Politischer bezirk melk,Melk,"stadtgemeinde melk, rathaus","rathauspl. 11, 3390 melk, austria",3390,02752 52307,Information non disponible,http://www.stadt-melk.at/,"48.22728, 15.33212"
https://fre.cityhallworldwide.com/mairie-en-autriche/gemeindereamt-der-marktgemeinde-krummnubaum-i105536/,Autriche,Basse-Autriche,Politischer bezirk melk,Maria taferl,gemeindereamt der marktgemeinde krummnußbaum,"rathausstraße 8, 3375 krummnußbaum, austria",3375,Information non disponible,Information non disponible,Information non disponible,"48.20728, 15.16538"
https://fre.cityhallworldwide.com/mairie-en-autriche/gemeindeamt-kirnberg-an-der-mank-i105543/,Autriche,Basse-Autriche,Politischer bezirk melk,Kirnberg an der mank,gemeindeamt kirnberg an der mank,"hauptstraße 1, 3241 kirnberg an der mank, austria",3241,02755 8217,Information non disponible,Information non disponible,"48.07104, 15.32258"
https://fre.cityhallworldwide.com/mairie-en-autriche/gemeindeamt-loosdorf-i105548/,Autriche,Basse-Autriche,Politischer bezirk melk,Loosdorf,gemeindeamt loosdorf,"europapl. 11, 3382 loosdorf, austria",3382,Information non disponible,Information non disponible,http://www.loosdorf.at/,"48.20053, 15.40144"
https://fre.cityhallworldwide.com/mairie-en-autriche/marktgemeinde-leiben-i105561/,Autriche,Basse-Autriche,Politischer bezirk melk,Leiben,marktgemeinde leiben,"hauptstraße 34, 3652 leiben, austria",3652,02752 70042,Information non disponible,http://www.leiben.gv.at/,"48.2453, 15.27476"
https://fre.cityhallworldwide.com/mairie-en-autriche/gemeinde-texingtal-i105591/,Autriche,Basse-Autriche,Politischer bezirk melk,Kirnberg an der mank,gemeinde texingtal,"l89 11, 3242, austria",3242,02755 7228,Information non disponible,http://www.texingtal.at/,"48.04908, 15.32534"
https://fre.cityhallworldwide.com/mairie-en-autriche/rathaus-golling-an-der-erlauf-i105680/,Autriche,Basse-Autriche,Politischer bezirk melk,Pöchlarn,rathaus golling an der erlauf,"rathauspl. 1, 3381 neuda, austria",3381,02757 2240,Information non disponible,http://www.golling-erlauf.at/,"48.20475, 15.18166"
https://fre.cityhallworldwide.com/mairie-en-autriche/gemeindeamt-emmersdorf-an-der-donau-i105685/,Autriche,Basse-Autriche,Politischer bezirk melk,Emmersdorf an der donau,gemeindeamt emmersdorf an der donau,"emmersdorf an der donau 22, 3644 emmersdorf an der donau, austria",3644,02752 71469,Information non disponible,http://www.emmersdorf.at/,"48.2405, 15.33554"
https://fre.cityhallworldwide.com/mairie-en-autriche/marbach-an-der-donau-i127594/,Autriche,Basse-Autriche,Politischer bezirk melk,Maria taferl,marbach an der donau,"marktstraße 28, 3671 marbach an der donau, austria",3671,07413 7045,Information non disponible,http://www.marbach-donau.at/nibelungenbad_1,"48.21424, 15.15139"
https://fre.cityhallworldwide.com/mairie-en-autriche/marktgemeinde-gro-engersdorf-am-rubach-i105477/,Autriche,Basse-Autriche,Politischer bezirk mistelbach an der zaya,Groß-engersdorf,marktgemeinde groß engersdorf am rußbach,"hauptstraße 129, 2212 großengersdorf, austria",2212,02245 88201,Information non disponible,Information non disponible,"48.3575, 16.57323"
https://fre.cityhallworldwide.com/mairie-en-autriche/gemeindeamt-falkenstein-i105493/,Autriche,Basse-Autriche,Politischer bezirk mistelbach an der zaya,Falkenstein,gemeindeamt falkenstein,"falkenstein 60, 2162 falkenstein bei poysdorf, austria",2162,Information non disponible,Information non disponible,Information non disponible,"48.72131, 16.58557"
https://fre.cityhallworldwide.com/mairie-en-autriche/marktgemeinde-palterndorf-dobermannsdorf-i105514/,Autriche,Basse-Autriche,Politischer bezirk mistelbach an der zaya,Hausbrunn,marktgemeinde palterndorf-dobermannsdorf,"hauptstraße 60, 2181 dobermannsdorf, austria",2181,Information non disponible,Information non disponible,Information non disponible,"48.59953, 16.82251"
https://fre.cityhallworldwide.com/mairie-en-autriche/stadtgemeinde-laa-an-der-thaya-i105573/,Autriche,Basse-Autriche,Politischer bezirk mistelbach an der zaya,Laa an der thaya,stadtgemeinde laa an der thaya,"stadtpl. 43, 2136 laa an der thaya, austria",2136,02522 25010,Information non disponible,http://www.laa.at/,"48.72098, 16.38516"
https://fre.cityhallworldwide.com/mairie-en-autriche/marktgemeindeamt-i105635/,Autriche,Basse-Autriche,Politischer bezirk mistelbach an der zaya,Hausbrunn,marktgemeindeamt,"hauptstraße 92, 2145 hausbrunn, austria",2145,02533 801320,Information non disponible,http://www.hausbrunn.at/,"48.62788, 16.82885"
https://fre.cityhallworldwide.com/mairie-en-autriche/gemeindereamt-der-marktgemeinde-hausbrunn-i105636/,Autriche,Basse-Autriche,Politischer bezirk mistelbach an der zaya,Hausbrunn,gemeindereamt der marktgemeinde hausbrunn,"hauptstraße 92, 2145 hausbrunn, austria",2145,Information non disponible,Information non disponible,Information non disponible,"48.62794, 16.82894"
https://fre.cityhallworldwide.com/mairie-en-autriche/gemeindeamt-reintal-i105710/,Autriche,Basse-Autriche,Politischer bezirk mistelbach an der zaya,Bernhardsthal,gemeindeamt reintal,"reintal, 2276 reintal bei bernhardsthal, austria",2276,Information non disponible,Information non disponible,Information non disponible,"48.68679, 16.81167"
https://fre.cityhallworldwide.com/mairie-en-autriche/gemeinde-kreuttal-auenstelle-unterolberndorf-i105747/,Autriche,Basse-Autriche,Politischer bezirk mistelbach an der zaya,Hochleithen,gemeinde kreuttal außenstelle unterolberndorf,"kirchengasse 4, 2123 unterolberndorf, austria",2123,Information non disponible,Information non disponible,Information non disponible,"48.43459, 16.47543"
https://fre.cityhallworldwide.com/mairie-en-autriche/rathaus-mistelbach-an-der-zaya-i127593/,Autriche,Basse-Autriche,Politischer bezirk mistelbach an der zaya,Mistelbach,rathaus mistelbach an der zaya,"hauptpl. 6, 2130 mistelbach, austria",2130,02572 2515,Information non disponible,Information non disponible,"48.57074, 16.57243"
https://fre.cityhallworldwide.com/mairie-en-autriche/gemeindeamt-der-marktgemeinde-maria-enzersdorf-i105538/,Autriche,Basse-Autriche,Politischer bezirk mödling,Maria enzersdorf,gemeindeamt der marktgemeinde maria enzersdorf,"hauptstraße 37, 2344 maria enzersdorf, austria",2344,0676 884030,Information non disponible,http://www.mariaenzersdorf.gv.at/,"48.0969, 16.28391"
https://fre.cityhallworldwide.com/mairie-en-autriche/marktgemeinde-biedermannsdorf-i105562/,Autriche,Basse-Autriche,Politischer bezirk mödling,Biedermannsdorf,marktgemeinde biedermannsdorf,"ortsstraße 46, 2362 biedermannsdorf, austria",2362,02236 71131,Information non disponible,http://www.biedermannsdorf.at/,"48.08348, 16.34584"
https://fre.cityhallworldwide.com/mairie-en-autriche/gemeindeamt-kaltenleutgeben-i105572/,Autriche,Basse-Autriche,Politischer bezirk mödling,Kaltenleutgeben,gemeindeamt kaltenleutgeben,"hauptstraße 78, 2391 kaltenleutgeben, austria",2391,Information non disponible,Information non disponible,Information non disponible,"48.11733, 16.19959"
https://fre.cityhallworldwide.com/mairie-en-autriche/gemeinde-munchendorf-i105650/,Autriche,Basse-Autriche,Politischer bezirk mödling,Münchendorf,gemeinde münchendorf,"trumauerstraße 1, 2482, austria",2482,Information non disponible,Information non disponible,Information non disponible,"48.02615, 16.37708"
https://fre.cityhallworldwide.com/mairie-en-autriche/gemeindereamt-der-marktgemeinde-gumpoldskirchen-i105652/,Autriche,Basse-Autriche,Politischer bezirk mödling,Gumpoldskirchen,gemeindereamt der marktgemeinde gumpoldskirchen,"schrannenpl. 1, 2352 gumpoldskirchen, austria",2352,Information non disponible,Information non disponible,Information non disponible,"48.04588, 16.27657"
https://fre.cityhallworldwide.com/mairie-en-autriche/rathaus-gemeindeamt-i105668/,Autriche,Basse-Autriche,Politischer bezirk mödling,Gumpoldskirchen,"rathaus, gemeindeamt","mödlinger str. 1, 2352 gumpoldskirchen, austria",2352,02252 62101,Information non disponible,http://www.gumpoldskirchen.at/,"48.04577, 16.27672"
https://fre.cityhallworldwide.com/mairie-en-autriche/guntramsdorf-rathaus-i127604/,Autriche,Basse-Autriche,Politischer bezirk mödling,Guntramsdorf,guntramsdorf rathaus,"guntramsdorf, austria",2353,Information non disponible,Information non disponible,Information non disponible,"48.04916, 16.31291"
https://fre.cityhallworldwide.com/mairie-en-autriche/rathaus-i127606/,Autriche,Basse-Autriche,Politischer bezirk mödling,Mödling,rathaus,"pfarrgasse 9, 2340 mödling, austria",2340,02236 431700,Information non disponible,Information non disponible,"48.08546, 16.28183"
https://fre.cityhallworldwide.com/mairie-en-autriche/town-hall-brunn-am-gebirge-i127610/,Autriche,Basse-Autriche,Politischer bezirk mödling,Brunn am gebirge,town hall brunn am gebirge,"franz anderle-platz 1, 2345 brunn am gebirge, austria",2345,02236 316010,Information non disponible,http://www.brunnamgebirge.at/,"48.10711, 16.28366"
https://fre.cityhallworldwide.com/mairie-en-autriche/schloss-feistritz-am-wechsel-i105420/,Autriche,Basse-Autriche,Politischer bezirk neunkirchen,Feistritz am wechsel,schloss feistritz am wechsel,"schloss feistritz am wechsel, burg1, 2873 schloss feistritz am wechsel, austria",2873,01 515520,Information non disponible,http://www.burgfeistritz.com/index.php?url=welkom.php&lang=duits,"47.5976, 16.05593"
https://fre.cityhallworldwide.com/mairie-en-autriche/gemeindeamt-payerbach-i105443/,Autriche,Basse-Autriche,Politischer bezirk neunkirchen,Payerbach,gemeindeamt payerbach,"ortspl. 7, 2650 payerbach, austria",2650,Information non disponible,Information non disponible,Information non disponible,"47.69188, 15.86297"
https://fre.cityhallworldwide.com/mairie-en-autriche/gemeindeamt-raach-am-hochgebirge-i105460/,Autriche,Basse-Autriche,Politischer bezirk neunkirchen,Raach am hochgebirge,gemeindeamt raach am hochgebirge,"raach am hochgebirge 44, 2640 raach am hochgebirge, austria",2640,02662 43901,Information non disponible,http://www.raach.at/,"47.64328, 15.93026"
https://fre.cityhallworldwide.com/mairie-en-autriche/gemeindereamt-d-stadtgemeinde-gloggnitz-i105467/,Autriche,Basse-Autriche,Politischer bezirk neunkirchen,Gloggnitz,gemeindereamt d stadtgemeinde gloggnitz,"sparkassenpl. 5, 2640 gloggnitz, austria",2640,Information non disponible,Information non disponible,Information non disponible,"47.67475, 15.93535"
https://fre.cityhallworldwide.com/mairie-en-autriche/gemeinde-aspang-markt-i105534/,Autriche,Basse-Autriche,Politischer bezirk neunkirchen,Thomasberg,gemeinde aspang-markt,"hauptpl. 12, 2870 aspang markt, austria",2870,02642 523030,Information non disponible,http://www.aspangmarkt.at/,"47.55471, 16.09041"
https://fre.cityhallworldwide.com/mairie-en-autriche/gemeinde-grafenbach-sanktvalentin-i105704/,Autriche,Basse-Autriche,Politischer bezirk neunkirchen,Buchbach,gemeinde grafenbach-sanktvalentin,"ernst gruber-straße 1, 2632 grafenbach, austria",2632,02630 37216,Information non disponible,http://www.grafenbach.at/,"47.6837, 16.00605"
https://fre.cityhallworldwide.com/mairie-en-autriche/gemeindeamt-warth-i127578/,Autriche,Basse-Autriche,Politischer bezirk neunkirchen,Warth,gemeindeamt warth,"warth, marktplatz 5, 2831 warth, austria",2831,02629 2245,Information non disponible,http://www.warth-noe.gv.at/,"47.65365, 16.12752"
https://fre.cityhallworldwide.com/mairie-en-autriche/stadtgemeinde-neulengbach-i105516/,Autriche,Basse-Autriche,Politischer bezirk sankt pölten,Neulengbach,stadtgemeinde neulengbach,"kirchenpl. 82, 3040 neulengbach, austria",3040,02772 52105,Information non disponible,http://www.neulengbach.gv.at/,"48.20048, 15.90938"
https://fre.cityhallworldwide.com/mairie-en-autriche/gemeindeamt-kirchstetten-i105587/,Autriche,Basse-Autriche,Politischer bezirk sankt pölten,Kirchstetten,gemeindeamt kirchstetten,"wr. str. 32, 3062 kirchstetten, austria",3062,02743 8206,Information non disponible,http://www.kirchstetten.at/,"48.18993, 15.82044"
https://fre.cityhallworldwide.com/mairie-en-autriche/gemeindeamt-karlstetten-i105599/,Autriche,Basse-Autriche,Politischer bezirk sankt pölten,Karlstetten,gemeindeamt karlstetten,"schloßpl. 1, 3121, austria",3121,Information non disponible,Information non disponible,Information non disponible,"48.25858, 15.56564"
https://fre.cityhallworldwide.com/mairie-en-autriche/gemeindeamt-herzogenburg-i105629/,Autriche,Basse-Autriche,Politischer bezirk sankt pölten,Herzogenburg,gemeindeamt herzogenburg,"rathauspl. 8, 3130 herzogenburg, austria",3130,Information non disponible,Information non disponible,Information non disponible,"48.28539, 15.69468"
https://fre.cityhallworldwide.com/mairie-en-autriche/hafnerbach-i105638/,Autriche,Basse-Autriche,Politischer bezirk sankt pölten,Hafnerbach,hafnerbach,"kirchenpl. 4, 3386 hafnerbach, austria",3386,02749 2278,Information non disponible,http://www.hafnerbach.gv.at/,"48.21669, 15.48734"
https://fre.cityhallworldwide.com/mairie-en-autriche/gemeindeamt-frankenfels-i105673/,Autriche,Basse-Autriche,Politischer bezirk sankt pölten,Frankenfels,gemeindeamt frankenfels,"markt 10, 3213 frankenfels, austria",3213,Information non disponible,Information non disponible,Information non disponible,"47.98244, 15.32609"
https://fre.cityhallworldwide.com/mairie-en-autriche/gemeindeamt-eichgraben-i105688/,Autriche,Basse-Autriche,Politischer bezirk sankt pölten,Eichgraben,gemeindeamt eichgraben,"rathauspl. 1, 3032 eichgraben, austria",3032,02773 44600,Information non disponible,http://www.eichgraben.at/,"48.17253, 15.98315"
https://fre.cityhallworldwide.com/mairie-en-autriche/gemeindeamt-altlengbach-i105731/,Autriche,Basse-Autriche,Politischer bezirk sankt pölten,Altlengbach,gemeindeamt altlengbach,"hauptstraße 52, 3033, austria",3033,Information non disponible,Information non disponible,Information non disponible,"48.15295, 15.93064"
https://fre.cityhallworldwide.com/mairie-en-autriche/gemeindeamt-hafnerbach-i127602/,Autriche,Basse-Autriche,Politischer bezirk sankt pölten,Hafnerbach,gemeindeamt hafnerbach,"kirchenpl. 4, 3386 hafnerbach, austria",3386,02749 2278,Information non disponible,http://www.hafnerbach.gv.at/,"48.21669, 15.48734"
https://fre.cityhallworldwide.com/mairie-en-autriche/stadtgemeinde-wieselburg-i105227/,Autriche,Basse-Autriche,Politischer bezirk scheibbs,Wieselburg,stadtgemeinde wieselburg,"hauptpl. 26, 3250 wieselburg an der erlauf, austria",3250,07416 52319,Information non disponible,http://www.wieselburg.gv.at/,"48.13033, 15.13837"
https://fre.cityhallworldwide.com/mairie-en-autriche/gemeinde-puchenstuben-i105371/,Autriche,Basse-Autriche,Politischer bezirk scheibbs,Puchenstuben,gemeinde puchenstuben,"schmittweg 25, 3214 puchenstuben, austria",3214,Information non disponible,Information non disponible,Information non disponible,"47.92918, 15.28664"
https://fre.cityhallworldwide.com/mairie-en-autriche/stadtgemeinde-scheibbs-i105389/,Autriche,Basse-Autriche,Politischer bezirk scheibbs,Scheibbs,stadtgemeinde scheibbs,"rathauspl. 1, 3270 scheibbs, austria",3270,Information non disponible,Information non disponible,Information non disponible,"48.00558, 15.16758"
https://fre.cityhallworldwide.com/mairie-en-autriche/freiwillige-feuerwehr-sankt-georgen-an-der-leys-i105416/,Autriche,Basse-Autriche,Politischer bezirk scheibbs,Sankt georgen an der leys,freiwillige feuerwehr sankt georgen an der leys,"st. georgen an der leys 1, 3282 st. georgen an der leys, austria",3282,07482 46235,Information non disponible,http://www.stgeorgenleys.at/,"48.03143, 15.22643"
https://fre.cityhallworldwide.com/mairie-en-autriche/gemeinde-gaming-i105440/,Autriche,Basse-Autriche,Politischer bezirk scheibbs,Gaming,gemeinde gaming,"im markt 1, 3292 gaming, austria",3292,Information non disponible,Information non disponible,http://www.gaming.gv.at/,"47.92867, 15.08724"
https://fre.cityhallworldwide.com/mairie-en-autriche/gemeindeamt-der-marktgemeinde-randegg-i105451/,Autriche,Basse-Autriche,Politischer bezirk scheibbs,Randegg,gemeindeamt der marktgemeinde randegg,"randegg 22, 3263 randegg, austria",3263,Information non disponible,Information non disponible,Information non disponible,"48.0113, 14.97316"
https://fre.cityhallworldwide.com/mairie-en-autriche/gemeindeamt-langenrohr-i105567/,Autriche,Basse-Autriche,Politischer bezirk tulln,Langenrohr,gemeindeamt langenrohr,"schulstraße 7, 3442 langenrohr, austria",3442,Information non disponible,Information non disponible,Information non disponible,"48.30795, 16.00718"
https://fre.cityhallworldwide.com/mairie-en-autriche/gemeindeamt-seebarn-i105677/,Autriche,Basse-Autriche,Politischer bezirk tulln,Grafenwörth,gemeindeamt seebarn,"hauptstraße 61, 3484, austria",3484,02738 2480,Information non disponible,Information non disponible,"48.40538, 15.81393"
https://fre.cityhallworldwide.com/mairie-en-autriche/wurmla-i105720/,Autriche,Basse-Autriche,Politischer bezirk tulln,Würmla,würmla,"schloßweg, 3042 würmla, austria",3042,02275 8200,Information non disponible,http://www.wuermla.at/,"48.25278, 15.86032"
https://fre.cityhallworldwide.com/mairie-en-autriche/marktgemeinde-kirchberg-am-wagram-i127598/,Autriche,Basse-Autriche,Politischer bezirk tulln,Kirchberg am wagram,marktgemeinde kirchberg am wagram,"marktpl., 3470 kirchberg am wagram, austria",3470,02279 2332,Information non disponible,https://www.kirchberg-wagram.at/,"48.43403, 15.90013"
https://fre.cityhallworldwide.com/mairie-en-autriche/schloss-wurmla-i127613/,Autriche,Basse-Autriche,Politischer bezirk tulln,Würmla,schloss würmla,"schloßweg 2, 3042 würmla, austria",3042,02275 8200,Information non disponible,http://www.wuermla.at/,"48.25105, 15.86046"
https://fre.cityhallworldwide.com/mairie-en-autriche/stadtgemeinde-waidhofen-an-der-thaya-i105262/,Autriche,Basse-Autriche,Politischer bezirk waidhofen an der thaya,Waidhofen an der thaya,stadtgemeinde waidhofen an der thaya,"hauptpl. 1, 3830 waidhofen an der thaya, austria",3830,02842 503,Information non disponible,http://www.waidhofen-thaya-stadt.at/,"48.8152, 15.28699"
https://fre.cityhallworldwide.com/mairie-en-autriche/gemeindereamt-der-stadt-raabs-i105461/,Autriche,Basse-Autriche,Politischer bezirk waidhofen an der thaya,Raabs an der thaya,gemeindereamt der stadt raabs,"hauptstraße 25, 3820 raabs an der thaya, austria",3820,Information non disponible,Information non disponible,Information non disponible,"48.8474, 15.49441"
https://fre.cityhallworldwide.com/mairie-en-autriche/gemeindereamt-der-marktgemeinde-kautzen-i105595/,Autriche,Basse-Autriche,Politischer bezirk waidhofen an der thaya,Kautzen,gemeindereamt der marktgemeinde kautzen,"waidhofnerstraße 14, 3851 kautzen, austria",3851,Information non disponible,Information non disponible,Information non disponible,"48.9286, 15.241"
https://fre.cityhallworldwide.com/mairie-en-autriche/gemeindereamt-der-marktgemeinde-gastern-i105691/,Autriche,Basse-Autriche,Politischer bezirk waidhofen an der thaya,Gastern,gemeindereamt der marktgemeinde gastern,"hauptstraße 19, 3852 gastern, austria",3852,Information non disponible,Information non disponible,Information non disponible,"48.89607, 15.2191"
https://fre.cityhallworldwide.com/mairie-en-autriche/township-waidhofen-an-der-thaya-i127579/,Autriche,Basse-Autriche,Politischer bezirk waidhofen an der thaya,Waidhofen an der thaya,township waidhofen an der thaya,"hauptpl. 1, 3830 waidhofen an der thaya, austria",3830,02842 503,Information non disponible,http://www.waidhofen-thaya.at/,"48.8152, 15.28699"
https://fre.cityhallworldwide.com/mairie-en-autriche/gemeinde-rauchenwarth-i105369/,Autriche,Basse-Autriche,Politischer bezirk wien umgebung,Rauchenwarth,gemeinde rauchenwarth,"kirchenpl. 1, 2320 rauchenwarth, austria",2320,02230 2777,Information non disponible,http://www.rauchenwarth.gv.at/unten_links.html,"48.08258, 16.52667"
https://fre.cityhallworldwide.com/mairie-en-autriche/gemeinde-schwadorf-bei-wien-i105377/,Autriche,Basse-Autriche,Politischer bezirk wien umgebung,Schwadorf,gemeinde schwadorf bei wien,"hauptpl. 5, 2432 schwadorf bei wien, austria",2432,Information non disponible,Information non disponible,Information non disponible,"48.0696, 16.58142"
https://fre.cityhallworldwide.com/mairie-en-autriche/stadtgemeinde-purkersdorf-i105463/,Autriche,Basse-Autriche,Politischer bezirk wien umgebung,Purkersdorf,stadtgemeinde purkersdorf,"hauptpl. 1, 3002 purkersdorf, austria",3002,Information non disponible,Information non disponible,Information non disponible,"48.20761, 16.17793"
https://fre.cityhallworldwide.com/mairie-en-autriche/gemeindeamt-gramatneusiedl-i105520/,Autriche,Basse-Autriche,Politischer bezirk wien umgebung,Gramatneusiedl,gemeindeamt gramatneusiedl,"bahnstraße 2a, 2440 gramatneusiedl, austria",2440,Information non disponible,Information non disponible,Information non disponible,"48.02914, 16.48999"
https://fre.cityhallworldwide.com/mairie-en-autriche/marktgemeinde-mauerbach-i105527/,Autriche,Basse-Autriche,Politischer bezirk wien umgebung,Mauerbach,marktgemeinde mauerbach,"allhangstraße 14, 3001 mauerbach, austria",3001,Information non disponible,Information non disponible,http://www.mauerbach.gv.at/,"48.24722, 16.16183"
https://fre.cityhallworldwide.com/mairie-en-autriche/marktgemeinde-himberg-i105556/,Autriche,Basse-Autriche,Politischer bezirk wien umgebung,Himberg,marktgemeinde himberg,"hauptstraße 38, 2325 himberg bei wien, austria",2325,02235 862130,Information non disponible,http://www.gemeinde-himberg.at,"48.08353, 16.43942"
https://fre.cityhallworldwide.com/mairie-en-autriche/rathaus-gerasdorf-i105664/,Autriche,Basse-Autriche,Politischer bezirk wien umgebung,Gerasdorf bei wien,rathaus gerasdorf,"kirchengasse 2, austria",2201,02246 22720,Information non disponible,Information non disponible,"48.29517, 16.471"
https://fre.cityhallworldwide.com/mairie-en-autriche/gemeinde-ebergassing---wienerherberg-i105682/,Autriche,Basse-Autriche,Politischer bezirk wien umgebung,Schwadorf,gemeinde ebergassing - wienerherberg,"wienerherberger str. 30, 2435 wienerherberg, austria",2435,Information non disponible,Information non disponible,Information non disponible,"48.058, 16.55018"
https://fre.cityhallworldwide.com/mairie-en-autriche/gemeindeamt-pernitz-i105260/,Autriche,Basse-Autriche,Politischer bezirk wiener neustadt,Pernitz,gemeindeamt pernitz,"gentzschgasse 1, 2763 pernitz, austria",2763,02632 72220,Information non disponible,http://www.pernitz.at/,"47.89885, 15.95813"
https://fre.cityhallworldwide.com/mairie-en-autriche/ortsstelle-rohr-im-gebirge-i105373/,Autriche,Basse-Autriche,Politischer bezirk wiener neustadt,Rohr im gebirge,ortsstelle rohr im gebirge,"gegend 130a, 2663 rohr im gebirge, austria",2663,02667 8201,Information non disponible,http://www.rohrimgebirge.at/,"47.868, 15.70169"
https://fre.cityhallworldwide.com/mairie-en-autriche/gemeindeamt-bad-schonau-i105576/,Autriche,Basse-Autriche,Politischer bezirk wiener neustadt,Bad schönau,gemeindeamt bad schonau,"kurhausstraße 8, 2853 bad schönau, austria",2853,02646 8284,Information non disponible,http://www.badschoenau.at/,"47.49579, 16.23309"
https://fre.cityhallworldwide.com/mairie-en-autriche/stadertgemeinde-kirchschlag-im-d-b-w-i105588/,Autriche,Basse-Autriche,Politischer bezirk wiener neustadt,Kirchschlag in der buckligen welt,stadertgemeinde kirchschlag im d b w,"hauptpl. 1, 2860 kirchschlag in der buckligen welt, austria",2860,Information non disponible,Information non disponible,Information non disponible,"47.50222, 16.29641"
https://fre.cityhallworldwide.com/mairie-en-autriche/gemeindeamt-gutenstein-i105648/,Autriche,Basse-Autriche,Politischer bezirk wiener neustadt,Gutenstein,gemeindeamt gutenstein,"markt 100, 2770 gutenstein, austria",2770,02634 7220,Information non disponible,Information non disponible,"47.87655, 15.89116"
https://fre.cityhallworldwide.com/mairie-en-autriche/gemeindeamt-ebenfurth-i105698/,Autriche,Basse-Autriche,Politischer bezirk wiener neustadt,Ebenfurth,gemeindeamt ebenfurth,"hauptstraße 39, 2490 ebenfurth, austria",2490,Information non disponible,Information non disponible,Information non disponible,"47.87666, 16.37239"
https://fre.cityhallworldwide.com/mairie-en-autriche/bahnhof-gotzendorf-an-der-leitha-i105218/,Autriche,Basse-Autriche,Politischer bezirk bruck an der leitha,Götzendorf an der leitha,bahnhof götzendorf an der leitha,"hauptpl. 1, 2434 götzendorf an der leitha, austria",2434,02169 22742662,Information non disponible,http://www.goetzendorf.at/,"48.01472, 16.58118"
https://fre.cityhallworldwide.com/mairie-en-autriche/gemeinde-sommerein-i105345/,Autriche,Basse-Autriche,Politischer bezirk bruck an der leitha,Sommerein,gemeinde sommerein,"schloßstraße 23, 2453 sommerein, austria",2453,Information non disponible,Information non disponible,Information non disponible,"47.99152, 16.65886"
https://fre.cityhallworldwide.com/mairie-en-autriche/gemeindeamt-pachfurth-i105432/,Autriche,Basse-Autriche,Politischer bezirk bruck an der leitha,Rohrau,gemeindeamt pachfurth,"pachfurth, hauptstraße 29, 2471 rohrau, austria",2471,Information non disponible,Information non disponible,Information non disponible,"48.04792, 16.83256"
https://fre.cityhallworldwide.com/mairie-en-autriche/rathaus-der-stadtgemeinde-traiskirchen-i105295/,Autriche,Basse-Autriche,Politischer bezirk baden,Traiskirchen,rathaus der stadtgemeinde traiskirchen,"hauptpl. 13, 2514 traiskirchen, austria",2514,050 3550,Information non disponible,http://www.traiskirchen.gv.at/,"48.01359, 16.29543"
https://fre.cityhallworldwide.com/mairie-en-autriche/gemeindeamt-ferschnitz-i105332/,Autriche,Basse-Autriche,Politischer bezirk amstetten,Ferschnitz,gemeindeamt ferschnitz,"marktpl. 1, 3325 ferschnitz, austria",3325,Information non disponible,Information non disponible,Information non disponible,"48.09395, 14.98413"
https://fre.cityhallworldwide.com/mairie-en-autriche/city-hall-wolkersdorf-i105206/,Autriche,Basse-Autriche,Other cities in lower austria,Wolkersdorf,city hall wolkersdorf,"hauptstraße 28, 2120 wolkersdorf im weinviertel, austria",2120,02245 24010,Information non disponible,http://www.wolkersdorf.at/rathaus/,"48.38317, 16.51782"
https://fre.cityhallworldwide.com/mairie-en-autriche/stadtgemeinde-traismauer---stadtamt-i105294/,Autriche,Basse-Autriche,Politischer bezirk sankt pölten,Traismauer,stadtgemeinde traismauer - stadtamt,"wr. str. 8, 3133 traismauer, austria",3133,02783 8651,Information non disponible,Information non disponible,"48.34983, 15.74421"
https://fre.cityhallworldwide.com/mairie-en-autriche/stadtgemeinde-pinkafeld-i105225/,Autriche,Burgenland,Politischer bezirk oberwart,Pinkafeld,stadtgemeinde pinkafeld,"hauptpl. 1, 7423 pinkafeld, austria",7423,03357 42351,Information non disponible,http://www.pinkafeld-online.at/,"47.37207, 16.12478"
https://fre.cityhallworldwide.com/mairie-en-autriche/gemeindeamt-kaisersdorf-i105233/,Autriche,Burgenland,Politischer bezirk oberpullendorf,Kaisersdorf,gemeindeamt kaisersdorf,"hauptstraße 57, 7342 kaisersdorf, austria",7342,02617 2311,Information non disponible,http://www.kaisersdorf.com/,"47.534, 16.39649"
https://fre.cityhallworldwide.com/mairie-en-autriche/gemeindeamt-edelstal-i105208/,Autriche,Burgenland,Politischer bezirk neusiedl am see,Edelstal,gemeindeamt edelstal,"hauptstraße 27, 2413 edelstal, austria",2413,02145 3385,Information non disponible,http://www.edelstal.gv.at/index.php,"48.09752, 16.98862"
https://fre.cityhallworldwide.com/mairie-en-autriche/gemeindeamt-sieggraben-i105356/,Autriche,Burgenland,Politischer bezirk mattersburg,Sieggraben,gemeindeamt sieggraben,"obere hauptstraße 8, 7223 sieggraben, austria",7223,02621 2200,Information non disponible,http://www.sieggraben.at/,"47.64998, 16.37966"
https://fre.cityhallworldwide.com/mairie-en-autriche/gemeindeamt-worterberg-i105215/,Autriche,Burgenland,Politischer bezirk güssing,Wörterberg,gemeindeamt wörterberg,"wörterberg 49, 8293 wörterberg, austria",8293,03358 2940,Information non disponible,http://www.woerterberg.at/,"47.22024, 16.09949"
https://fre.cityhallworldwide.com/mairie-en-autriche/tschanigraben-i105284/,Autriche,Burgenland,Politischer bezirk güssing,Tschanigraben,tschanigraben,"tschanigraben 41, 7540 tschanigraben, austria",7540,Information non disponible,Information non disponible,Information non disponible,"47.00672, 16.30557"
https://fre.cityhallworldwide.com/mairie-en-autriche/marktgemeinde-gropetersdorf-i105245/,Autriche,Burgenland,Burgenland (Province),Grosspetersdorf,marktgemeinde großpetersdorf,"hauptstraße 36, 7503 großpetersdorf, austria",7503,03362 23110,Information non disponible,http://www.grosspetersdorf.at/,"47.23828, 16.31958"
https://fre.cityhallworldwide.com/mairie-en-autriche/stadtgemeinde-feldkirchen-in-karnten-i105327/,Autriche,Carinthie,Politischer bezirk feldkirchen,Feldkirchen in kärnten,stadtgemeinde feldkirchen in kärnten,"hauptpl. 5, 9560 feldkirchen in kärnten, austria",9560,04276 2511,Information non disponible,http://www.feldkirchen.at/,"46.72325, 14.0919"
https://fre.cityhallworldwide.com/mairie-en-autriche/landeshauptstadt-klagenfurt-i105586/,Autriche,Carinthie,Klagenfurt am wörthersee,Klagenfurt,landeshauptstadt klagenfurt,"neuer pl. 1, 9020 klagenfurt am wörthersee, austria",9020,0463 5370,Information non disponible,http://www.klagenfurt.at/,"46.62396, 14.30662"
https://fre.cityhallworldwide.com/mairie-en-autriche/glanegg-i105663/,Autriche,Carinthie,Politischer bezirk feldkirchen,Glanegg,glanegg,"glanegg 20, 9555 glanegg, austria",9555,04277 2276,Information non disponible,http://www.glanegg.gv.at/,"46.71501, 14.21142"
https://fre.cityhallworldwide.com/mairie-en-autriche/feldkirchen-in-karnten-i127600/,Autriche,Carinthie,Politischer bezirk feldkirchen,Feldkirchen in kärnten,feldkirchen in kärnten,"hauptpl. 5, 9560 feldkirchen in kärnten, austria",9560,04276 25110,Information non disponible,http://www.feldkirchen.at/,"46.7233, 14.09189"
https://fre.cityhallworldwide.com/mairie-en-autriche/gemeinde-tobaj-i105297/,Autriche,Burgenland,Politischer bezirk güssing,Tobaj,gemeinde tobaj,"tobaj 107, 7540 tobaj, austria",7540,Information non disponible,Information non disponible,Information non disponible,"47.09201, 16.30369"
https://fre.cityhallworldwide.com/mairie-en-autriche/gemeindeamt-der-gemeinden-bocksdorf-heugraben-und-rohr-im-bgdl-i105333/,Autriche,Burgenland,Politischer bezirk güssing,Bocksdorf,"gemeindeamt der gemeinden bocksdorf, heugraben und rohr im bgdl","herrengasse 11, 7551 bocksdorf, austria",7551,Information non disponible,Information non disponible,Information non disponible,"47.14371, 16.1767"
https://fre.cityhallworldwide.com/mairie-en-autriche/gemeinde-sankt-michael-im-burgenland-i105402/,Autriche,Burgenland,Politischer bezirk güssing,Sankt michael im burgenland,gemeinde sankt michael im burgenland,"hauptpl. 8, 7535 sankt michael im burgenland, austria",7535,03327 22480,Information non disponible,http://www.st.michael-bgld.at/,"47.12625, 16.26943"
https://fre.cityhallworldwide.com/mairie-en-autriche/gemeinde-eberau-i105519/,Autriche,Burgenland,Politischer bezirk güssing,Eberau,gemeinde eberau,"hauptpl. 1, 7521 eberau, austria",7521,03323 40030,Information non disponible,http://www.eberau.at/,"47.1077, 16.45979"
https://fre.cityhallworldwide.com/mairie-en-autriche/gemeinde-inzenhof-i105615/,Autriche,Burgenland,Politischer bezirk güssing,Inzenhof,gemeinde inzenhof,"inzenhof 42, 7540 inzenhof, austria",7540,03322 43870,Information non disponible,http://www.inzenhof.at/,"47.01221, 16.31606"
https://fre.cityhallworldwide.com/mairie-en-autriche/gemeinde-rauchwart-im-burgenland-i105627/,Autriche,Burgenland,Politischer bezirk güssing,Sankt michael im burgenland,gemeinde rauchwart im burgenland,"rauchwart 116, 7535 rauchwart im burgenland, austria",7535,Information non disponible,Information non disponible,Information non disponible,"47.13321, 16.22541"
https://fre.cityhallworldwide.com/mairie-en-autriche/gemeindeamt-sankt-martin-an-der-raab-i105403/,Autriche,Burgenland,Politischer bezirk jennersdorf,Sankt martin an der raab,gemeindeamt sankt martin an der raab,"hauptpl. 7, 8383 st. martin an der raab, austria",8383,03329 45366,Information non disponible,http://www.sankt-martin-raab.at/,"46.92056, 16.13404"
https://fre.cityhallworldwide.com/mairie-en-autriche/marktgemeindeamt-rudersdorf-i105427/,Autriche,Burgenland,Politischer bezirk jennersdorf,Rudersdorf,marktgemeindeamt rudersdorf,"kirchenpl. 1, 7571 rudersdorf, austria",7571,03382 715000,Information non disponible,http://www.rudersdorf.at/,"47.04956, 16.12206"
https://fre.cityhallworldwide.com/mairie-en-autriche/gemeindeamt-rudersdorf-auenstelle-dobersdorf-i105686/,Autriche,Burgenland,Politischer bezirk jennersdorf,Königsdorf,gemeindeamt rudersdorf außenstelle dobersdorf,"kirchenstraße 100, 7564 dobersdorf, austria",7564,Information non disponible,Information non disponible,Information non disponible,"47.0225, 16.1444"
https://fre.cityhallworldwide.com/mairie-en-autriche/gemeinde-minihof-liebau-i111564/,Autriche,Burgenland,Politischer bezirk jennersdorf,Mühlgraben,gemeinde minihof-liebau,"minihof-liebau 6, 8384 minihof-liebau, austria",8384,03329 2225,Information non disponible,https://www.minihof-liebau.at/,"46.88247, 16.07432"
https://fre.cityhallworldwide.com/mairie-en-autriche/stadtgemeinde-mattersburg-i105528/,Autriche,Burgenland,Politischer bezirk mattersburg,Mattersburg,stadtgemeinde mattersburg,"brunnenpl. 4, 7210 mattersburg, austria",7210,02626 623320,Information non disponible,http://www.mattersburg.gv.at/,"47.73834, 16.40159"
https://fre.cityhallworldwide.com/mairie-en-autriche/gemeinde-marz-i105529/,Autriche,Burgenland,Politischer bezirk mattersburg,Marz,gemeinde marz,"schulstraße 11, 7221 marz, austria",7221,02626 639200,Information non disponible,http://www.marz.at/,"47.71577, 16.41681"
https://fre.cityhallworldwide.com/mairie-en-autriche/gemeindeamt-sankt-andra-am-zicksee-i105311/,Autriche,Burgenland,Politischer bezirk neusiedl am see,Sankt andrä am zicksee,gemeindeamt sankt andrä am zicksee,"hauptstraße 59, 7161 st. andrä am zicksee, austria",7161,02176 2300,Information non disponible,http://www.standraezicksee.at/,"47.7849, 16.94411"
https://fre.cityhallworldwide.com/mairie-en-autriche/gemeinde-potzneusiedl-i105468/,Autriche,Burgenland,Politischer bezirk neusiedl am see,Potzneusiedl,gemeinde potzneusiedl,"untere hauptstraße 26, 2473 potzneusiedl, austria",2473,Information non disponible,Information non disponible,Information non disponible,"48.04358, 16.95198"
https://fre.cityhallworldwide.com/mairie-en-autriche/gemeindeamt-andau-i105729/,Autriche,Burgenland,Politischer bezirk neusiedl am see,Andau,gemeindeamt andau,"hauptgasse 8, 7163 andau, austria",7163,Information non disponible,Information non disponible,http://www.andau-gemeinde.at/kontakt/,"47.77494, 17.03265"
https://fre.cityhallworldwide.com/mairie-en-autriche/stadtgemeinde-oberpullendorf-i105275/,Autriche,Burgenland,Politischer bezirk oberpullendorf,Oberpullendorf,stadtgemeinde oberpullendorf,"hauptstraße 9, 7350 oberpullendorf, austria",7350,Information non disponible,Information non disponible,Information non disponible,"47.50123, 16.50539"
https://fre.cityhallworldwide.com/mairie-en-autriche/polgarmesteri-hivatal-sopronkovesd-i105511/,Autriche,Burgenland,Politischer bezirk oberpullendorf,Nikitsch,polgármesteri hivatal sopronkövesd,"sopronkövesd, kossuth lajos utca 77., 9483 hungary",9483,(99) 536 000,Information non disponible,http://www.sopronkovesd.hu/,"47.5454, 16.74491"
https://fre.cityhallworldwide.com/mairie-en-autriche/polgarmesteri-hivatal-zsira-i105545/,Autriche,Burgenland,Politischer bezirk oberpullendorf,Lutzmannsburg,polgármesteri hivatal zsira,"zsira, rákóczi ferenc utca 8., 9476 hungary",9476,(99) 543 013,Information non disponible,http://www.zsira.hu/index.php/intezmenyek/2014-09-07-16-05-58,"47.4577, 16.67719"
https://fre.cityhallworldwide.com/mairie-en-autriche/gemeindereamt-bad-tatzmannsdorf-i105340/,Autriche,Burgenland,Politischer bezirk oberwart,Bad tatzmannsdorf,gemeindereamt bad tatzmannsdorf,"joseph haydn-platz 1, 7431 bad tatzmannsdorf, austria",7431,Information non disponible,Information non disponible,Information non disponible,"47.33244, 16.22908"
https://fre.cityhallworldwide.com/mairie-en-autriche/gemeindeamt-schandorf-i105392/,Autriche,Burgenland,Politischer bezirk oberwart,Schandorf,gemeindeamt schandorf,"schandorf 150, 7472 schandorf, austria",7472,Information non disponible,Information non disponible,Information non disponible,"47.24087, 16.42294"
https://fre.cityhallworldwide.com/mairie-en-autriche/polgarmesteri-hivatal-bucsu-i105393/,Autriche,Burgenland,Politischer bezirk oberwart,Schachendorf,polgármesteri hivatal bucsu,"bucsu, rohonczi utca 2., 9792 hungary",9792,(94) 540 505,Information non disponible,Information non disponible,"47.26393, 16.49389"
https://fre.cityhallworldwide.com/mairie-en-autriche/gemeindeamt-rechnitz-i105444/,Autriche,Burgenland,Politischer bezirk oberwart,Rechnitz,gemeindeamt rechnitz,"hauptpl. 10, 7471 rechnitz, austria",7471,03363 79202,Information non disponible,http://www.rechnitz.at/,"47.30559, 16.44018"
https://fre.cityhallworldwide.com/mairie-en-autriche/marktgemeinde-wolfau-i105499/,Autriche,Burgenland,Politischer bezirk oberwart,Litzelsdorf,marktgemeinde wolfau,"hauptstraße 43, 7412 wolfau, austria",7412,03356 349,Information non disponible,http://www.wolfau.at/,"47.20105, 16.13444"
https://fre.cityhallworldwide.com/mairie-en-autriche/gemeindeamt-olbendorf-i105500/,Autriche,Burgenland,Politischer bezirk oberwart,Litzelsdorf,gemeindeamt olbendorf,"litzelsdorf-olbendorf, 7532, austria",7532,Information non disponible,Information non disponible,Information non disponible,"47.21603, 16.16805"
https://fre.cityhallworldwide.com/mairie-en-autriche/gemeinde-badersdorf-i105521/,Autriche,Burgenland,Politischer bezirk oberwart,Badersdorf,gemeinde badersdorf,"badersdorf 33, 7512 badersdorf, austria",7512,Information non disponible,Information non disponible,http://www.badersdorf.at/,"47.19419, 16.37277"
https://fre.cityhallworldwide.com/mairie-en-autriche/hannersdorf-i105641/,Autriche,Burgenland,Politischer bezirk oberwart,Hannersdorf,hannersdorf,"hannersdorf 166, 7473 hannersdorf, austria",7473,03364 2226,Information non disponible,https://www.hannersdorf.at/,"47.22859, 16.38408"
https://fre.cityhallworldwide.com/mairie-en-autriche/gemeinde-statzendorf-i105335/,Autriche,Basse-Autriche,Politischer bezirk sankt pölten,Statzendorf,gemeinde statzendorf,"absdorf 65, 3125 absdorf, austria",3125,Information non disponible,Information non disponible,Information non disponible,"48.30838, 15.63533"
https://fre.cityhallworldwide.com/mairie-en-autriche/stadtamt-tulln-an-der-donau-i105282/,Autriche,Basse-Autriche,Other cities in lower austria,Tulln,stadtamt tulln an der donau,"minoritenpl. 1, 3430 tulln an der donau, austria",3430,Information non disponible,Information non disponible,Information non disponible,"48.3325, 16.04943"
https://fre.cityhallworldwide.com/mairie-en-autriche/stadtgemeinde-fischamend-i105541/,Autriche,Basse-Autriche,Other cities in lower austria,Fischamend dorf,stadtgemeinde fischamend,"bahnhofstraße 1, 2401 fischamend, austria",2401,02232 76323,Information non disponible,http://www.fischamend.gv.at/,"48.11834, 16.61142"
https://fre.cityhallworldwide.com/mairie-en-autriche/stadtgemeinde-hainburg-addonau-i127603/,Autriche,Basse-Autriche,Other cities in lower austria,Hainburg an der donau,stadtgemeinde hainburg a.d.donau,"hauptpl. 23, 2410 hainburg an der donau, austria",2410,02165 62111,Information non disponible,http://www.hainburg.at/,"48.14771, 16.94179"
https://fre.cityhallworldwide.com/mairie-en-autriche/marktgemeindeamt-sankt-georgen-am-ybbsfelde-i105417/,Autriche,Basse-Autriche,Politischer bezirk amstetten,Sankt georgen am ybbsfelde,marktgemeindeamt sankt georgen am ybbsfelde,"marktstraße 30, 3304 st. georgen am ybbsfelde, austria",3304,07473 23120,Information non disponible,http://www.st-georgen-ybbsfelde.gv.at/,"48.12893, 14.95494"
https://fre.cityhallworldwide.com/mairie-en-autriche/gemeinde-opponitz-i105497/,Autriche,Basse-Autriche,Politischer bezirk amstetten,Opponitz,gemeinde opponitz,"hauslehen 21, 3342 hauslehen, austria",3342,Information non disponible,Information non disponible,Information non disponible,"47.87701, 14.82383"
https://fre.cityhallworldwide.com/mairie-en-autriche/gemeindereamt-hollenstein-an-der-ybbs-i105619/,Autriche,Basse-Autriche,Politischer bezirk amstetten,Hollenstein an der ybbs,gemeindereamt hollenstein an der ybbs,"walcherbauer 2, 3343 walcherbauer, austria",3343,07445 2180,Information non disponible,Information non disponible,"47.80364, 14.77189"
https://fre.cityhallworldwide.com/mairie-en-autriche/gemeindeamt-der-marktgemeinde-sonntagberg-i105709/,Autriche,Basse-Autriche,Politischer bezirk amstetten,Sonntagberg,gemeindeamt der marktgemeinde sonntagberg,"waidhofner str. 20, 3332 rosenau am sonntagberg, austria",3332,Information non disponible,Information non disponible,http://www.sonntagberg.gv.at/,"48.00958, 14.74077"
https://fre.cityhallworldwide.com/mairie-en-autriche/stadtgemeinde-amstetten-i127577/,Autriche,Basse-Autriche,Politischer bezirk amstetten,Amstetten,stadtgemeinde amstetten,"rathausstraße 1, 3300 amstetten, austria",3300,07472 601,Information non disponible,http://www.amstetten.at/,"48.12293, 14.87109"
https://fre.cityhallworldwide.com/mairie-en-autriche/gemeinde-teesdorf-i105307/,Autriche,Basse-Autriche,Politischer bezirk baden,Teesdorf,gemeinde teesdorf,"schulstraße 11, 2524 teesdorf, austria",2524,02253 81440,Information non disponible,http://www.teesdorf.at/,"47.94856, 16.28313"
https://fre.cityhallworldwide.com/mairie-en-autriche/gemeindereamt-der-marktgemeinde-pottenstein-i105470/,Autriche,Basse-Autriche,Politischer bezirk baden,Pottenstein,gemeindereamt der marktgemeinde pottenstein,"hauptpl. 13, 2563 pottenstein, austria",2563,Information non disponible,Information non disponible,Information non disponible,"47.95916, 16.09755"
https://fre.cityhallworldwide.com/mairie-en-autriche/gemeindereamt-der-marktgemeinde-pottendorf-i105471/,Autriche,Basse-Autriche,Politischer bezirk baden,Pottendorf,gemeindereamt der marktgemeinde pottendorf,"hauptstraße 11, 2486 pottendorf, austria",2486,Information non disponible,Information non disponible,Information non disponible,"47.9109, 16.3874"
https://fre.cityhallworldwide.com/mairie-en-autriche/gemeindeamt-marktgemeinde-leobersdorf-i105558/,Autriche,Basse-Autriche,Politischer bezirk baden,Leobersdorf,gemeindeamt marktgemeinde leobersdorf,"rathauspl. 1, 2544 leobersdorf, austria",2544,02256 62396,Information non disponible,http://www.leobersdorf.at/,"47.92866, 16.21726"
https://fre.cityhallworldwide.com/mairie-en-autriche/marktgemeinde-gunselsdorf-i105581/,Autriche,Basse-Autriche,Politischer bezirk baden,Günselsdorf,marktgemeinde günselsdorf,"wr. neustädterstraße 2, 2525 günselsdorf, austria",2525,Information non disponible,Information non disponible,Information non disponible,"47.94406, 16.25994"
https://fre.cityhallworldwide.com/mairie-en-autriche/marktgemeinde-enzesfeld-lindabrunn-i105626/,Autriche,Basse-Autriche,Politischer bezirk baden,Hirtenberg,marktgemeinde enzesfeld-lindabrunn,"hauptstraße 12, 2551 enzesfeld-lindabrunn, austria",2551,Information non disponible,Information non disponible,http://www.enzesfeld-lindabrunn.at/,"47.92083, 16.18696"
https://fre.cityhallworldwide.com/mairie-en-autriche/gemeinde-heiligenkreuz-i105631/,Autriche,Basse-Autriche,Politischer bezirk baden,Heiligenkreuz,gemeinde heiligenkreuz,"hauptstraße 7, 2532 heiligenkreuz im wienerwald, austria",2532,Information non disponible,Information non disponible,Information non disponible,"48.05656, 16.12967"
https://fre.cityhallworldwide.com/mairie-en-autriche/stadtgemeinde-ebreichsdorf-i105695/,Autriche,Basse-Autriche,Politischer bezirk baden,Ebreichsdorf,stadtgemeinde ebreichsdorf,"rathauspl. 1, 2483 ebreichsdorf, austria",2483,02254 722180,Information non disponible,http://www.ebreichsdorf.at/,"47.96268, 16.39948"
https://fre.cityhallworldwide.com/mairie-en-autriche/rathaus-baden-i105715/,Autriche,Basse-Autriche,Politischer bezirk baden,Baden,rathaus baden,"hauptpl. 1, 2500 baden, austria",2500,02252 86800,Information non disponible,Information non disponible,"48.00777, 16.23414"
