Drive,Livraison,address,city,name,postalcode
Lundi 4 entre 08h00 et 08h30,Lundi 4 entre 09h30 et 10h30,ROUTE DE LYON BP 187,ROMANS CEDEX,Hyper U ROMANS,26109
Lundi 4 entre 11h00 et 12h00,Lundi 4 entre 10h00 et 12h00,D.538 ROUTE DE VALENCE,BEAUMONT LES VALENCE,Super U BEAUMONT LES VALENCE,26760
Lundi 4 entre 09h00 et 10h00,,ROUTE D ORANGE,NYONS,Super U NYONS,26110
Lundi 4 entre 11h00 et 11h30,Lundi 4 entre 08h30 et 10h30,77 AVENUE SADI CARNOT,DIE,U Express DIE,26150
Lundi 4 entre 08h30 et 09h00,Lundi 4 entre 11h00 et 12h00,NOTRE DAME DE LA CALLE,DIEULEFIT,Super U DIEULEFIT,26220
Lundi 4 entre 09h00 et 10h00,,56 AVENUE GAMBETTA,ROMANS,Super U ROMANS GAMBETTA,26100
Lundi 4 entre 09h00 et 10h00,Lundi 4 entre 09h00 et 10h00,265 AVENUE DES PINS,ST SORLIN EN VALLOIRE,Super U ST SORLIN EN VALLOIRE,26210
Lundi 4 entre 09h00 et 09h30,Lundi 4 entre 11h00 et 13h00,280 AV JEAN MOULIN RN 7,DONZERE,Super U DONZERE,26290
Lundi 4 entre 09h00 et 10h00,Lundi 4 entre 12h00 et 13h00,ROUTE DE VALENCE,ST DONAT,Super U ST DONAT,26260
Lundi 4 entre 08h00 et 09h00,Lundi 4 entre 08h00 et 09h00,75 rue Lavoisier,LA MOTTE SERVOLEX,Super U LA MOTTE SERVOLEX,73290
Lundi 4 entre 09h00 et 10h00,Lundi 4 entre 15h00 et 16h00,Route de lEnergie,LA BATHIE,Super U LA BATHIE,73540
Lundi 4 entre 08h00 et 09h00,Lundi 4 entre 09h00 et 11h00,ZONE INDUSTRIELLE DE MA BARONNIE,PONT DE BEAUVOISIN,Hyper U PONT DE BEAUVOISIN,73330
Lundi 4 entre 08h30 et 09h00,Mardi 5 entre 14h00 et 16h00,Route des Arcs,BOURG ST MAURICE CEDEX,Super U BOURG ST MAURICE,73704
Lundi 4 entre 08h30 et 10h00,Lundi 4 entre 09h00 et 10h00,ZONE ARTISANALE DE SAUMONT,RUFFIEUX,U Express RUFFIEUX,73310
Lundi 4 entre 08h30 et 09h00,Lundi 4 entre 09h00 et 10h00,Centre Commercial,COGNIN,Super U COGNIN,73160
Lundi 4 entre 08h30 et 09h00,Lundi 4 entre 09h00 et 10h00,42 AVENUE DANNECY,CHAMBERY LE HAUT,Super U CHAMBERY LE HAUT,73000
Lundi 4 entre 08h30 et 09h00,Lundi 4 entre 13h00 et 15h00,Zone des Moulins,SALINS LES THERMES,Super U SALINS LES THERMES,73600
Lundi 4 entre 08h00 et 09h00,Mardi 5 entre 10h00 et 12h00,ZAC DE LA PETITE PRAIRIE,AIGUEBLANCHE,Super U AIGUEBLANCHE,73260
Lundi 4 entre 08h30 et 10h00,,ROUTE DU LAC,DETRIER,Super U DETRIER LA ROCHETTE,73110
Lundi 4 entre 08h30 et 09h00,Lundi 4 entre 08h30 et 09h30,Le Boisset Francin,MONTMELIAN,Super U MONTMELIAN,73800
Lundi 4 entre 08h00 et 08h30,Lundi 4 entre 10h00 et 11h00,Rue du pré Renaud,LA RAVOIRE,Super U LA RAVOIRE,73490
Lundi 4 entre 09h00 et 10h00,Lundi 4 entre 12h00 et 14h00,RTE DE VALLON PONT DARC,RUOMS,Super U RUOMS,07120
Lundi 4 entre 07h30 et 08h00,Lundi 4 entre 09h00 et 10h00,QUARTIER CLE DU SAC,ALISSAS PAR PRIVAS,Super U ALISSAS,07210
Lundi 4 entre 10h00 et 11h00,Lundi 4 entre 11h00 et 12h00,ZI DE LA SUMENE,LAMASTRE,Super U LAMASTRE,07270
Lundi 4 entre 08h00 et 09h00,Lundi 4 entre 11h00 et 12h00,LOTIS.INDUST.DE LA PALISSE,LE CHEYLARD,Super U LE CHEYLARD,07160
Lundi 4 entre 07h30 et 08h00,Lundi 4 entre 10h00 et 11h00,50 AVENUE DE L EUROPE,ANNONAY,Super U ANNONAY,07100
Lundi 4 entre 08h00 et 09h00,Lundi 4 entre 09h00 et 11h00,RUE DE LEGLISE,ST JORIOZ,Super U ST JORIOZ,74410
Lundi 4 entre 08h30 et 09h00,,93 ROUTE DE LA RAVOIRE,PRINGY,Super U PRINGY,74370
Lundi 4 entre 08h00 et 09h00,Lundi 4 entre 10h30 et 12h30,91 AVENUE DE MARLIOZ,PASSY,Super U PASSY,74190
Lundi 4 entre 09h00 et 10h00,Lundi 4 entre 11h00 et 12h00,CENTRE COMMERCIAL LES 2 LACS,RUMILLY,Hyper U RUMILLY,74150
Lundi 4 entre 08h30 et 09h30,,Parc dactiv. de la MENOGE,BONNE,Super U BONNE,74380
Lundi 4 entre 09h00 et 10h00,Lundi 4 entre 08h30 et 10h30,180 ALLEE DES NOYERES,MAGLAND,Super U MAGLAND,74300
Lundi 4 entre 11h00 et 12h00,Lundi 4 entre 17h00 et 18h00,RUE CHARLET STRATTON,ARGENTIERE,Marché U CHAMONIX ARGENTIERE,74400
Lundi 4 entre 09h00 et 10h00,Lundi 4 entre 09h00 et 10h00,117 rue Joseph Vallot,CHAMONIX,Super U CHAMONIX VALLOT,74400
Lundi 4 entre 16h00 et 17h00,,C.C.LES PÈLERINS,CHAMONIX,U Express CHAMONIX PELERINS,74400
